<?xml version="1.0" encoding="UTF-8" standalone="no" ?>
<gpx xmlns:tp1="http://www.garmin.com/xmlschemas/TrackPointExtension/v1" creator="QMapShack 1.10.0 http://www.qlandkarte.org/" xmlns:gpxx="http://www.garmin.com/xmlschemas/GpxExtensions/v3" xmlns:gpxtpx="http://www.garmin.com/xmlschemas/TrackPointExtension/v1" xmlns:rmc="urn:net:trekbuddy:1.0:nmea:rmc" xmlns="http://www.topografix.com/GPX/1/1" xmlns:xsi="http://www.w3.org/2001/XMLSchema-instance" xsi:schemaLocation="http://www.topografix.com/GPX/1/1 http://www.topografix.com/GPX/1/1/gpx.xsd http://www.garmin.com/xmlschemas/GpxExtensions/v3 http://www.garmin.com/xmlschemas/GpxExtensionsv3.xsd http://www.garmin.com/xmlschemas/TrackPointExtension/v1 http://www.garmin.com/xmlschemas/TrackPointExtensionv1.xsd http://www.garmin.com/xmlschemas/WaypointExtension/v1 http://www.garmin.com/xmlschemas/WaypointExtensionv1.xsd http://www.qlandkarte.org/xmlschemas/v1.1 http://www.qlandkarte.org/xmlschemas/v1.1/ql-extensions.xsd http://www.cluetrust.com/XML/GPXDATA/1/0 http://www.cluetrust.com/Schemas/gpxdata10.xsd" version="1.1" xmlns:wptx1="http://www.garmin.com/xmlschemas/WaypointExtension/v1" xmlns:ql="http://www.qlandkarte.org/xmlschemas/v1.1" xmlns:gpxdata="http://www.cluetrust.com/XML/GPXDATA/1/0">
 <metadata>
  <name>Streifzug 01: Auf den Spuren der Bienerts in Dresden-Plauen</name>
  <link href="https://www.dvb.de/de-de/entdecken/wandertipps/durch-dresden-plauen/">
   <text>Webseite</text>
   <type>Link</type>
  </link>
  <time>2020-06-13T15:00:23.000Z</time>
 </metadata>
 <wpt lon="13.70659351" lat="51.02953523">
  <ele>143</ele>
  <time>2020-07-10T17:29:46.586Z</time>
  <name>Wegpunkt 1 Links</name>
  <sym>Flag, Blue</sym>
  <extensions>
   <ql:key>7037d08df7aeb2575873652a3773ef70</ql:key>
   <ql:flags>3</ql:flags>
   <ql:bubble yoff="-150" xoff="-320" width="300"/>
   <ql:history>
    <ql:event>
     <ql:icon>://icons/48x48/Start.png</ql:icon>
     <ql:time>2020-07-10T17:29:46.587Z</ql:time>
     <ql:comment>Erstversion.</ql:comment>
    </ql:event>
    <ql:event>
     <ql:icon>://icons/48x48/WptEditProx.png</ql:icon>
     <ql:time>2020-07-10T17:29:57.847Z</ql:time>
     <ql:comment>Abstandsalarm geändert</ql:comment>
    </ql:event>
    <ql:event>
     <ql:icon>://icons/48x48/WptMove.png</ql:icon>
     <ql:time>2020-07-14T05:02:25.821Z</ql:time>
     <ql:comment>Position geändert</ql:comment>
    </ql:event>
    <ql:event>
     <ql:icon>://icons/48x48/EditText.png</ql:icon>
     <ql:time>2020-07-14T05:04:19.836Z</ql:time>
     <ql:comment>Name geändert</ql:comment>
    </ql:event>
    <ql:event>
     <ql:icon>://icons/48x48/WptMove.png</ql:icon>
     <ql:time>2020-07-15T04:40:52.728Z</ql:time>
     <ql:comment>Position geändert</ql:comment>
    </ql:event>
   </ql:history>
   <wptx1:WaypointExtension>
    <wptx1:Proximity>10.00000000</wptx1:Proximity>
   </wptx1:WaypointExtension>
  </extensions>
 </wpt>
 <wpt lon="13.70697572" lat="51.02933226">
  <ele>146</ele>
  <time>2020-07-10T17:30:49.603Z</time>
  <name>Wegpunkt 2 Voraus</name>
  <sym>Flag, Blue</sym>
  <extensions>
   <ql:key>67d915f88fe577e955a55c2081eb11b0</ql:key>
   <ql:flags>3</ql:flags>
   <ql:bubble yoff="-150" xoff="-320" width="300"/>
   <ql:history>
    <ql:event>
     <ql:icon>://icons/48x48/Start.png</ql:icon>
     <ql:time>2020-07-10T17:30:49.605Z</ql:time>
     <ql:comment>Erstversion.</ql:comment>
    </ql:event>
    <ql:event>
     <ql:icon>://icons/48x48/WptEditProx.png</ql:icon>
     <ql:time>2020-07-10T17:30:53.362Z</ql:time>
     <ql:comment>Abstandsalarm geändert</ql:comment>
    </ql:event>
    <ql:event>
     <ql:icon>://icons/48x48/WptMove.png</ql:icon>
     <ql:time>2020-07-14T04:53:26.197Z</ql:time>
     <ql:comment>Position geändert</ql:comment>
    </ql:event>
    <ql:event>
     <ql:icon>://icons/48x48/EditText.png</ql:icon>
     <ql:time>2020-07-14T05:01:11.189Z</ql:time>
     <ql:comment>Name geändert</ql:comment>
    </ql:event>
    <ql:event>
     <ql:icon>://icons/48x48/EditText.png</ql:icon>
     <ql:time>2020-07-14T05:09:34.497Z</ql:time>
     <ql:comment>Name geändert</ql:comment>
    </ql:event>
    <ql:event>
     <ql:icon>://icons/48x48/WptMove.png</ql:icon>
     <ql:time>2020-07-15T04:41:12.695Z</ql:time>
     <ql:comment>Position geändert</ql:comment>
    </ql:event>
   </ql:history>
   <wptx1:WaypointExtension>
    <wptx1:Proximity>10.00000000</wptx1:Proximity>
   </wptx1:WaypointExtension>
  </extensions>
 </wpt>
 <wpt lon="13.70635211" lat="51.02963756">
  <ele>143</ele>
  <time>2020-07-10T17:31:59.650Z</time>
  <name>Wegpunkt 3 Rechts</name>
  <sym>Flag, Blue</sym>
  <extensions>
   <ql:key>63b4dcaab473ad0f4f4682dc1b2c9321</ql:key>
   <ql:flags>3</ql:flags>
   <ql:bubble yoff="-150" xoff="-320" width="300"/>
   <ql:history>
    <ql:event>
     <ql:icon>://icons/48x48/Start.png</ql:icon>
     <ql:time>2020-07-10T17:31:59.650Z</ql:time>
     <ql:comment>Erstversion.</ql:comment>
    </ql:event>
    <ql:event>
     <ql:icon>://icons/48x48/WptEditProx.png</ql:icon>
     <ql:time>2020-07-10T17:32:04.872Z</ql:time>
     <ql:comment>Abstandsalarm geändert</ql:comment>
    </ql:event>
    <ql:event>
     <ql:icon>://icons/48x48/WptMove.png</ql:icon>
     <ql:time>2020-07-14T05:04:40.341Z</ql:time>
     <ql:comment>Position geändert</ql:comment>
    </ql:event>
    <ql:event>
     <ql:icon>://icons/48x48/EditText.png</ql:icon>
     <ql:time>2020-07-14T05:05:17.559Z</ql:time>
     <ql:comment>Name geändert</ql:comment>
    </ql:event>
    <ql:event>
     <ql:icon>://icons/48x48/WptMove.png</ql:icon>
     <ql:time>2020-07-15T04:41:34.215Z</ql:time>
     <ql:comment>Position geändert</ql:comment>
    </ql:event>
   </ql:history>
   <wptx1:WaypointExtension>
    <wptx1:Proximity>10.00000000</wptx1:Proximity>
   </wptx1:WaypointExtension>
  </extensions>
 </wpt>
 <wpt lon="13.70494797" lat="51.02911238">
  <ele>149</ele>
  <time>2020-07-10T17:33:04.460Z</time>
  <name>Wegpunkt 4 Voraus</name>
  <sym>Flag, Blue</sym>
  <extensions>
   <ql:key>e37f0b6d5fb66910ff72b8dd5befcc3e</ql:key>
   <ql:flags>3</ql:flags>
   <ql:bubble yoff="-150" xoff="-320" width="300"/>
   <ql:history>
    <ql:event>
     <ql:icon>://icons/48x48/Start.png</ql:icon>
     <ql:time>2020-07-10T17:33:04.460Z</ql:time>
     <ql:comment>Erstversion.</ql:comment>
    </ql:event>
    <ql:event>
     <ql:icon>://icons/48x48/WptEditProx.png</ql:icon>
     <ql:time>2020-07-10T17:33:07.829Z</ql:time>
     <ql:comment>Abstandsalarm geändert</ql:comment>
    </ql:event>
    <ql:event>
     <ql:icon>://icons/48x48/EditText.png</ql:icon>
     <ql:time>2020-07-14T05:07:00.070Z</ql:time>
     <ql:comment>Name geändert</ql:comment>
    </ql:event>
    <ql:event>
     <ql:icon>://icons/48x48/EditText.png</ql:icon>
     <ql:time>2020-07-14T05:09:15.490Z</ql:time>
     <ql:comment>Name geändert</ql:comment>
    </ql:event>
    <ql:event>
     <ql:icon>://icons/48x48/WptMove.png</ql:icon>
     <ql:time>2020-07-15T04:41:48.675Z</ql:time>
     <ql:comment>Position geändert</ql:comment>
    </ql:event>
   </ql:history>
   <wptx1:WaypointExtension>
    <wptx1:Proximity>10.00000000</wptx1:Proximity>
   </wptx1:WaypointExtension>
  </extensions>
 </wpt>
 <wpt lon="13.70400920" lat="51.02841044">
  <ele>156</ele>
  <time>2020-07-10T17:33:37.969Z</time>
  <name>Wegpunkt 5 Rechts</name>
  <sym>Flag, Blue</sym>
  <extensions>
   <ql:key>e971d20746406ffb04967dcc8657e26b</ql:key>
   <ql:flags>3</ql:flags>
   <ql:bubble yoff="-150" xoff="-320" width="300"/>
   <ql:history>
    <ql:event>
     <ql:icon>://icons/48x48/Start.png</ql:icon>
     <ql:time>2020-07-10T17:33:37.969Z</ql:time>
     <ql:comment>Erstversion.</ql:comment>
    </ql:event>
    <ql:event>
     <ql:icon>://icons/48x48/WptEditProx.png</ql:icon>
     <ql:time>2020-07-10T17:33:42.991Z</ql:time>
     <ql:comment>Abstandsalarm geändert</ql:comment>
    </ql:event>
    <ql:event>
     <ql:icon>://icons/48x48/EditText.png</ql:icon>
     <ql:time>2020-07-14T05:09:56.031Z</ql:time>
     <ql:comment>Name geändert</ql:comment>
    </ql:event>
    <ql:event>
     <ql:icon>://icons/48x48/WptMove.png</ql:icon>
     <ql:time>2020-07-14T05:10:20.002Z</ql:time>
     <ql:comment>Position geändert</ql:comment>
    </ql:event>
    <ql:event>
     <ql:icon>://icons/48x48/WptMove.png</ql:icon>
     <ql:time>2020-07-15T04:42:01.177Z</ql:time>
     <ql:comment>Position geändert</ql:comment>
    </ql:event>
   </ql:history>
   <wptx1:WaypointExtension>
    <wptx1:Proximity>10.00000000</wptx1:Proximity>
   </wptx1:WaypointExtension>
  </extensions>
 </wpt>
 <wpt lon="13.70237414" lat="51.03025049">
  <ele>136</ele>
  <time>2020-07-10T17:34:19.346Z</time>
  <name>Wegpunkt 6 Links</name>
  <sym>Flag, Blue</sym>
  <extensions>
   <ql:key>1cdcc6256f87b4f1116dc924bfa7b00a</ql:key>
   <ql:flags>3</ql:flags>
   <ql:bubble yoff="-150" xoff="-320" width="300"/>
   <ql:history>
    <ql:event>
     <ql:icon>://icons/48x48/Start.png</ql:icon>
     <ql:time>2020-07-10T17:34:19.347Z</ql:time>
     <ql:comment>Erstversion.</ql:comment>
    </ql:event>
    <ql:event>
     <ql:icon>://icons/48x48/WptEditProx.png</ql:icon>
     <ql:time>2020-07-10T17:34:22.095Z</ql:time>
     <ql:comment>Abstandsalarm geändert</ql:comment>
    </ql:event>
    <ql:event>
     <ql:icon>://icons/48x48/WptMove.png</ql:icon>
     <ql:time>2020-07-14T05:11:22.567Z</ql:time>
     <ql:comment>Position geändert</ql:comment>
    </ql:event>
    <ql:event>
     <ql:icon>://icons/48x48/EditText.png</ql:icon>
     <ql:time>2020-07-14T05:11:34.944Z</ql:time>
     <ql:comment>Name geändert</ql:comment>
    </ql:event>
    <ql:event>
     <ql:icon>://icons/48x48/WptMove.png</ql:icon>
     <ql:time>2020-07-15T04:42:16.261Z</ql:time>
     <ql:comment>Position geändert</ql:comment>
    </ql:event>
   </ql:history>
   <wptx1:WaypointExtension>
    <wptx1:Proximity>10.00000000</wptx1:Proximity>
   </wptx1:WaypointExtension>
  </extensions>
 </wpt>
 <wpt lon="13.70137435" lat="51.02937647">
  <ele>140</ele>
  <time>2020-07-14T15:07:36.330Z</time>
  <name>Wegpunkt 7 Voraus</name>
  <sym>Flag, Blue</sym>
  <extensions>
   <ql:key>9cbdf5da240d3ed8ee235b3c4d706dee</ql:key>
   <ql:flags>3</ql:flags>
   <ql:bubble yoff="-150" xoff="-320" width="300"/>
   <ql:history>
    <ql:event>
     <ql:icon>://icons/48x48/Start.png</ql:icon>
     <ql:time>2020-07-14T15:07:36.331Z</ql:time>
     <ql:comment>Erstversion.</ql:comment>
    </ql:event>
    <ql:event>
     <ql:icon>://icons/48x48/WptMove.png</ql:icon>
     <ql:time>2020-07-14T15:08:41.442Z</ql:time>
     <ql:comment>Position geändert</ql:comment>
    </ql:event>
    <ql:event>
     <ql:icon>://icons/waypoints/32x32/FlagBlue.png</ql:icon>
     <ql:time>2020-07-14T15:09:17.178Z</ql:time>
     <ql:comment>Symbol geändert</ql:comment>
    </ql:event>
    <ql:event>
     <ql:icon>://icons/48x48/WptMove.png</ql:icon>
     <ql:time>2020-07-15T04:42:37.664Z</ql:time>
     <ql:comment>Position geändert</ql:comment>
    </ql:event>
    <ql:event>
     <ql:icon>://icons/48x48/WptEditProx.png</ql:icon>
     <ql:time>2020-07-15T04:43:59.189Z</ql:time>
     <ql:comment>Abstandsalarm geändert</ql:comment>
    </ql:event>
   </ql:history>
   <wptx1:WaypointExtension>
    <wptx1:Proximity>10.00000000</wptx1:Proximity>
   </wptx1:WaypointExtension>
  </extensions>
 </wpt>
 <wpt lon="13.70104655" lat="51.02505507">
  <time>2020-07-14T15:10:45.087Z</time>
  <name>Wegpunkt 8 Hier</name>
  <sym>Flag, Blue</sym>
  <extensions>
   <ql:key>873252236ed044010784df34b9982df3</ql:key>
   <ql:flags>6</ql:flags>
   <ql:bubble yoff="-150" xoff="-320" width="300"/>
   <ql:history>
    <ql:event>
     <ql:icon>://icons/48x48/Start.png</ql:icon>
     <ql:time>2020-07-14T15:10:45.088Z</ql:time>
     <ql:comment>Erstversion.</ql:comment>
    </ql:event>
    <ql:event>
     <ql:icon>://icons/48x48/WptMove.png</ql:icon>
     <ql:time>2020-07-15T04:43:08.038Z</ql:time>
     <ql:comment>Position geändert</ql:comment>
    </ql:event>
    <ql:event>
     <ql:icon>://icons/48x48/WptEditProx.png</ql:icon>
     <ql:time>2020-07-15T04:44:17.406Z</ql:time>
     <ql:comment>Abstandsalarm geändert</ql:comment>
    </ql:event>
   </ql:history>
   <wptx1:WaypointExtension>
    <wptx1:Proximity>10.00000000</wptx1:Proximity>
   </wptx1:WaypointExtension>
  </extensions>
 </wpt>
 <wpt lon="13.70098084" lat="51.02498318">
  <time>2020-07-14T15:15:11.801Z</time>
  <name>Wegpunkt 9 am Hang Gegenüber</name>
  <sym>Flag, Blue</sym>
  <extensions>
   <ql:key>e8ab61ec8a8099fafba3240c3ca2541e</ql:key>
   <ql:flags>6</ql:flags>
   <ql:bubble yoff="-150" xoff="-320" width="300"/>
   <ql:history>
    <ql:event>
     <ql:icon>://icons/48x48/Start.png</ql:icon>
     <ql:time>2020-07-14T15:15:11.801Z</ql:time>
     <ql:comment>Erstversion.</ql:comment>
    </ql:event>
    <ql:event>
     <ql:icon>://icons/48x48/WptMove.png</ql:icon>
     <ql:time>2020-07-15T04:43:17.544Z</ql:time>
     <ql:comment>Position geändert</ql:comment>
    </ql:event>
    <ql:event>
     <ql:icon>://icons/48x48/WptEditProx.png</ql:icon>
     <ql:time>2020-07-15T04:44:30.166Z</ql:time>
     <ql:comment>Abstandsalarm geändert</ql:comment>
    </ql:event>
   </ql:history>
   <wptx1:WaypointExtension>
    <wptx1:Proximity>10.00000000</wptx1:Proximity>
   </wptx1:WaypointExtension>
  </extensions>
 </wpt>
 <wpt lon="13.70012578" lat="51.02260616">
  <ele>155</ele>
  <time>2020-07-15T04:16:52.958Z</time>
  <name>Wegpunkt 10 Links</name>
  <sym>Flag, Blue</sym>
  <extensions>
   <ql:key>365914288917fb053e0ba910dec9670b</ql:key>
   <ql:flags>3</ql:flags>
   <ql:bubble yoff="-150" xoff="-320" width="300"/>
   <ql:history>
    <ql:event>
     <ql:icon>://icons/48x48/Start.png</ql:icon>
     <ql:time>2020-07-15T04:16:52.959Z</ql:time>
     <ql:comment>Erstversion.</ql:comment>
    </ql:event>
    <ql:event>
     <ql:icon>://icons/48x48/WptMove.png</ql:icon>
     <ql:time>2020-07-15T04:18:47.455Z</ql:time>
     <ql:comment>Position geändert</ql:comment>
    </ql:event>
    <ql:event>
     <ql:icon>://icons/48x48/WptMove.png</ql:icon>
     <ql:time>2020-07-15T04:44:49.487Z</ql:time>
     <ql:comment>Position geändert</ql:comment>
    </ql:event>
    <ql:event>
     <ql:icon>://icons/48x48/WptEditProx.png</ql:icon>
     <ql:time>2020-07-15T04:44:55.818Z</ql:time>
     <ql:comment>Abstandsalarm geändert</ql:comment>
    </ql:event>
   </ql:history>
   <wptx1:WaypointExtension>
    <wptx1:Proximity>10.00000000</wptx1:Proximity>
   </wptx1:WaypointExtension>
  </extensions>
 </wpt>
 <wpt lon="13.70035242" lat="51.02200139">
  <ele>178</ele>
  <time>2020-07-15T04:18:28.715Z</time>
  <name>Wegpunkt 11 Links</name>
  <sym>Flag, Blue</sym>
  <extensions>
   <ql:key>45a9786491460e3e613aae4ef25162f4</ql:key>
   <ql:flags>3</ql:flags>
   <ql:bubble yoff="-150" xoff="-320" width="300"/>
   <ql:history>
    <ql:event>
     <ql:icon>://icons/48x48/Start.png</ql:icon>
     <ql:time>2020-07-15T04:18:28.716Z</ql:time>
     <ql:comment>Erstversion.</ql:comment>
    </ql:event>
    <ql:event>
     <ql:icon>://icons/48x48/WptMove.png</ql:icon>
     <ql:time>2020-07-15T04:45:06.029Z</ql:time>
     <ql:comment>Position geändert</ql:comment>
    </ql:event>
    <ql:event>
     <ql:icon>://icons/48x48/WptEditProx.png</ql:icon>
     <ql:time>2020-07-15T04:45:13.468Z</ql:time>
     <ql:comment>Abstandsalarm geändert</ql:comment>
    </ql:event>
   </ql:history>
   <wptx1:WaypointExtension>
    <wptx1:Proximity>10.00000000</wptx1:Proximity>
   </wptx1:WaypointExtension>
  </extensions>
 </wpt>
 <wpt lon="13.70185446" lat="51.02168504">
  <ele>193</ele>
  <time>2020-07-15T04:20:12.321Z</time>
  <name>Wegpunkt 12a Voraus</name>
  <sym>Flag, Blue</sym>
  <extensions>
   <ql:key>926a5a2c8ac0dd4b3dd1ae16fbdfa519</ql:key>
   <ql:flags>3</ql:flags>
   <ql:bubble yoff="-150" xoff="-320" width="300"/>
   <ql:history>
    <ql:event>
     <ql:icon>://icons/48x48/Start.png</ql:icon>
     <ql:time>2020-07-15T04:20:12.322Z</ql:time>
     <ql:comment>Erstversion.</ql:comment>
    </ql:event>
    <ql:event>
     <ql:icon>://icons/48x48/WptMove.png</ql:icon>
     <ql:time>2020-07-15T04:45:50.085Z</ql:time>
     <ql:comment>Position geändert</ql:comment>
    </ql:event>
    <ql:event>
     <ql:icon>://icons/48x48/WptEditProx.png</ql:icon>
     <ql:time>2020-07-15T04:45:59.368Z</ql:time>
     <ql:comment>Abstandsalarm geändert</ql:comment>
    </ql:event>
   </ql:history>
   <wptx1:WaypointExtension>
    <wptx1:Proximity>10.00000000</wptx1:Proximity>
   </wptx1:WaypointExtension>
  </extensions>
 </wpt>
 <wpt lon="13.69991120" lat="51.02119615">
  <ele>205</ele>
  <time>2020-07-15T04:20:54.707Z</time>
  <name>Wegpunkt 12b Voraus</name>
  <sym>Flag, Blue</sym>
  <extensions>
   <ql:key>670ba044f11c629d076c072c57845ede</ql:key>
   <ql:flags>3</ql:flags>
   <ql:bubble yoff="-150" xoff="-320" width="300"/>
   <ql:history>
    <ql:event>
     <ql:icon>://icons/48x48/Start.png</ql:icon>
     <ql:time>2020-07-15T04:20:54.707Z</ql:time>
     <ql:comment>Erstversion.</ql:comment>
    </ql:event>
    <ql:event>
     <ql:icon>://icons/48x48/WptMove.png</ql:icon>
     <ql:time>2020-07-15T04:45:30.773Z</ql:time>
     <ql:comment>Position geändert</ql:comment>
    </ql:event>
    <ql:event>
     <ql:icon>://icons/48x48/WptEditProx.png</ql:icon>
     <ql:time>2020-07-15T04:45:39.721Z</ql:time>
     <ql:comment>Abstandsalarm geändert</ql:comment>
    </ql:event>
   </ql:history>
   <wptx1:WaypointExtension>
    <wptx1:Proximity>10.00000000</wptx1:Proximity>
   </wptx1:WaypointExtension>
  </extensions>
 </wpt>
 <wpt lon="13.70335918" lat="51.02253172">
  <ele>194</ele>
  <time>2020-07-15T04:21:59.948Z</time>
  <name>Wegpunkt 13 Links</name>
  <sym>Flag, Blue</sym>
  <extensions>
   <ql:key>26f3941b7be6065e0d7bf6c121725647</ql:key>
   <ql:flags>3</ql:flags>
   <ql:bubble yoff="-150" xoff="-320" width="300"/>
   <ql:history>
    <ql:event>
     <ql:icon>://icons/48x48/Start.png</ql:icon>
     <ql:time>2020-07-15T04:21:59.948Z</ql:time>
     <ql:comment>Erstversion.</ql:comment>
    </ql:event>
    <ql:event>
     <ql:icon>://icons/48x48/WptMove.png</ql:icon>
     <ql:time>2020-07-15T04:46:19.433Z</ql:time>
     <ql:comment>Position geändert</ql:comment>
    </ql:event>
    <ql:event>
     <ql:icon>://icons/48x48/WptEditProx.png</ql:icon>
     <ql:time>2020-07-15T04:46:27.788Z</ql:time>
     <ql:comment>Abstandsalarm geändert</ql:comment>
    </ql:event>
   </ql:history>
   <wptx1:WaypointExtension>
    <wptx1:Proximity>10.00000000</wptx1:Proximity>
   </wptx1:WaypointExtension>
  </extensions>
 </wpt>
 <wpt lon="13.70360000" lat="51.02376667">
  <ele>192</ele>
  <time>2020-07-15T04:23:23.681Z</time>
  <name>Wegpunkt 14 Links</name>
  <sym>Flag, Blue</sym>
  <extensions>
   <ql:key>d89da3062a6f2addbacdcd6993d5c4a1</ql:key>
   <ql:flags>3</ql:flags>
   <ql:bubble yoff="-150" xoff="-320" width="300"/>
   <ql:history>
    <ql:event>
     <ql:icon>://icons/48x48/Start.png</ql:icon>
     <ql:time>2020-07-15T04:23:23.682Z</ql:time>
     <ql:comment>Erstversion.</ql:comment>
    </ql:event>
    <ql:event>
     <ql:icon>://icons/48x48/WptEditProx.png</ql:icon>
     <ql:time>2020-07-15T04:46:43.810Z</ql:time>
     <ql:comment>Abstandsalarm geändert</ql:comment>
    </ql:event>
   </ql:history>
   <wptx1:WaypointExtension>
    <wptx1:Proximity>10.00000000</wptx1:Proximity>
   </wptx1:WaypointExtension>
  </extensions>
 </wpt>
 <wpt lon="13.70411667" lat="51.02730000">
  <ele>165</ele>
  <time>2020-07-15T04:24:50.804Z</time>
  <name>Wegpunkt 15a Links</name>
  <sym>Flag, Blue</sym>
  <extensions>
   <ql:key>64d28150b079b5e604d9a75dc109add8</ql:key>
   <ql:flags>3</ql:flags>
   <ql:bubble yoff="-150" xoff="-320" width="300"/>
   <ql:history>
    <ql:event>
     <ql:icon>://icons/48x48/Start.png</ql:icon>
     <ql:time>2020-07-15T04:24:50.805Z</ql:time>
     <ql:comment>Erstversion.</ql:comment>
    </ql:event>
    <ql:event>
     <ql:icon>://icons/48x48/WptEditProx.png</ql:icon>
     <ql:time>2020-07-15T04:47:26.150Z</ql:time>
     <ql:comment>Abstandsalarm geändert</ql:comment>
    </ql:event>
   </ql:history>
   <wptx1:WaypointExtension>
    <wptx1:Proximity>10.00000000</wptx1:Proximity>
   </wptx1:WaypointExtension>
  </extensions>
 </wpt>
 <wpt lon="13.70377761" lat="51.02641135">
  <ele>174</ele>
  <time>2020-07-15T04:26:15.422Z</time>
  <name>Wegpunkt 15b Rechts</name>
  <sym>Flag, Blue</sym>
  <extensions>
   <ql:key>3a225b989064d1a934c2f65477cd59c7</ql:key>
   <ql:flags>3</ql:flags>
   <ql:bubble yoff="-150" xoff="-320" width="300"/>
   <ql:history>
    <ql:event>
     <ql:icon>://icons/48x48/Start.png</ql:icon>
     <ql:time>2020-07-15T04:26:15.423Z</ql:time>
     <ql:comment>Erstversion.</ql:comment>
    </ql:event>
    <ql:event>
     <ql:icon>://icons/48x48/WptMove.png</ql:icon>
     <ql:time>2020-07-15T04:47:04.722Z</ql:time>
     <ql:comment>Position geändert</ql:comment>
    </ql:event>
    <ql:event>
     <ql:icon>://icons/48x48/WptEditProx.png</ql:icon>
     <ql:time>2020-07-15T04:47:12.791Z</ql:time>
     <ql:comment>Abstandsalarm geändert</ql:comment>
    </ql:event>
   </ql:history>
   <wptx1:WaypointExtension>
    <wptx1:Proximity>10.00000000</wptx1:Proximity>
   </wptx1:WaypointExtension>
  </extensions>
 </wpt>
 <wpt lon="13.70993333" lat="51.02328333">
  <ele>203</ele>
  <time>2020-07-15T04:28:02.178Z</time>
  <name>Wegpunkt 16 Voraus</name>
  <sym>Flag, Blue</sym>
  <extensions>
   <ql:key>fd66b7d5ef7944590cf4188b0a876206</ql:key>
   <ql:flags>3</ql:flags>
   <ql:bubble yoff="-150" xoff="-320" width="300"/>
   <ql:history>
    <ql:event>
     <ql:icon>://icons/48x48/Start.png</ql:icon>
     <ql:time>2020-07-15T04:28:02.178Z</ql:time>
     <ql:comment>Erstversion.</ql:comment>
    </ql:event>
    <ql:event>
     <ql:icon>://icons/48x48/WptEditProx.png</ql:icon>
     <ql:time>2020-07-15T04:47:43.582Z</ql:time>
     <ql:comment>Abstandsalarm geändert</ql:comment>
    </ql:event>
   </ql:history>
   <wptx1:WaypointExtension>
    <wptx1:Proximity>10.00000000</wptx1:Proximity>
   </wptx1:WaypointExtension>
  </extensions>
 </wpt>
 <wpt lon="13.71213333" lat="51.02231667">
  <ele>209</ele>
  <time>2020-07-15T04:28:49.241Z</time>
  <name>Wegpunkt 17 Links</name>
  <sym>Flag, Blue</sym>
  <extensions>
   <ql:key>e993085b6a1d5bbf4c5ee4a86a256932</ql:key>
   <ql:flags>3</ql:flags>
   <ql:bubble yoff="-150" xoff="-320" width="300"/>
   <ql:history>
    <ql:event>
     <ql:icon>://icons/48x48/Start.png</ql:icon>
     <ql:time>2020-07-15T04:28:49.242Z</ql:time>
     <ql:comment>Erstversion.</ql:comment>
    </ql:event>
    <ql:event>
     <ql:icon>://icons/48x48/WptEditProx.png</ql:icon>
     <ql:time>2020-07-15T04:47:55.169Z</ql:time>
     <ql:comment>Abstandsalarm geändert</ql:comment>
    </ql:event>
   </ql:history>
   <wptx1:WaypointExtension>
    <wptx1:Proximity>10.00000000</wptx1:Proximity>
   </wptx1:WaypointExtension>
  </extensions>
 </wpt>
 <wpt lon="13.71321362" lat="51.02456672">
  <ele>178</ele>
  <time>2020-07-15T04:31:53.862Z</time>
  <name>Wegpunkt 18 Rechts</name>
  <sym>Flag, Blue</sym>
  <extensions>
   <ql:key>e4cec02ee4133fb91f5166a898397f04</ql:key>
   <ql:flags>3</ql:flags>
   <ql:bubble yoff="-150" xoff="-320" width="300"/>
   <ql:history>
    <ql:event>
     <ql:icon>://icons/48x48/Start.png</ql:icon>
     <ql:time>2020-07-15T04:31:53.862Z</ql:time>
     <ql:comment>Erstversion.</ql:comment>
    </ql:event>
    <ql:event>
     <ql:icon>://icons/48x48/WptEditProx.png</ql:icon>
     <ql:time>2020-07-15T04:31:58.684Z</ql:time>
     <ql:comment>Abstandsalarm geändert</ql:comment>
    </ql:event>
    <ql:event>
     <ql:icon>://icons/48x48/WptMove.png</ql:icon>
     <ql:time>2020-07-15T04:32:24.252Z</ql:time>
     <ql:comment>Position geändert</ql:comment>
    </ql:event>
    <ql:event>
     <ql:icon>://icons/48x48/WptMove.png</ql:icon>
     <ql:time>2020-07-15T04:32:32.092Z</ql:time>
     <ql:comment>Position geändert</ql:comment>
    </ql:event>
   </ql:history>
   <wptx1:WaypointExtension>
    <wptx1:Proximity>10.00000000</wptx1:Proximity>
   </wptx1:WaypointExtension>
  </extensions>
 </wpt>
 <wpt lon="13.71608492" lat="51.02768841">
  <ele>151</ele>
  <time>2020-07-15T04:33:33.647Z</time>
  <name>Wegpunkt 19 Hier</name>
  <sym>Flag, Blue</sym>
  <extensions>
   <ql:key>94b0a287a043bc1f29cbba8cc846c1d2</ql:key>
   <ql:flags>3</ql:flags>
   <ql:bubble yoff="-150" xoff="-320" width="300"/>
   <ql:history>
    <ql:event>
     <ql:icon>://icons/48x48/Start.png</ql:icon>
     <ql:time>2020-07-15T04:33:33.648Z</ql:time>
     <ql:comment>Erstversion.</ql:comment>
    </ql:event>
    <ql:event>
     <ql:icon>://icons/48x48/WptEditProx.png</ql:icon>
     <ql:time>2020-07-15T04:33:36.996Z</ql:time>
     <ql:comment>Abstandsalarm geändert</ql:comment>
    </ql:event>
    <ql:event>
     <ql:icon>://icons/48x48/WptMove.png</ql:icon>
     <ql:time>2020-07-15T04:37:07.854Z</ql:time>
     <ql:comment>Position geändert</ql:comment>
    </ql:event>
    <ql:event>
     <ql:icon>://icons/48x48/EditText.png</ql:icon>
     <ql:time>2020-07-15T04:37:21.715Z</ql:time>
     <ql:comment>Name geändert</ql:comment>
    </ql:event>
   </ql:history>
   <wptx1:WaypointExtension>
    <wptx1:Proximity>10.00000000</wptx1:Proximity>
   </wptx1:WaypointExtension>
  </extensions>
 </wpt>
 <wpt lon="13.72173333" lat="51.03000000">
  <ele>147</ele>
  <time>2020-07-15T04:39:38.227Z</time>
  <name>Wegpunkt 20 Hier</name>
  <sym>Flag, Blue</sym>
  <extensions>
   <ql:key>731bee04dfb5c6502b96d180b0ed1704</ql:key>
   <ql:flags>3</ql:flags>
   <ql:bubble yoff="-150" xoff="-320" width="300"/>
   <ql:history>
    <ql:event>
     <ql:icon>://icons/48x48/Start.png</ql:icon>
     <ql:time>2020-07-15T04:39:38.229Z</ql:time>
     <ql:comment>Erstversion.</ql:comment>
    </ql:event>
    <ql:event>
     <ql:icon>://icons/48x48/WptEditProx.png</ql:icon>
     <ql:time>2020-07-15T04:39:42.752Z</ql:time>
     <ql:comment>Abstandsalarm geändert</ql:comment>
    </ql:event>
   </ql:history>
   <wptx1:WaypointExtension>
    <wptx1:Proximity>10.00000000</wptx1:Proximity>
   </wptx1:WaypointExtension>
  </extensions>
 </wpt>
 <trk>
  <name>Track</name>
  <extensions>
   <ql:key>13256fe1d78b6c7eccab77f681667775</ql:key>
   <ql:flags>7</ql:flags>
   <ql:history>
    <ql:event>
     <ql:icon>://icons/48x48/Start.png</ql:icon>
     <ql:time>2020-06-14T15:23:53.528Z</ql:time>
     <ql:comment>Erstversion.</ql:comment>
    </ql:event>
    <ql:event>
     <ql:icon>://icons/48x48/ActFoot.png</ql:icon>
     <ql:time>2020-06-17T04:40:32.365Z</ql:time>
     <ql:comment>Die Aktivität wurde für den gesamten Track auf 'Fußgänger' geändert.</ql:comment>
    </ql:event>
    <ql:event>
     <ql:icon>://icons/48x48/ActFoot.png</ql:icon>
     <ql:time>2020-06-17T04:57:29.531Z</ql:time>
     <ql:comment>Die Aktivität wurde für den gesamten Track auf 'Fußgänger' geändert.</ql:comment>
    </ql:event>
    <ql:event>
     <ql:icon>://icons/48x48/LineMove.png</ql:icon>
     <ql:time>2020-06-17T04:59:57.695Z</ql:time>
     <ql:comment>Wegpunkte geändert, alle vorherigen Daten sind verloren.</ql:comment>
    </ql:event>
    <ql:event>
     <ql:icon>://icons/48x48/LineMove.png</ql:icon>
     <ql:time>2020-06-17T05:01:31.786Z</ql:time>
     <ql:comment>Wegpunkte geändert, alle vorherigen Daten sind verloren.</ql:comment>
    </ql:event>
    <ql:event>
     <ql:icon>://icons/48x48/LineMove.png</ql:icon>
     <ql:time>2020-06-17T05:03:46.872Z</ql:time>
     <ql:comment>Wegpunkte geändert, alle vorherigen Daten sind verloren.</ql:comment>
    </ql:event>
    <ql:event>
     <ql:icon>://icons/48x48/ActFoot.png</ql:icon>
     <ql:time>2020-06-17T05:13:50.997Z</ql:time>
     <ql:comment>Die Aktivität wurde für den gesamten Track auf 'Fußgänger' geändert.</ql:comment>
    </ql:event>
    <ql:event>
     <ql:icon>://icons/48x48/ActFoot.png</ql:icon>
     <ql:time>2020-06-30T16:39:07.202Z</ql:time>
     <ql:comment>Die Aktivität wurde für den gesamten Track auf 'Fußgänger' geändert.</ql:comment>
    </ql:event>
    <ql:event>
     <ql:icon>://icons/48x48/LineMove.png</ql:icon>
     <ql:time>2020-07-03T04:55:36.688Z</ql:time>
     <ql:comment>Wegpunkte geändert, alle vorherigen Daten sind verloren.</ql:comment>
    </ql:event>
    <ql:event>
     <ql:icon>://icons/48x48/LineMove.png</ql:icon>
     <ql:time>2020-07-03T04:58:42.624Z</ql:time>
     <ql:comment>Wegpunkte geändert, alle vorherigen Daten sind verloren.</ql:comment>
    </ql:event>
    <ql:event>
     <ql:icon>://icons/48x48/LineMove.png</ql:icon>
     <ql:time>2020-07-03T16:15:39.614Z</ql:time>
     <ql:comment>Wegpunkte geändert, alle vorherigen Daten sind verloren.</ql:comment>
    </ql:event>
    <ql:event>
     <ql:icon>://icons/48x48/LineMove.png</ql:icon>
     <ql:time>2020-07-03T16:20:14.771Z</ql:time>
     <ql:comment>Wegpunkte geändert, alle vorherigen Daten sind verloren.</ql:comment>
    </ql:event>
    <ql:event>
     <ql:icon>://icons/48x48/LineMove.png</ql:icon>
     <ql:time>2020-07-03T16:23:52.931Z</ql:time>
     <ql:comment>Wegpunkte geändert, alle vorherigen Daten sind verloren.</ql:comment>
    </ql:event>
    <ql:event>
     <ql:icon>://icons/48x48/LineMove.png</ql:icon>
     <ql:time>2020-07-03T16:28:56.181Z</ql:time>
     <ql:comment>Wegpunkte geändert, alle vorherigen Daten sind verloren.</ql:comment>
    </ql:event>
    <ql:event>
     <ql:icon>://icons/48x48/LineMove.png</ql:icon>
     <ql:time>2020-07-03T16:32:49.714Z</ql:time>
     <ql:comment>Wegpunkte geändert, alle vorherigen Daten sind verloren.</ql:comment>
    </ql:event>
    <ql:event>
     <ql:icon>://icons/48x48/LineMove.png</ql:icon>
     <ql:time>2020-07-10T17:26:44.919Z</ql:time>
     <ql:comment>Wegpunkte geändert, alle vorherigen Daten sind verloren.</ql:comment>
    </ql:event>
    <ql:event>
     <ql:icon>://icons/48x48/LineMove.png</ql:icon>
     <ql:time>2020-07-14T04:58:40.890Z</ql:time>
     <ql:comment>Wegpunkte geändert, alle vorherigen Daten sind verloren.</ql:comment>
    </ql:event>
   </ql:history>
   <gpxx:TrackExtension>
    <gpxx:DisplayColor>DarkBlue</gpxx:DisplayColor>
   </gpxx:TrackExtension>
  </extensions>
  <trkseg>
   <trkpt lon="13.70644394" lat="51.02958840">
    <ele>143</ele>
    <extensions>
     <ql:flags>0</ql:flags>
    </extensions>
   </trkpt>
   <trkpt lon="13.70645285" lat="51.02958441">
    <ele>143</ele>
    <extensions>
     <ql:flags>8</ql:flags>
    </extensions>
   </trkpt>
   <trkpt lon="13.70696701" lat="51.02934368">
    <ele>145</ele>
    <extensions>
     <ql:flags>0</ql:flags>
    </extensions>
   </trkpt>
   <trkpt lon="13.70645285" lat="51.02958441">
    <ele>143</ele>
    <extensions>
     <ql:flags>8</ql:flags>
    </extensions>
   </trkpt>
   <trkpt lon="13.70625973" lat="51.02964878">
    <ele>143</ele>
    <extensions>
     <ql:flags>8</ql:flags>
    </extensions>
   </trkpt>
   <trkpt lon="13.70615158" lat="51.02967215">
    <ele>143</ele>
    <extensions>
     <ql:flags>0</ql:flags>
    </extensions>
   </trkpt>
   <trkpt lon="13.70604515" lat="51.02964878">
    <ele>143</ele>
    <extensions>
     <ql:flags>8</ql:flags>
    </extensions>
   </trkpt>
   <trkpt lon="13.70527181" lat="51.02947764">
    <ele>146</ele>
    <extensions>
     <ql:flags>0</ql:flags>
    </extensions>
   </trkpt>
   <trkpt lon="13.70531473" lat="51.02939391">
    <ele>146</ele>
    <extensions>
     <ql:flags>0</ql:flags>
    </extensions>
   </trkpt>
   <trkpt lon="13.70505321" lat="51.02930427">
    <ele>147</ele>
    <extensions>
     <ql:flags>0</ql:flags>
    </extensions>
   </trkpt>
   <trkpt lon="13.70499372" lat="51.02926254">
    <ele>148</ele>
    <extensions>
     <ql:flags>8</ql:flags>
    </extensions>
   </trkpt>
   <trkpt lon="13.70497212" lat="51.02911651">
    <ele>149</ele>
    <extensions>
     <ql:flags>0</ql:flags>
    </extensions>
   </trkpt>
   <trkpt lon="13.70497227" lat="51.02911234">
    <ele>149</ele>
    <extensions>
     <ql:flags>8</ql:flags>
    </extensions>
   </trkpt>
   <trkpt lon="13.70499372" lat="51.02900505">
    <ele>150</ele>
    <extensions>
     <ql:flags>8</ql:flags>
    </extensions>
   </trkpt>
   <trkpt lon="13.70497227" lat="51.02889776">
    <ele>151</ele>
    <extensions>
     <ql:flags>8</ql:flags>
    </extensions>
   </trkpt>
   <trkpt lon="13.70486498" lat="51.02883339">
    <ele>152</ele>
    <extensions>
     <ql:flags>8</ql:flags>
    </extensions>
   </trkpt>
   <trkpt lon="13.70486009" lat="51.02883470">
    <ele>152</ele>
    <extensions>
     <ql:flags>0</ql:flags>
    </extensions>
   </trkpt>
   <trkpt lon="13.70482206" lat="51.02876902">
    <ele>152</ele>
    <extensions>
     <ql:flags>8</ql:flags>
    </extensions>
   </trkpt>
   <trkpt lon="13.70473623" lat="51.02872610">
    <ele>153</ele>
    <extensions>
     <ql:flags>8</ql:flags>
    </extensions>
   </trkpt>
   <trkpt lon="13.70462894" lat="51.02868319">
    <ele>154</ele>
    <extensions>
     <ql:flags>8</ql:flags>
    </extensions>
   </trkpt>
   <trkpt lon="13.70439291" lat="51.02868319">
    <ele>154</ele>
    <extensions>
     <ql:flags>8</ql:flags>
    </extensions>
   </trkpt>
   <trkpt lon="13.70437193" lat="51.02859790">
    <ele>155</ele>
    <extensions>
     <ql:flags>0</ql:flags>
    </extensions>
   </trkpt>
   <trkpt lon="13.70400667" lat="51.02861881">
    <ele>155</ele>
    <extensions>
     <ql:flags>8</ql:flags>
    </extensions>
   </trkpt>
   <trkpt lon="13.70403665" lat="51.02840677">
    <ele>156</ele>
    <extensions>
     <ql:flags>0</ql:flags>
    </extensions>
   </trkpt>
   <trkpt lon="13.70400667" lat="51.02861881">
    <ele>155</ele>
    <extensions>
     <ql:flags>8</ql:flags>
    </extensions>
   </trkpt>
   <trkpt lon="13.70437059" lat="51.02859706">
    <ele>155</ele>
    <extensions>
     <ql:flags>0</ql:flags>
    </extensions>
   </trkpt>
   <trkpt lon="13.70443496" lat="51.02883216">
    <ele>153</ele>
    <extensions>
     <ql:flags>0</ql:flags>
    </extensions>
   </trkpt>
   <trkpt lon="13.70425794" lat="51.02888122">
    <ele>153</ele>
    <extensions>
     <ql:flags>0</ql:flags>
    </extensions>
   </trkpt>
   <trkpt lon="13.70424271" lat="51.02891922">
    <ele>152</ele>
    <extensions>
     <ql:flags>8</ql:flags>
    </extensions>
   </trkpt>
   <trkpt lon="13.70424271" lat="51.02904797">
    <ele>151</ele>
    <extensions>
     <ql:flags>8</ql:flags>
    </extensions>
   </trkpt>
   <trkpt lon="13.70428562" lat="51.02911234">
    <ele>150</ele>
    <extensions>
     <ql:flags>8</ql:flags>
    </extensions>
   </trkpt>
   <trkpt lon="13.70445728" lat="51.02915525">
    <ele>150</ele>
    <extensions>
     <ql:flags>8</ql:flags>
    </extensions>
   </trkpt>
   <trkpt lon="13.70446044" lat="51.02915712">
    <ele>150</ele>
    <extensions>
     <ql:flags>0</ql:flags>
    </extensions>
   </trkpt>
   <trkpt lon="13.70441350" lat="51.02930596">
    <ele>149</ele>
    <extensions>
     <ql:flags>0</ql:flags>
    </extensions>
   </trkpt>
   <trkpt lon="13.70441437" lat="51.02932692">
    <ele>148</ele>
    <extensions>
     <ql:flags>8</ql:flags>
    </extensions>
   </trkpt>
   <trkpt lon="13.70443583" lat="51.02936983">
    <ele>148</ele>
    <extensions>
     <ql:flags>8</ql:flags>
    </extensions>
   </trkpt>
   <trkpt lon="13.70437145" lat="51.02939129">
    <ele>148</ele>
    <extensions>
     <ql:flags>8</ql:flags>
    </extensions>
   </trkpt>
   <trkpt lon="13.70439291" lat="51.02943420">
    <ele>147</ele>
    <extensions>
     <ql:flags>8</ql:flags>
    </extensions>
   </trkpt>
   <trkpt lon="13.70416004" lat="51.02951803">
    <ele>146</ele>
    <extensions>
     <ql:flags>0</ql:flags>
    </extensions>
   </trkpt>
   <trkpt lon="13.70415688" lat="51.02952003">
    <ele>146</ele>
    <extensions>
     <ql:flags>8</ql:flags>
    </extensions>
   </trkpt>
   <trkpt lon="13.70417833" lat="51.02954149">
    <ele>146</ele>
    <extensions>
     <ql:flags>8</ql:flags>
    </extensions>
   </trkpt>
   <trkpt lon="13.70421770" lat="51.02956116">
    <ele>146</ele>
    <extensions>
     <ql:flags>0</ql:flags>
    </extensions>
   </trkpt>
   <trkpt lon="13.70409250" lat="51.02962732">
    <ele>145</ele>
    <extensions>
     <ql:flags>8</ql:flags>
    </extensions>
   </trkpt>
   <trkpt lon="13.70370808" lat="51.02979880">
    <ele>142</ele>
    <extensions>
     <ql:flags>0</ql:flags>
    </extensions>
   </trkpt>
   <trkpt lon="13.70355606" lat="51.02984190">
    <ele>141</ele>
    <extensions>
     <ql:flags>8</ql:flags>
    </extensions>
   </trkpt>
   <trkpt lon="13.70342731" lat="51.02988482">
    <ele>141</ele>
    <extensions>
     <ql:flags>8</ql:flags>
    </extensions>
   </trkpt>
   <trkpt lon="13.70314616" lat="51.02997808">
    <ele>139</ele>
    <extensions>
     <ql:flags>0</ql:flags>
    </extensions>
   </trkpt>
   <trkpt lon="13.70310545" lat="51.02999210">
    <ele>139</ele>
    <extensions>
     <ql:flags>8</ql:flags>
    </extensions>
   </trkpt>
   <trkpt lon="13.70297584" lat="51.03005693">
    <ele>139</ele>
    <extensions>
     <ql:flags>0</ql:flags>
    </extensions>
   </trkpt>
   <trkpt lon="13.70248768" lat="51.03022776">
    <ele>136</ele>
    <extensions>
     <ql:flags>0</ql:flags>
    </extensions>
   </trkpt>
   <trkpt lon="13.70241794" lat="51.03009583">
    <ele>137</ele>
    <extensions>
     <ql:flags>0</ql:flags>
    </extensions>
   </trkpt>
   <trkpt lon="13.70239735" lat="51.03005648">
    <ele>137</ele>
    <extensions>
     <ql:flags>8</ql:flags>
    </extensions>
   </trkpt>
   <trkpt lon="13.70218057" lat="51.02947679">
    <ele>140</ele>
    <extensions>
     <ql:flags>0</ql:flags>
    </extensions>
   </trkpt>
   <trkpt lon="13.70238978" lat="51.03003410">
    <ele>137</ele>
    <extensions>
     <ql:flags>0</ql:flags>
    </extensions>
   </trkpt>
   <trkpt lon="13.70248634" lat="51.03023030">
    <ele>136</ele>
    <extensions>
     <ql:flags>0</ql:flags>
    </extensions>
   </trkpt>
   <trkpt lon="13.70248318" lat="51.03022814">
    <ele>136</ele>
    <extensions>
     <ql:flags>8</ql:flags>
    </extensions>
   </trkpt>
   <trkpt lon="13.70233297" lat="51.03029251">
    <ele>135</ele>
    <extensions>
     <ql:flags>8</ql:flags>
    </extensions>
   </trkpt>
   <trkpt lon="13.70216313" lat="51.03035461">
    <ele>135</ele>
    <extensions>
     <ql:flags>0</ql:flags>
    </extensions>
   </trkpt>
   <trkpt lon="13.70207864" lat="51.03027512">
    <ele>135</ele>
    <extensions>
     <ql:flags>0</ql:flags>
    </extensions>
   </trkpt>
   <trkpt lon="13.70181799" lat="51.03001356">
    <ele>136</ele>
    <extensions>
     <ql:flags>8</ql:flags>
    </extensions>
   </trkpt>
   <trkpt lon="13.70158195" lat="51.02975607">
    <ele>137</ele>
    <extensions>
     <ql:flags>8</ql:flags>
    </extensions>
   </trkpt>
   <trkpt lon="13.70151758" lat="51.02967024">
    <ele>138</ele>
    <extensions>
     <ql:flags>8</ql:flags>
    </extensions>
   </trkpt>
   <trkpt lon="13.70147467" lat="51.02960587">
    <ele>138</ele>
    <extensions>
     <ql:flags>8</ql:flags>
    </extensions>
   </trkpt>
   <trkpt lon="13.70143175" lat="51.02954149">
    <ele>138</ele>
    <extensions>
     <ql:flags>8</ql:flags>
    </extensions>
   </trkpt>
   <trkpt lon="13.70141029" lat="51.02949858">
    <ele>139</ele>
    <extensions>
     <ql:flags>8</ql:flags>
    </extensions>
   </trkpt>
   <trkpt lon="13.70139065" lat="51.02947679">
    <ele>139</ele>
    <extensions>
     <ql:flags>0</ql:flags>
    </extensions>
   </trkpt>
   <trkpt lon="13.70134640" lat="51.02935416">
    <ele>140</ele>
    <extensions>
     <ql:flags>0</ql:flags>
    </extensions>
   </trkpt>
   <trkpt lon="13.70132494" lat="51.02931103">
    <ele>140</ele>
    <extensions>
     <ql:flags>0</ql:flags>
    </extensions>
   </trkpt>
   <trkpt lon="13.70115280" lat="51.02889776">
    <ele>142</ele>
    <extensions>
     <ql:flags>8</ql:flags>
    </extensions>
   </trkpt>
   <trkpt lon="13.70117426" lat="51.02874756">
    <ele>143</ele>
    <extensions>
     <ql:flags>8</ql:flags>
    </extensions>
   </trkpt>
   <trkpt lon="13.70108843" lat="51.02855444">
    <ele>143</ele>
    <extensions>
     <ql:flags>8</ql:flags>
    </extensions>
   </trkpt>
   <trkpt lon="13.70108843" lat="51.02842569">
    <ele>143</ele>
    <extensions>
     <ql:flags>8</ql:flags>
    </extensions>
   </trkpt>
   <trkpt lon="13.70104551" lat="51.02831841">
    <ele>143</ele>
    <extensions>
     <ql:flags>8</ql:flags>
    </extensions>
   </trkpt>
   <trkpt lon="13.70089531" lat="51.02818966">
    <ele>142</ele>
    <extensions>
     <ql:flags>8</ql:flags>
    </extensions>
   </trkpt>
   <trkpt lon="13.70089531" lat="51.02799654">
    <ele>142</ele>
    <extensions>
     <ql:flags>8</ql:flags>
    </extensions>
   </trkpt>
   <trkpt lon="13.70083094" lat="51.02758884">
    <ele>142</ele>
    <extensions>
     <ql:flags>8</ql:flags>
    </extensions>
   </trkpt>
   <trkpt lon="13.70074511" lat="51.02739573">
    <ele>142</ele>
    <extensions>
     <ql:flags>8</ql:flags>
    </extensions>
   </trkpt>
   <trkpt lon="13.70078802" lat="51.02720261">
    <ele>142</ele>
    <extensions>
     <ql:flags>8</ql:flags>
    </extensions>
   </trkpt>
   <trkpt lon="13.70074511" lat="51.02707386">
    <ele>142</ele>
    <extensions>
     <ql:flags>8</ql:flags>
    </extensions>
   </trkpt>
   <trkpt lon="13.70076656" lat="51.02694511">
    <ele>142</ele>
    <extensions>
     <ql:flags>8</ql:flags>
    </extensions>
   </trkpt>
   <trkpt lon="13.70085239" lat="51.02685928">
    <ele>144</ele>
    <extensions>
     <ql:flags>8</ql:flags>
    </extensions>
   </trkpt>
   <trkpt lon="13.70100260" lat="51.02675200">
    <ele>146</ele>
    <extensions>
     <ql:flags>8</ql:flags>
    </extensions>
   </trkpt>
   <trkpt lon="13.70106697" lat="51.02666616">
    <ele>148</ele>
    <extensions>
     <ql:flags>8</ql:flags>
    </extensions>
   </trkpt>
   <trkpt lon="13.70110989" lat="51.02653742">
    <ele>149</ele>
    <extensions>
     <ql:flags>8</ql:flags>
    </extensions>
   </trkpt>
   <trkpt lon="13.70104551" lat="51.02645159">
    <ele>148</ele>
    <extensions>
     <ql:flags>8</ql:flags>
    </extensions>
   </trkpt>
   <trkpt lon="13.70089531" lat="51.02630138">
    <ele>146</ele>
    <extensions>
     <ql:flags>8</ql:flags>
    </extensions>
   </trkpt>
   <trkpt lon="13.70089531" lat="51.02617264">
    <ele>145</ele>
    <extensions>
     <ql:flags>8</ql:flags>
    </extensions>
   </trkpt>
   <trkpt lon="13.70091677" lat="51.02608681">
    <ele>145</ele>
    <extensions>
     <ql:flags>8</ql:flags>
    </extensions>
   </trkpt>
   <trkpt lon="13.70102406" lat="51.02595806">
    <ele>146</ele>
    <extensions>
     <ql:flags>8</ql:flags>
    </extensions>
   </trkpt>
   <trkpt lon="13.70113134" lat="51.02578640">
    <ele>146</ele>
    <extensions>
     <ql:flags>8</ql:flags>
    </extensions>
   </trkpt>
   <trkpt lon="13.70119572" lat="51.02563620">
    <ele>145</ele>
    <extensions>
     <ql:flags>8</ql:flags>
    </extensions>
   </trkpt>
   <trkpt lon="13.70119572" lat="51.02555037">
    <ele>144</ele>
    <extensions>
     <ql:flags>8</ql:flags>
    </extensions>
   </trkpt>
   <trkpt lon="13.70111305" lat="51.02548577">
    <ele>143</ele>
    <extensions>
     <ql:flags>0</ql:flags>
    </extensions>
   </trkpt>
   <trkpt lon="13.70121717" lat="51.02524996">
    <ele>142</ele>
    <extensions>
     <ql:flags>8</ql:flags>
    </extensions>
   </trkpt>
   <trkpt lon="13.70119351" lat="51.02516776">
    <ele>142</ele>
    <extensions>
     <ql:flags>0</ql:flags>
    </extensions>
   </trkpt>
   <trkpt lon="13.70090652" lat="51.02489457">
    <ele>140</ele>
    <extensions>
     <ql:flags>0</ql:flags>
    </extensions>
   </trkpt>
   <trkpt lon="13.70089531" lat="51.02488518">
    <ele>140</ele>
    <extensions>
     <ql:flags>8</ql:flags>
    </extensions>
   </trkpt>
   <trkpt lon="13.70075229" lat="51.02476094">
    <ele>140</ele>
    <extensions>
     <ql:flags>0</ql:flags>
    </extensions>
   </trkpt>
   <trkpt lon="13.70074511" lat="51.02475643">
    <ele>140</ele>
    <extensions>
     <ql:flags>8</ql:flags>
    </extensions>
   </trkpt>
   <trkpt lon="13.70061952" lat="51.02465352">
    <ele>140</ele>
    <extensions>
     <ql:flags>0</ql:flags>
    </extensions>
   </trkpt>
   <trkpt lon="13.70057526" lat="51.02460616">
    <ele>141</ele>
    <extensions>
     <ql:flags>0</ql:flags>
    </extensions>
   </trkpt>
   <trkpt lon="13.70072365" lat="51.02441311">
    <ele>141</ele>
    <extensions>
     <ql:flags>8</ql:flags>
    </extensions>
   </trkpt>
   <trkpt lon="13.70078802" lat="51.02430582">
    <ele>141</ele>
    <extensions>
     <ql:flags>8</ql:flags>
    </extensions>
   </trkpt>
   <trkpt lon="13.70080948" lat="51.02419853">
    <ele>141</ele>
    <extensions>
     <ql:flags>8</ql:flags>
    </extensions>
   </trkpt>
   <trkpt lon="13.70080948" lat="51.02413416">
    <ele>141</ele>
    <extensions>
     <ql:flags>8</ql:flags>
    </extensions>
   </trkpt>
   <trkpt lon="13.70068389" lat="51.02411306">
    <ele>141</ele>
    <extensions>
     <ql:flags>0</ql:flags>
    </extensions>
   </trkpt>
   <trkpt lon="13.70068073" lat="51.02411270">
    <ele>141</ele>
    <extensions>
     <ql:flags>8</ql:flags>
    </extensions>
   </trkpt>
   <trkpt lon="13.70072365" lat="51.02370501">
    <ele>142</ele>
    <extensions>
     <ql:flags>8</ql:flags>
    </extensions>
   </trkpt>
   <trkpt lon="13.70065928" lat="51.02351189">
    <ele>143</ele>
    <extensions>
     <ql:flags>8</ql:flags>
    </extensions>
   </trkpt>
   <trkpt lon="13.70053053" lat="51.02331877">
    <ele>143</ele>
    <extensions>
     <ql:flags>8</ql:flags>
    </extensions>
   </trkpt>
   <trkpt lon="13.70020866" lat="51.02303982">
    <ele>144</ele>
    <extensions>
     <ql:flags>8</ql:flags>
    </extensions>
   </trkpt>
   <trkpt lon="13.69980279" lat="51.02280714">
    <ele>148</ele>
    <extensions>
     <ql:flags>0</ql:flags>
    </extensions>
   </trkpt>
   <trkpt lon="13.70012283" lat="51.02258921">
    <ele>155</ele>
    <extensions>
     <ql:flags>8</ql:flags>
    </extensions>
   </trkpt>
   <trkpt lon="13.70014209" lat="51.02255001">
    <ele>157</ele>
    <extensions>
     <ql:flags>0</ql:flags>
    </extensions>
   </trkpt>
   <trkpt lon="13.70024937" lat="51.02229034">
    <ele>167</ele>
    <extensions>
     <ql:flags>0</ql:flags>
    </extensions>
   </trkpt>
   <trkpt lon="13.70025206" lat="51.02226581">
    <ele>167</ele>
    <extensions>
     <ql:flags>0</ql:flags>
    </extensions>
   </trkpt>
   <trkpt lon="13.70010138" lat="51.02222443">
    <ele>168</ele>
    <extensions>
     <ql:flags>8</ql:flags>
    </extensions>
   </trkpt>
   <trkpt lon="13.69995299" lat="51.02220322">
    <ele>169</ele>
    <extensions>
     <ql:flags>0</ql:flags>
    </extensions>
   </trkpt>
   <trkpt lon="13.69997311" lat="51.02214655">
    <ele>171</ele>
    <extensions>
     <ql:flags>0</ql:flags>
    </extensions>
   </trkpt>
   <trkpt lon="13.70001554" lat="51.02207422">
    <ele>173</ele>
    <extensions>
     <ql:flags>8</ql:flags>
    </extensions>
   </trkpt>
   <trkpt lon="13.70029449" lat="51.02209568">
    <ele>174</ele>
    <extensions>
     <ql:flags>8</ql:flags>
    </extensions>
   </trkpt>
   <trkpt lon="13.70033741" lat="51.02198839">
    <ele>178</ele>
    <extensions>
     <ql:flags>8</ql:flags>
    </extensions>
   </trkpt>
   <trkpt lon="13.70029449" lat="51.02198839">
    <ele>178</ele>
    <extensions>
     <ql:flags>8</ql:flags>
    </extensions>
   </trkpt>
   <trkpt lon="13.70038033" lat="51.02179527">
    <ele>185</ele>
    <extensions>
     <ql:flags>8</ql:flags>
    </extensions>
   </trkpt>
   <trkpt lon="13.70125520" lat="51.02192409">
    <ele>184</ele>
    <extensions>
     <ql:flags>0</ql:flags>
    </extensions>
   </trkpt>
   <trkpt lon="13.70130348" lat="51.02192325">
    <ele>185</ele>
    <extensions>
     <ql:flags>0</ql:flags>
    </extensions>
   </trkpt>
   <trkpt lon="13.70132446" lat="51.02192402">
    <ele>185</ele>
    <extensions>
     <ql:flags>8</ql:flags>
    </extensions>
   </trkpt>
   <trkpt lon="13.70149612" lat="51.02194548">
    <ele>186</ele>
    <extensions>
     <ql:flags>8</ql:flags>
    </extensions>
   </trkpt>
   <trkpt lon="13.70158377" lat="51.02190379">
    <ele>188</ele>
    <extensions>
     <ql:flags>0</ql:flags>
    </extensions>
   </trkpt>
   <trkpt lon="13.70162487" lat="51.02181673">
    <ele>190</ele>
    <extensions>
     <ql:flags>8</ql:flags>
    </extensions>
   </trkpt>
   <trkpt lon="13.70175362" lat="51.02177382">
    <ele>192</ele>
    <extensions>
     <ql:flags>8</ql:flags>
    </extensions>
   </trkpt>
   <trkpt lon="13.70183945" lat="51.02170944">
    <ele>193</ele>
    <extensions>
     <ql:flags>8</ql:flags>
    </extensions>
   </trkpt>
   <trkpt lon="13.70194674" lat="51.02166653">
    <ele>194</ele>
    <extensions>
     <ql:flags>8</ql:flags>
    </extensions>
   </trkpt>
   <trkpt lon="13.70205402" lat="51.02158070">
    <ele>196</ele>
    <extensions>
     <ql:flags>8</ql:flags>
    </extensions>
   </trkpt>
   <trkpt lon="13.70229006" lat="51.02151632">
    <ele>198</ele>
    <extensions>
     <ql:flags>8</ql:flags>
    </extensions>
   </trkpt>
   <trkpt lon="13.70243940" lat="51.02145380">
    <ele>199</ele>
    <extensions>
     <ql:flags>0</ql:flags>
    </extensions>
   </trkpt>
   <trkpt lon="13.70250463" lat="51.02143049">
    <ele>199</ele>
    <extensions>
     <ql:flags>8</ql:flags>
    </extensions>
   </trkpt>
   <trkpt lon="13.70261192" lat="51.02138758">
    <ele>200</ele>
    <extensions>
     <ql:flags>8</ql:flags>
    </extensions>
   </trkpt>
   <trkpt lon="13.70274067" lat="51.02136612">
    <ele>200</ele>
    <extensions>
     <ql:flags>8</ql:flags>
    </extensions>
   </trkpt>
   <trkpt lon="13.70306253" lat="51.02106571">
    <ele>203</ele>
    <extensions>
     <ql:flags>8</ql:flags>
    </extensions>
   </trkpt>
   <trkpt lon="13.70327491" lat="51.02093784">
    <ele>204</ele>
    <extensions>
     <ql:flags>0</ql:flags>
    </extensions>
   </trkpt>
   <trkpt lon="13.70339963" lat="51.02085494">
    <ele>204</ele>
    <extensions>
     <ql:flags>0</ql:flags>
    </extensions>
   </trkpt>
   <trkpt lon="13.70353106" lat="51.02083126">
    <ele>204</ele>
    <extensions>
     <ql:flags>0</ql:flags>
    </extensions>
   </trkpt>
   <trkpt lon="13.70353460" lat="51.02082968">
    <ele>204</ele>
    <extensions>
     <ql:flags>8</ql:flags>
    </extensions>
   </trkpt>
   <trkpt lon="13.70352909" lat="51.02083380">
    <ele>204</ele>
    <extensions>
     <ql:flags>0</ql:flags>
    </extensions>
   </trkpt>
   <trkpt lon="13.70347023" lat="51.02089405">
    <ele>204</ele>
    <extensions>
     <ql:flags>8</ql:flags>
    </extensions>
   </trkpt>
   <trkpt lon="13.70338440" lat="51.02108717">
    <ele>203</ele>
    <extensions>
     <ql:flags>8</ql:flags>
    </extensions>
   </trkpt>
   <trkpt lon="13.70336294" lat="51.02128029">
    <ele>201</ele>
    <extensions>
     <ql:flags>8</ql:flags>
    </extensions>
   </trkpt>
   <trkpt lon="13.70338488" lat="51.02138783">
    <ele>201</ele>
    <extensions>
     <ql:flags>0</ql:flags>
    </extensions>
   </trkpt>
   <trkpt lon="13.70314837" lat="51.02162361">
    <ele>200</ele>
    <extensions>
     <ql:flags>8</ql:flags>
    </extensions>
   </trkpt>
   <trkpt lon="13.70312691" lat="51.02168798">
    <ele>200</ele>
    <extensions>
     <ql:flags>8</ql:flags>
    </extensions>
   </trkpt>
   <trkpt lon="13.70319128" lat="51.02196693">
    <ele>199</ele>
    <extensions>
     <ql:flags>8</ql:flags>
    </extensions>
   </trkpt>
   <trkpt lon="13.70321274" lat="51.02218151">
    <ele>198</ele>
    <extensions>
     <ql:flags>8</ql:flags>
    </extensions>
   </trkpt>
   <trkpt lon="13.70327711" lat="51.02241755">
    <ele>195</ele>
    <extensions>
     <ql:flags>8</ql:flags>
    </extensions>
   </trkpt>
   <trkpt lon="13.70334148" lat="51.02254629">
    <ele>194</ele>
    <extensions>
     <ql:flags>8</ql:flags>
    </extensions>
   </trkpt>
   <trkpt lon="13.70336294" lat="51.02280378">
    <ele>192</ele>
    <extensions>
     <ql:flags>8</ql:flags>
    </extensions>
   </trkpt>
   <trkpt lon="13.70340586" lat="51.02310419">
    <ele>190</ele>
    <extensions>
     <ql:flags>8</ql:flags>
    </extensions>
   </trkpt>
   <trkpt lon="13.70340586" lat="51.02314711">
    <ele>190</ele>
    <extensions>
     <ql:flags>8</ql:flags>
    </extensions>
   </trkpt>
   <trkpt lon="13.70340499" lat="51.02314799">
    <ele>190</ele>
    <extensions>
     <ql:flags>0</ql:flags>
    </extensions>
   </trkpt>
   <trkpt lon="13.70336342" lat="51.02325118">
    <ele>189</ele>
    <extensions>
     <ql:flags>0</ql:flags>
    </extensions>
   </trkpt>
   <trkpt lon="13.70340365" lat="51.02325541">
    <ele>190</ele>
    <extensions>
     <ql:flags>0</ql:flags>
    </extensions>
   </trkpt>
   <trkpt lon="13.70347023" lat="51.02323294">
    <ele>191</ele>
    <extensions>
     <ql:flags>8</ql:flags>
    </extensions>
   </trkpt>
   <trkpt lon="13.70351315" lat="51.02325439">
    <ele>191</ele>
    <extensions>
     <ql:flags>8</ql:flags>
    </extensions>
   </trkpt>
   <trkpt lon="13.70362043" lat="51.02344751">
    <ele>193</ele>
    <extensions>
     <ql:flags>8</ql:flags>
    </extensions>
   </trkpt>
   <trkpt lon="13.70368126" lat="51.02359627">
    <ele>194</ele>
    <extensions>
     <ql:flags>0</ql:flags>
    </extensions>
   </trkpt>
   <trkpt lon="13.70359898" lat="51.02370501">
    <ele>192</ele>
    <extensions>
     <ql:flags>8</ql:flags>
    </extensions>
   </trkpt>
   <trkpt lon="13.70355606" lat="51.02383375">
    <ele>190</ele>
    <extensions>
     <ql:flags>8</ql:flags>
    </extensions>
   </trkpt>
   <trkpt lon="13.70357666" lat="51.02387623">
    <ele>191</ele>
    <extensions>
     <ql:flags>0</ql:flags>
    </extensions>
   </trkpt>
   <trkpt lon="13.70357752" lat="51.02387667">
    <ele>191</ele>
    <extensions>
     <ql:flags>8</ql:flags>
    </extensions>
   </trkpt>
   <trkpt lon="13.70357531" lat="51.02391429">
    <ele>191</ele>
    <extensions>
     <ql:flags>0</ql:flags>
    </extensions>
   </trkpt>
   <trkpt lon="13.70364189" lat="51.02398396">
    <ele>192</ele>
    <extensions>
     <ql:flags>8</ql:flags>
    </extensions>
   </trkpt>
   <trkpt lon="13.70364189" lat="51.02406979">
    <ele>191</ele>
    <extensions>
     <ql:flags>8</ql:flags>
    </extensions>
   </trkpt>
   <trkpt lon="13.70370138" lat="51.02419594">
    <ele>191</ele>
    <extensions>
     <ql:flags>0</ql:flags>
    </extensions>
   </trkpt>
   <trkpt lon="13.70339292" lat="51.02420017">
    <ele>186</ele>
    <extensions>
     <ql:flags>0</ql:flags>
    </extensions>
   </trkpt>
   <trkpt lon="13.70329857" lat="51.02426291">
    <ele>185</ele>
    <extensions>
     <ql:flags>8</ql:flags>
    </extensions>
   </trkpt>
   <trkpt lon="13.70321274" lat="51.02441311">
    <ele>183</ele>
    <extensions>
     <ql:flags>8</ql:flags>
    </extensions>
   </trkpt>
   <trkpt lon="13.70327711" lat="51.02458477">
    <ele>184</ele>
    <extensions>
     <ql:flags>8</ql:flags>
    </extensions>
   </trkpt>
   <trkpt lon="13.70325565" lat="51.02471352">
    <ele>184</ele>
    <extensions>
     <ql:flags>8</ql:flags>
    </extensions>
   </trkpt>
   <trkpt lon="13.70316982" lat="51.02488518">
    <ele>183</ele>
    <extensions>
     <ql:flags>8</ql:flags>
    </extensions>
   </trkpt>
   <trkpt lon="13.70308447" lat="51.02497068">
    <ele>183</ele>
    <extensions>
     <ql:flags>0</ql:flags>
    </extensions>
   </trkpt>
   <trkpt lon="13.70284796" lat="51.02503538">
    <ele>181</ele>
    <extensions>
     <ql:flags>8</ql:flags>
    </extensions>
   </trkpt>
   <trkpt lon="13.70263338" lat="51.02507830">
    <ele>176</ele>
    <extensions>
     <ql:flags>8</ql:flags>
    </extensions>
   </trkpt>
   <trkpt lon="13.70235443" lat="51.02505684">
    <ele>170</ele>
    <extensions>
     <ql:flags>8</ql:flags>
    </extensions>
   </trkpt>
   <trkpt lon="13.70216131" lat="51.02509975">
    <ele>166</ele>
    <extensions>
     <ql:flags>8</ql:flags>
    </extensions>
   </trkpt>
   <trkpt lon="13.70203707" lat="51.02514322">
    <ele>164</ele>
    <extensions>
     <ql:flags>0</ql:flags>
    </extensions>
   </trkpt>
   <trkpt lon="13.70194674" lat="51.02509975">
    <ele>161</ele>
    <extensions>
     <ql:flags>8</ql:flags>
    </extensions>
   </trkpt>
   <trkpt lon="13.70186272" lat="51.02503750">
    <ele>157</ele>
    <extensions>
     <ql:flags>0</ql:flags>
    </extensions>
   </trkpt>
   <trkpt lon="13.70194674" lat="51.02509975">
    <ele>161</ele>
    <extensions>
     <ql:flags>8</ql:flags>
    </extensions>
   </trkpt>
   <trkpt lon="13.70203170" lat="51.02514068">
    <ele>164</ele>
    <extensions>
     <ql:flags>0</ql:flags>
    </extensions>
   </trkpt>
   <trkpt lon="13.70203257" lat="51.02514267">
    <ele>164</ele>
    <extensions>
     <ql:flags>8</ql:flags>
    </extensions>
   </trkpt>
   <trkpt lon="13.70198965" lat="51.02520704">
    <ele>164</ele>
    <extensions>
     <ql:flags>8</ql:flags>
    </extensions>
   </trkpt>
   <trkpt lon="13.70201111" lat="51.02529287">
    <ele>167</ele>
    <extensions>
     <ql:flags>8</ql:flags>
    </extensions>
   </trkpt>
   <trkpt lon="13.70205402" lat="51.02537870">
    <ele>170</ele>
    <extensions>
     <ql:flags>8</ql:flags>
    </extensions>
   </trkpt>
   <trkpt lon="13.70211753" lat="51.02546208">
    <ele>173</ele>
    <extensions>
     <ql:flags>0</ql:flags>
    </extensions>
   </trkpt>
   <trkpt lon="13.70218277" lat="51.02552891">
    <ele>174</ele>
    <extensions>
     <ql:flags>8</ql:flags>
    </extensions>
   </trkpt>
   <trkpt lon="13.70222616" lat="51.02557118">
    <ele>175</ele>
    <extensions>
     <ql:flags>0</ql:flags>
    </extensions>
   </trkpt>
   <trkpt lon="13.70224714" lat="51.02572203">
    <ele>175</ele>
    <extensions>
     <ql:flags>8</ql:flags>
    </extensions>
   </trkpt>
   <trkpt lon="13.70222482" lat="51.02578516">
    <ele>175</ele>
    <extensions>
     <ql:flags>0</ql:flags>
    </extensions>
   </trkpt>
   <trkpt lon="13.70229006" lat="51.02587223">
    <ele>176</ele>
    <extensions>
     <ql:flags>8</ql:flags>
    </extensions>
   </trkpt>
   <trkpt lon="13.70239735" lat="51.02593660">
    <ele>177</ele>
    <extensions>
     <ql:flags>8</ql:flags>
    </extensions>
   </trkpt>
   <trkpt lon="13.70256901" lat="51.02600098">
    <ele>178</ele>
    <extensions>
     <ql:flags>8</ql:flags>
    </extensions>
   </trkpt>
   <trkpt lon="13.70256901" lat="51.02602243">
    <ele>178</ele>
    <extensions>
     <ql:flags>8</ql:flags>
    </extensions>
   </trkpt>
   <trkpt lon="13.70254755" lat="51.02606535">
    <ele>178</ele>
    <extensions>
     <ql:flags>8</ql:flags>
    </extensions>
   </trkpt>
   <trkpt lon="13.70250463" lat="51.02608681">
    <ele>177</ele>
    <extensions>
     <ql:flags>8</ql:flags>
    </extensions>
   </trkpt>
   <trkpt lon="13.70244026" lat="51.02610826">
    <ele>177</ele>
    <extensions>
     <ql:flags>8</ql:flags>
    </extensions>
   </trkpt>
   <trkpt lon="13.70224714" lat="51.02617264">
    <ele>176</ele>
    <extensions>
     <ql:flags>8</ql:flags>
    </extensions>
   </trkpt>
   <trkpt lon="13.70222569" lat="51.02621555">
    <ele>176</ele>
    <extensions>
     <ql:flags>8</ql:flags>
    </extensions>
   </trkpt>
   <trkpt lon="13.70222569" lat="51.02627993">
    <ele>176</ele>
    <extensions>
     <ql:flags>8</ql:flags>
    </extensions>
   </trkpt>
   <trkpt lon="13.70224762" lat="51.02634251">
    <ele>176</ele>
    <extensions>
     <ql:flags>0</ql:flags>
    </extensions>
   </trkpt>
   <trkpt lon="13.70233297" lat="51.02645159">
    <ele>175</ele>
    <extensions>
     <ql:flags>8</ql:flags>
    </extensions>
   </trkpt>
   <trkpt lon="13.70259047" lat="51.02658033">
    <ele>174</ele>
    <extensions>
     <ql:flags>8</ql:flags>
    </extensions>
   </trkpt>
   <trkpt lon="13.70271921" lat="51.02660179">
    <ele>174</ele>
    <extensions>
     <ql:flags>8</ql:flags>
    </extensions>
   </trkpt>
   <trkpt lon="13.70316982" lat="51.02660179">
    <ele>174</ele>
    <extensions>
     <ql:flags>8</ql:flags>
    </extensions>
   </trkpt>
   <trkpt lon="13.70364189" lat="51.02649450">
    <ele>174</ele>
    <extensions>
     <ql:flags>8</ql:flags>
    </extensions>
   </trkpt>
   <trkpt lon="13.70376307" lat="51.02645331">
    <ele>174</ele>
    <extensions>
     <ql:flags>0</ql:flags>
    </extensions>
   </trkpt>
   <trkpt lon="13.70398569" lat="51.02634589">
    <ele>175</ele>
    <extensions>
     <ql:flags>0</ql:flags>
    </extensions>
   </trkpt>
   <trkpt lon="13.70398521" lat="51.02640867">
    <ele>174</ele>
    <extensions>
     <ql:flags>8</ql:flags>
    </extensions>
   </trkpt>
   <trkpt lon="13.70404959" lat="51.02703094">
    <ele>168</ele>
    <extensions>
     <ql:flags>8</ql:flags>
    </extensions>
   </trkpt>
   <trkpt lon="13.70409250" lat="51.02739573">
    <ele>164</ele>
    <extensions>
     <ql:flags>8</ql:flags>
    </extensions>
   </trkpt>
   <trkpt lon="13.70411515" lat="51.02750287">
    <ele>163</ele>
    <extensions>
     <ql:flags>0</ql:flags>
    </extensions>
   </trkpt>
   <trkpt lon="13.70411396" lat="51.02750301">
    <ele>163</ele>
    <extensions>
     <ql:flags>8</ql:flags>
    </extensions>
   </trkpt>
   <trkpt lon="13.70400667" lat="51.02782488">
    <ele>160</ele>
    <extensions>
     <ql:flags>8</ql:flags>
    </extensions>
   </trkpt>
   <trkpt lon="13.70398521" lat="51.02786779">
    <ele>160</ele>
    <extensions>
     <ql:flags>8</ql:flags>
    </extensions>
   </trkpt>
   <trkpt lon="13.70392400" lat="51.02818706">
    <ele>158</ele>
    <extensions>
     <ql:flags>0</ql:flags>
    </extensions>
   </trkpt>
   <trkpt lon="13.70443496" lat="51.02818942">
    <ele>157</ele>
    <extensions>
     <ql:flags>0</ql:flags>
    </extensions>
   </trkpt>
   <trkpt lon="13.70443583" lat="51.02823257">
    <ele>157</ele>
    <extensions>
     <ql:flags>8</ql:flags>
    </extensions>
   </trkpt>
   <trkpt lon="13.70443630" lat="51.02831712">
    <ele>156</ele>
    <extensions>
     <ql:flags>0</ql:flags>
    </extensions>
   </trkpt>
   <trkpt lon="13.70443583" lat="51.02859735">
    <ele>155</ele>
    <extensions>
     <ql:flags>8</ql:flags>
    </extensions>
   </trkpt>
   <trkpt lon="13.70437461" lat="51.02859706">
    <ele>155</ele>
    <extensions>
     <ql:flags>0</ql:flags>
    </extensions>
   </trkpt>
   <trkpt lon="13.70437145" lat="51.02859735">
    <ele>155</ele>
    <extensions>
     <ql:flags>8</ql:flags>
    </extensions>
   </trkpt>
   <trkpt lon="13.70439291" lat="51.02868319">
    <ele>154</ele>
    <extensions>
     <ql:flags>8</ql:flags>
    </extensions>
   </trkpt>
   <trkpt lon="13.70462894" lat="51.02868319">
    <ele>154</ele>
    <extensions>
     <ql:flags>8</ql:flags>
    </extensions>
   </trkpt>
   <trkpt lon="13.70473623" lat="51.02872610">
    <ele>153</ele>
    <extensions>
     <ql:flags>8</ql:flags>
    </extensions>
   </trkpt>
   <trkpt lon="13.70482206" lat="51.02876902">
    <ele>152</ele>
    <extensions>
     <ql:flags>8</ql:flags>
    </extensions>
   </trkpt>
   <trkpt lon="13.70486009" lat="51.02883132">
    <ele>152</ele>
    <extensions>
     <ql:flags>0</ql:flags>
    </extensions>
   </trkpt>
   <trkpt lon="13.70486498" lat="51.02883339">
    <ele>152</ele>
    <extensions>
     <ql:flags>8</ql:flags>
    </extensions>
   </trkpt>
   <trkpt lon="13.70497227" lat="51.02889776">
    <ele>151</ele>
    <extensions>
     <ql:flags>8</ql:flags>
    </extensions>
   </trkpt>
   <trkpt lon="13.70499372" lat="51.02900505">
    <ele>150</ele>
    <extensions>
     <ql:flags>8</ql:flags>
    </extensions>
   </trkpt>
   <trkpt lon="13.70497227" lat="51.02911234">
    <ele>149</ele>
    <extensions>
     <ql:flags>8</ql:flags>
    </extensions>
   </trkpt>
   <trkpt lon="13.70499372" lat="51.02926254">
    <ele>148</ele>
    <extensions>
     <ql:flags>8</ql:flags>
    </extensions>
   </trkpt>
   <trkpt lon="13.70505321" lat="51.02930237">
    <ele>147</ele>
    <extensions>
     <ql:flags>0</ql:flags>
    </extensions>
   </trkpt>
   <trkpt lon="13.70531339" lat="51.02939202">
    <ele>146</ele>
    <extensions>
     <ql:flags>0</ql:flags>
    </extensions>
   </trkpt>
   <trkpt lon="13.70527449" lat="51.02947761">
    <ele>146</ele>
    <extensions>
     <ql:flags>0</ql:flags>
    </extensions>
   </trkpt>
   <trkpt lon="13.70604515" lat="51.02964878">
    <ele>143</ele>
    <extensions>
     <ql:flags>8</ql:flags>
    </extensions>
   </trkpt>
   <trkpt lon="13.70615292" lat="51.02967297">
    <ele>143</ele>
    <extensions>
     <ql:flags>0</ql:flags>
    </extensions>
   </trkpt>
   <trkpt lon="13.70625973" lat="51.02964878">
    <ele>143</ele>
    <extensions>
     <ql:flags>8</ql:flags>
    </extensions>
   </trkpt>
   <trkpt lon="13.70629105" lat="51.02963998">
    <ele>143</ele>
    <extensions>
     <ql:flags>0</ql:flags>
    </extensions>
   </trkpt>
   <trkpt lon="13.70645285" lat="51.02958441">
    <ele>143</ele>
    <extensions>
     <ql:flags>8</ql:flags>
    </extensions>
   </trkpt>
   <trkpt lon="13.70646808" lat="51.02958079">
    <ele>144</ele>
    <extensions>
     <ql:flags>0</ql:flags>
    </extensions>
   </trkpt>
  </trkseg>
 </trk>
 <trk>
  <name>Track (12b)</name>
  <extensions>
   <ql:key>a713734928553eda9cde7dada076bbe6</ql:key>
   <ql:flags>7</ql:flags>
   <ql:history>
    <ql:event>
     <ql:icon>://icons/48x48/Start.png</ql:icon>
     <ql:time>2020-06-14T15:29:39.135Z</ql:time>
     <ql:comment>Erstversion.</ql:comment>
    </ql:event>
    <ql:event>
     <ql:icon>://icons/48x48/ActFoot.png</ql:icon>
     <ql:time>2020-06-17T04:40:37.308Z</ql:time>
     <ql:comment>Die Aktivität wurde für den gesamten Track auf 'Fußgänger' geändert.</ql:comment>
    </ql:event>
    <ql:event>
     <ql:icon>://icons/48x48/ActFoot.png</ql:icon>
     <ql:time>2020-06-17T04:57:29.534Z</ql:time>
     <ql:comment>Die Aktivität wurde für den gesamten Track auf 'Fußgänger' geändert.</ql:comment>
    </ql:event>
    <ql:event>
     <ql:icon>://icons/48x48/ActFoot.png</ql:icon>
     <ql:time>2020-06-17T05:13:51.000Z</ql:time>
     <ql:comment>Die Aktivität wurde für den gesamten Track auf 'Fußgänger' geändert.</ql:comment>
    </ql:event>
    <ql:event>
     <ql:icon>://icons/48x48/ActFoot.png</ql:icon>
     <ql:time>2020-06-30T16:39:07.205Z</ql:time>
     <ql:comment>Die Aktivität wurde für den gesamten Track auf 'Fußgänger' geändert.</ql:comment>
    </ql:event>
    <ql:event>
     <ql:icon>://icons/48x48/LineMove.png</ql:icon>
     <ql:time>2020-07-03T16:37:50.561Z</ql:time>
     <ql:comment>Wegpunkte geändert, alle vorherigen Daten sind verloren.</ql:comment>
    </ql:event>
   </ql:history>
   <gpxx:TrackExtension>
    <gpxx:DisplayColor>DarkRed</gpxx:DisplayColor>
   </gpxx:TrackExtension>
  </extensions>
  <trkseg>
   <trkpt lon="13.69994818" lat="51.02220406">
    <ele>169</ele>
    <extensions>
     <ql:flags>0</ql:flags>
    </extensions>
   </trkpt>
   <trkpt lon="13.69990826" lat="51.02220297">
    <ele>168</ele>
    <extensions>
     <ql:flags>8</ql:flags>
    </extensions>
   </trkpt>
   <trkpt lon="13.69969739" lat="51.02216008">
    <ele>169</ele>
    <extensions>
     <ql:flags>0</ql:flags>
    </extensions>
   </trkpt>
   <trkpt lon="13.69952171" lat="51.02213893">
    <ele>169</ele>
    <extensions>
     <ql:flags>0</ql:flags>
    </extensions>
   </trkpt>
   <trkpt lon="13.69783460" lat="51.02177438">
    <ele>181</ele>
    <extensions>
     <ql:flags>0</ql:flags>
    </extensions>
   </trkpt>
   <trkpt lon="13.69795561" lat="51.02168798">
    <ele>185</ele>
    <extensions>
     <ql:flags>8</ql:flags>
    </extensions>
   </trkpt>
   <trkpt lon="13.69896412" lat="51.02160215">
    <ele>189</ele>
    <extensions>
     <ql:flags>8</ql:flags>
    </extensions>
   </trkpt>
   <trkpt lon="13.69971514" lat="51.02160215">
    <ele>190</ele>
    <extensions>
     <ql:flags>8</ql:flags>
    </extensions>
   </trkpt>
   <trkpt lon="13.69892120" lat="51.02147341">
    <ele>194</ele>
    <extensions>
     <ql:flags>8</ql:flags>
    </extensions>
   </trkpt>
   <trkpt lon="13.69999409" lat="51.02125883">
    <ele>204</ele>
    <extensions>
     <ql:flags>8</ql:flags>
    </extensions>
   </trkpt>
   <trkpt lon="13.69986771" lat="51.02126010">
    <ele>204</ele>
    <extensions>
     <ql:flags>0</ql:flags>
    </extensions>
   </trkpt>
   <trkpt lon="13.69992538" lat="51.02111123">
    <ele>205</ele>
    <extensions>
     <ql:flags>0</ql:flags>
    </extensions>
   </trkpt>
   <trkpt lon="13.69992971" lat="51.02110863">
    <ele>205</ele>
    <extensions>
     <ql:flags>8</ql:flags>
    </extensions>
   </trkpt>
   <trkpt lon="13.70010138" lat="51.02106571">
    <ele>205</ele>
    <extensions>
     <ql:flags>8</ql:flags>
    </extensions>
   </trkpt>
   <trkpt lon="13.70042324" lat="51.02104425">
    <ele>206</ele>
    <extensions>
     <ql:flags>8</ql:flags>
    </extensions>
   </trkpt>
   <trkpt lon="13.70050907" lat="51.02106571">
    <ele>205</ele>
    <extensions>
     <ql:flags>8</ql:flags>
    </extensions>
   </trkpt>
   <trkpt lon="13.70063782" lat="51.02113008">
    <ele>205</ele>
    <extensions>
     <ql:flags>8</ql:flags>
    </extensions>
   </trkpt>
   <trkpt lon="13.70070219" lat="51.02117300">
    <ele>205</ele>
    <extensions>
     <ql:flags>8</ql:flags>
    </extensions>
   </trkpt>
   <trkpt lon="13.70070219" lat="51.02130175">
    <ele>203</ele>
    <extensions>
     <ql:flags>8</ql:flags>
    </extensions>
   </trkpt>
   <trkpt lon="13.70078802" lat="51.02132320">
    <ele>202</ele>
    <extensions>
     <ql:flags>8</ql:flags>
    </extensions>
   </trkpt>
   <trkpt lon="13.70106697" lat="51.02132320">
    <ele>201</ele>
    <extensions>
     <ql:flags>8</ql:flags>
    </extensions>
   </trkpt>
   <trkpt lon="13.70110989" lat="51.02130175">
    <ele>202</ele>
    <extensions>
     <ql:flags>8</ql:flags>
    </extensions>
   </trkpt>
   <trkpt lon="13.70126009" lat="51.02119446">
    <ele>203</ele>
    <extensions>
     <ql:flags>8</ql:flags>
    </extensions>
   </trkpt>
   <trkpt lon="13.70141029" lat="51.02115154">
    <ele>203</ele>
    <extensions>
     <ql:flags>8</ql:flags>
    </extensions>
   </trkpt>
   <trkpt lon="13.70160341" lat="51.02115154">
    <ele>203</ele>
    <extensions>
     <ql:flags>8</ql:flags>
    </extensions>
   </trkpt>
   <trkpt lon="13.70177507" lat="51.02113008">
    <ele>203</ele>
    <extensions>
     <ql:flags>8</ql:flags>
    </extensions>
   </trkpt>
   <trkpt lon="13.70222569" lat="51.02108717">
    <ele>202</ele>
    <extensions>
     <ql:flags>8</ql:flags>
    </extensions>
   </trkpt>
   <trkpt lon="13.70252609" lat="51.02108717">
    <ele>202</ele>
    <extensions>
     <ql:flags>8</ql:flags>
    </extensions>
   </trkpt>
   <trkpt lon="13.70263338" lat="51.02106571">
    <ele>203</ele>
    <extensions>
     <ql:flags>8</ql:flags>
    </extensions>
   </trkpt>
   <trkpt lon="13.70280504" lat="51.02097988">
    <ele>203</ele>
    <extensions>
     <ql:flags>8</ql:flags>
    </extensions>
   </trkpt>
   <trkpt lon="13.70293379" lat="51.02095842">
    <ele>203</ele>
    <extensions>
     <ql:flags>8</ql:flags>
    </extensions>
   </trkpt>
   <trkpt lon="13.70310545" lat="51.02074385">
    <ele>205</ele>
    <extensions>
     <ql:flags>8</ql:flags>
    </extensions>
   </trkpt>
   <trkpt lon="13.70316951" lat="51.02068154">
    <ele>205</ele>
    <extensions>
     <ql:flags>0</ql:flags>
    </extensions>
   </trkpt>
   <trkpt lon="13.70344877" lat="51.02072239">
    <ele>205</ele>
    <extensions>
     <ql:flags>8</ql:flags>
    </extensions>
   </trkpt>
   <trkpt lon="13.70351315" lat="51.02074385">
    <ele>205</ele>
    <extensions>
     <ql:flags>8</ql:flags>
    </extensions>
   </trkpt>
   <trkpt lon="13.70353460" lat="51.02076530">
    <ele>205</ele>
    <extensions>
     <ql:flags>8</ql:flags>
    </extensions>
   </trkpt>
   <trkpt lon="13.70353429" lat="51.02083041">
    <ele>204</ele>
    <extensions>
     <ql:flags>0</ql:flags>
    </extensions>
   </trkpt>
  </trkseg>
 </trk>
 <trk>
  <name>Track (Anschlussroute)</name>
  <extensions>
   <ql:key>e836c6731c861f53475ed747ca07f8be</ql:key>
   <ql:flags>7</ql:flags>
   <ql:history>
    <ql:event>
     <ql:icon>://icons/48x48/Start.png</ql:icon>
     <ql:time>2020-06-14T15:36:15.892Z</ql:time>
     <ql:comment>Erstversion.</ql:comment>
    </ql:event>
    <ql:event>
     <ql:icon>://icons/48x48/ActFoot.png</ql:icon>
     <ql:time>2020-06-17T04:40:43.018Z</ql:time>
     <ql:comment>Die Aktivität wurde für den gesamten Track auf 'Fußgänger' geändert.</ql:comment>
    </ql:event>
    <ql:event>
     <ql:icon>://icons/48x48/ActFoot.png</ql:icon>
     <ql:time>2020-06-17T04:57:29.536Z</ql:time>
     <ql:comment>Die Aktivität wurde für den gesamten Track auf 'Fußgänger' geändert.</ql:comment>
    </ql:event>
    <ql:event>
     <ql:icon>://icons/48x48/ActFoot.png</ql:icon>
     <ql:time>2020-06-17T05:13:51.002Z</ql:time>
     <ql:comment>Die Aktivität wurde für den gesamten Track auf 'Fußgänger' geändert.</ql:comment>
    </ql:event>
    <ql:event>
     <ql:icon>://icons/48x48/ActFoot.png</ql:icon>
     <ql:time>2020-06-30T16:39:07.207Z</ql:time>
     <ql:comment>Die Aktivität wurde für den gesamten Track auf 'Fußgänger' geändert.</ql:comment>
    </ql:event>
    <ql:event>
     <ql:icon>://icons/48x48/LineMove.png</ql:icon>
     <ql:time>2020-07-03T16:43:39.931Z</ql:time>
     <ql:comment>Wegpunkte geändert, alle vorherigen Daten sind verloren.</ql:comment>
    </ql:event>
    <ql:event>
     <ql:icon>://icons/48x48/LineMove.png</ql:icon>
     <ql:time>2020-07-15T04:36:47.230Z</ql:time>
     <ql:comment>Wegpunkte geändert, alle vorherigen Daten sind verloren.</ql:comment>
    </ql:event>
    <ql:event>
     <ql:icon>://icons/48x48/LineMove.png</ql:icon>
     <ql:time>2020-07-15T04:39:28.592Z</ql:time>
     <ql:comment>Wegpunkte geändert, alle vorherigen Daten sind verloren.</ql:comment>
    </ql:event>
   </ql:history>
   <gpxx:TrackExtension>
    <gpxx:DisplayColor>DarkRed</gpxx:DisplayColor>
   </gpxx:TrackExtension>
  </extensions>
  <trkseg>
   <trkpt lon="13.70398356" lat="51.02635436">
    <ele>174</ele>
    <extensions>
     <ql:flags>0</ql:flags>
    </extensions>
   </trkpt>
   <trkpt lon="13.70398521" lat="51.02634430">
    <ele>175</ele>
    <extensions>
     <ql:flags>8</ql:flags>
    </extensions>
   </trkpt>
   <trkpt lon="13.70394230" lat="51.02600098">
    <ele>178</ele>
    <extensions>
     <ql:flags>8</ql:flags>
    </extensions>
   </trkpt>
   <trkpt lon="13.70394230" lat="51.02595806">
    <ele>179</ele>
    <extensions>
     <ql:flags>8</ql:flags>
    </extensions>
   </trkpt>
   <trkpt lon="13.70385647" lat="51.02576494">
    <ele>181</ele>
    <extensions>
     <ql:flags>8</ql:flags>
    </extensions>
   </trkpt>
   <trkpt lon="13.70368584" lat="51.02553312">
    <ele>184</ele>
    <extensions>
     <ql:flags>0</ql:flags>
    </extensions>
   </trkpt>
   <trkpt lon="13.70456457" lat="51.02533579">
    <ele>182</ele>
    <extensions>
     <ql:flags>8</ql:flags>
    </extensions>
   </trkpt>
   <trkpt lon="13.70494916" lat="51.02516436">
    <ele>181</ele>
    <extensions>
     <ql:flags>0</ql:flags>
    </extensions>
   </trkpt>
   <trkpt lon="13.70505810" lat="51.02507830">
    <ele>181</ele>
    <extensions>
     <ql:flags>8</ql:flags>
    </extensions>
   </trkpt>
   <trkpt lon="13.70664597" lat="51.02449894">
    <ele>181</ele>
    <extensions>
     <ql:flags>8</ql:flags>
    </extensions>
   </trkpt>
   <trkpt lon="13.70731115" lat="51.02424145">
    <ele>184</ele>
    <extensions>
     <ql:flags>8</ql:flags>
    </extensions>
   </trkpt>
   <trkpt lon="13.70784460" lat="51.02407076">
    <ele>187</ele>
    <extensions>
     <ql:flags>0</ql:flags>
    </extensions>
   </trkpt>
   <trkpt lon="13.70718344" lat="51.02334083">
    <ele>197</ele>
    <extensions>
     <ql:flags>0</ql:flags>
    </extensions>
   </trkpt>
   <trkpt lon="13.70756865" lat="51.02325439">
    <ele>199</ele>
    <extensions>
     <ql:flags>8</ql:flags>
    </extensions>
   </trkpt>
   <trkpt lon="13.70793343" lat="51.02321148">
    <ele>200</ele>
    <extensions>
     <ql:flags>8</ql:flags>
    </extensions>
   </trkpt>
   <trkpt lon="13.70840549" lat="51.02329731">
    <ele>199</ele>
    <extensions>
     <ql:flags>8</ql:flags>
    </extensions>
   </trkpt>
   <trkpt lon="13.70872736" lat="51.02340460">
    <ele>198</ele>
    <extensions>
     <ql:flags>8</ql:flags>
    </extensions>
   </trkpt>
   <trkpt lon="13.70894194" lat="51.02353334">
    <ele>197</ele>
    <extensions>
     <ql:flags>8</ql:flags>
    </extensions>
   </trkpt>
   <trkpt lon="13.70902777" lat="51.02366209">
    <ele>196</ele>
    <extensions>
     <ql:flags>8</ql:flags>
    </extensions>
   </trkpt>
   <trkpt lon="13.70902880" lat="51.02366478">
    <ele>196</ele>
    <extensions>
     <ql:flags>0</ql:flags>
    </extensions>
   </trkpt>
   <trkpt lon="13.70992600" lat="51.02330108">
    <ele>203</ele>
    <extensions>
     <ql:flags>0</ql:flags>
    </extensions>
   </trkpt>
   <trkpt lon="13.70992899" lat="51.02329731">
    <ele>203</ele>
    <extensions>
     <ql:flags>8</ql:flags>
    </extensions>
   </trkpt>
   <trkpt lon="13.70963095" lat="51.02301858">
    <ele>204</ele>
    <extensions>
     <ql:flags>0</ql:flags>
    </extensions>
   </trkpt>
   <trkpt lon="13.71029480" lat="51.02276145">
    <ele>206</ele>
    <extensions>
     <ql:flags>0</ql:flags>
    </extensions>
   </trkpt>
   <trkpt lon="13.71050804" lat="51.02282489">
    <ele>207</ele>
    <extensions>
     <ql:flags>0</ql:flags>
    </extensions>
   </trkpt>
   <trkpt lon="13.71080576" lat="51.02276314">
    <ele>207</ele>
    <extensions>
     <ql:flags>0</ql:flags>
    </extensions>
   </trkpt>
   <trkpt lon="13.71080875" lat="51.02276087">
    <ele>208</ele>
    <extensions>
     <ql:flags>8</ql:flags>
    </extensions>
   </trkpt>
   <trkpt lon="13.71085167" lat="51.02273941">
    <ele>208</ele>
    <extensions>
     <ql:flags>8</ql:flags>
    </extensions>
   </trkpt>
   <trkpt lon="13.71102333" lat="51.02267504">
    <ele>208</ele>
    <extensions>
     <ql:flags>8</ql:flags>
    </extensions>
   </trkpt>
   <trkpt lon="13.71134520" lat="51.02258921">
    <ele>209</ele>
    <extensions>
     <ql:flags>8</ql:flags>
    </extensions>
   </trkpt>
   <trkpt lon="13.71164395" lat="51.02250347">
    <ele>209</ele>
    <extensions>
     <ql:flags>0</ql:flags>
    </extensions>
   </trkpt>
   <trkpt lon="13.71164560" lat="51.02250338">
    <ele>209</ele>
    <extensions>
     <ql:flags>8</ql:flags>
    </extensions>
   </trkpt>
   <trkpt lon="13.71168852" lat="51.02246046">
    <ele>209</ele>
    <extensions>
     <ql:flags>8</ql:flags>
    </extensions>
   </trkpt>
   <trkpt lon="13.71179581" lat="51.02239609">
    <ele>209</ele>
    <extensions>
     <ql:flags>8</ql:flags>
    </extensions>
   </trkpt>
   <trkpt lon="13.71211736" lat="51.02231063">
    <ele>209</ele>
    <extensions>
     <ql:flags>0</ql:flags>
    </extensions>
   </trkpt>
   <trkpt lon="13.71218039" lat="51.02218121">
    <ele>209</ele>
    <extensions>
     <ql:flags>0</ql:flags>
    </extensions>
   </trkpt>
   <trkpt lon="13.71254786" lat="51.02225142">
    <ele>208</ele>
    <extensions>
     <ql:flags>0</ql:flags>
    </extensions>
   </trkpt>
   <trkpt lon="13.71256828" lat="51.02237463">
    <ele>207</ele>
    <extensions>
     <ql:flags>8</ql:flags>
    </extensions>
   </trkpt>
   <trkpt lon="13.71263266" lat="51.02246046">
    <ele>207</ele>
    <extensions>
     <ql:flags>8</ql:flags>
    </extensions>
   </trkpt>
   <trkpt lon="13.71265411" lat="51.02256775">
    <ele>206</ele>
    <extensions>
     <ql:flags>8</ql:flags>
    </extensions>
   </trkpt>
   <trkpt lon="13.71265411" lat="51.02263212">
    <ele>205</ele>
    <extensions>
     <ql:flags>8</ql:flags>
    </extensions>
   </trkpt>
   <trkpt lon="13.71239662" lat="51.02284670">
    <ele>205</ele>
    <extensions>
     <ql:flags>8</ql:flags>
    </extensions>
   </trkpt>
   <trkpt lon="13.71231079" lat="51.02291107">
    <ele>205</ele>
    <extensions>
     <ql:flags>8</ql:flags>
    </extensions>
   </trkpt>
   <trkpt lon="13.71186121" lat="51.02310316">
    <ele>204</ele>
    <extensions>
     <ql:flags>0</ql:flags>
    </extensions>
   </trkpt>
   <trkpt lon="13.71198893" lat="51.02325439">
    <ele>202</ele>
    <extensions>
     <ql:flags>8</ql:flags>
    </extensions>
   </trkpt>
   <trkpt lon="13.71256797" lat="51.02391851">
    <ele>190</ele>
    <extensions>
     <ql:flags>0</ql:flags>
    </extensions>
   </trkpt>
   <trkpt lon="13.71336222" lat="51.02475643">
    <ele>176</ele>
    <extensions>
     <ql:flags>8</ql:flags>
    </extensions>
   </trkpt>
   <trkpt lon="13.71387720" lat="51.02533579">
    <ele>168</ele>
    <extensions>
     <ql:flags>8</ql:flags>
    </extensions>
   </trkpt>
   <trkpt lon="13.71411324" lat="51.02561474">
    <ele>165</ele>
    <extensions>
     <ql:flags>8</ql:flags>
    </extensions>
   </trkpt>
   <trkpt lon="13.71499300" lat="51.02658033">
    <ele>156</ele>
    <extensions>
     <ql:flags>8</ql:flags>
    </extensions>
   </trkpt>
   <trkpt lon="13.71537924" lat="51.02698803">
    <ele>153</ele>
    <extensions>
     <ql:flags>8</ql:flags>
    </extensions>
   </trkpt>
   <trkpt lon="13.71548488" lat="51.02707154">
    <ele>152</ele>
    <extensions>
     <ql:flags>0</ql:flags>
    </extensions>
   </trkpt>
   <trkpt lon="13.71548653" lat="51.02715969">
    <ele>152</ele>
    <extensions>
     <ql:flags>8</ql:flags>
    </extensions>
   </trkpt>
   <trkpt lon="13.71550798" lat="51.02720261">
    <ele>152</ele>
    <extensions>
     <ql:flags>8</ql:flags>
    </extensions>
   </trkpt>
   <trkpt lon="13.71552913" lat="51.02724407">
    <ele>151</ele>
    <extensions>
     <ql:flags>0</ql:flags>
    </extensions>
   </trkpt>
   <trkpt lon="13.71565577" lat="51.02722579">
    <ele>151</ele>
    <extensions>
     <ql:flags>0</ql:flags>
    </extensions>
   </trkpt>
   <trkpt lon="13.71567723" lat="51.02726470">
    <ele>151</ele>
    <extensions>
     <ql:flags>0</ql:flags>
    </extensions>
   </trkpt>
   <trkpt lon="13.71572256" lat="51.02730989">
    <ele>151</ele>
    <extensions>
     <ql:flags>8</ql:flags>
    </extensions>
   </trkpt>
   <trkpt lon="13.71582609" lat="51.02735096">
    <ele>151</ele>
    <extensions>
     <ql:flags>0</ql:flags>
    </extensions>
   </trkpt>
   <trkpt lon="13.71589314" lat="51.02750319">
    <ele>150</ele>
    <extensions>
     <ql:flags>0</ql:flags>
    </extensions>
   </trkpt>
   <trkpt lon="13.71589422" lat="51.02750301">
    <ele>150</ele>
    <extensions>
     <ql:flags>8</ql:flags>
    </extensions>
   </trkpt>
   <trkpt lon="13.71595860" lat="51.02756739">
    <ele>150</ele>
    <extensions>
     <ql:flags>8</ql:flags>
    </extensions>
   </trkpt>
   <trkpt lon="13.71598032" lat="51.02759369">
    <ele>150</ele>
    <extensions>
     <ql:flags>0</ql:flags>
    </extensions>
   </trkpt>
   <trkpt lon="13.71608734" lat="51.02771759">
    <ele>150</ele>
    <extensions>
     <ql:flags>8</ql:flags>
    </extensions>
   </trkpt>
   <trkpt lon="13.71632338" lat="51.02808237">
    <ele>148</ele>
    <extensions>
     <ql:flags>8</ql:flags>
    </extensions>
   </trkpt>
   <trkpt lon="13.71638775" lat="51.02816820">
    <ele>148</ele>
    <extensions>
     <ql:flags>8</ql:flags>
    </extensions>
   </trkpt>
   <trkpt lon="13.71647358" lat="51.02812529">
    <ele>148</ele>
    <extensions>
     <ql:flags>8</ql:flags>
    </extensions>
   </trkpt>
   <trkpt lon="13.71657912" lat="51.02816581">
    <ele>148</ele>
    <extensions>
     <ql:flags>0</ql:flags>
    </extensions>
   </trkpt>
   <trkpt lon="13.71670518" lat="51.02822248">
    <ele>148</ele>
    <extensions>
     <ql:flags>0</ql:flags>
    </extensions>
   </trkpt>
   <trkpt lon="13.71673107" lat="51.02823257">
    <ele>148</ele>
    <extensions>
     <ql:flags>8</ql:flags>
    </extensions>
   </trkpt>
   <trkpt lon="13.71859789" lat="51.02891922">
    <ele>146</ele>
    <extensions>
     <ql:flags>8</ql:flags>
    </extensions>
   </trkpt>
   <trkpt lon="13.72115135" lat="51.02979898">
    <ele>146</ele>
    <extensions>
     <ql:flags>8</ql:flags>
    </extensions>
   </trkpt>
   <trkpt lon="13.72125864" lat="51.02984190">
    <ele>146</ele>
    <extensions>
     <ql:flags>8</ql:flags>
    </extensions>
   </trkpt>
   <trkpt lon="13.72174639" lat="51.03001199">
    <ele>147</ele>
    <extensions>
     <ql:flags>0</ql:flags>
    </extensions>
   </trkpt>
  </trkseg>
 </trk>
 <extensions>
  <ql:key>b306ab21a8680984efa2af300a76929b</ql:key>
  <ql:sortingRoadbook>0</ql:sortingRoadbook>
  <ql:sortingFolder>0</ql:sortingFolder>
  <ql:correlation>1</ql:correlation>
 </extensions>
</gpx>
