<?xml version="1.0" encoding="UTF-8" standalone="no" ?>
<gpx creator="QMapShack 1.10.0 http://www.qlandkarte.org/" xmlns:xsi="http://www.w3.org/2001/XMLSchema-instance" xsi:schemaLocation="http://www.topografix.com/GPX/1/1 http://www.topografix.com/GPX/1/1/gpx.xsd http://www.garmin.com/xmlschemas/GpxExtensions/v3 http://www.garmin.com/xmlschemas/GpxExtensionsv3.xsd http://www.garmin.com/xmlschemas/TrackPointExtension/v1 http://www.garmin.com/xmlschemas/TrackPointExtensionv1.xsd http://www.garmin.com/xmlschemas/WaypointExtension/v1 http://www.garmin.com/xmlschemas/WaypointExtensionv1.xsd http://www.qlandkarte.org/xmlschemas/v1.1 http://www.qlandkarte.org/xmlschemas/v1.1/ql-extensions.xsd http://www.cluetrust.com/XML/GPXDATA/1/0 http://www.cluetrust.com/Schemas/gpxdata10.xsd" version="1.1" xmlns:gpxx="http://www.garmin.com/xmlschemas/GpxExtensions/v3" xmlns:wptx1="http://www.garmin.com/xmlschemas/WaypointExtension/v1" xmlns:rmc="urn:net:trekbuddy:1.0:nmea:rmc" xmlns:ql="http://www.qlandkarte.org/xmlschemas/v1.1" xmlns:tp1="http://www.garmin.com/xmlschemas/TrackPointExtension/v1" xmlns="http://www.topografix.com/GPX/1/1" xmlns:gpxdata="http://www.cluetrust.com/XML/GPXDATA/1/0" xmlns:gpxtpx="http://www.garmin.com/xmlschemas/TrackPointExtension/v1">
 <metadata>
  <name>Streifzug 05: Von Pennrich nach Briesnitz – durch den Zschonergrund</name>
  <link href="https://www.dvb.de/de-de/entdecken/wandertipps/durch-den-zschonergrund/">
   <text>Webseite</text>
   <type>Link</type>
  </link>
  <time>2020-06-17T15:38:59.000Z</time>
 </metadata>
 <wpt lon="13.62753222" lat="51.04460109">
  <ele>282</ele>
  <time>2020-07-21T03:43:30.403Z</time>
  <name>Wegpunkt 1 Hier</name>
  <sym>Flag, Blue</sym>
  <extensions>
   <ql:key>d9559cbf4c9060fc0d79d083039a76d4</ql:key>
   <ql:flags>3</ql:flags>
   <ql:bubble xoff="-320" yoff="-150" width="300"/>
   <ql:history>
    <ql:event>
     <ql:icon>://icons/48x48/Start.png</ql:icon>
     <ql:time>2020-07-21T03:43:30.404Z</ql:time>
     <ql:comment>Erstversion.</ql:comment>
    </ql:event>
    <ql:event>
     <ql:icon>://icons/48x48/WptEditProx.png</ql:icon>
     <ql:time>2020-07-21T03:43:33.934Z</ql:time>
     <ql:comment>Abstandsalarm geändert</ql:comment>
    </ql:event>
    <ql:event>
     <ql:icon>://icons/48x48/WptMove.png</ql:icon>
     <ql:time>2020-07-21T03:43:51.504Z</ql:time>
     <ql:comment>Position geändert</ql:comment>
    </ql:event>
   </ql:history>
   <wptx1:WaypointExtension>
    <wptx1:Proximity>10.00000000</wptx1:Proximity>
   </wptx1:WaypointExtension>
  </extensions>
 </wpt>
 <wpt lon="13.61281667" lat="51.04660000">
  <ele>268</ele>
  <time>2020-07-21T03:45:02.693Z</time>
  <name>Wegpunkt 2 Hier</name>
  <sym>Flag, Blue</sym>
  <extensions>
   <ql:key>3aaa7a43dcc690d76d2518ce052d63cc</ql:key>
   <ql:flags>3</ql:flags>
   <ql:bubble xoff="-320" yoff="-150" width="300"/>
   <ql:history>
    <ql:event>
     <ql:icon>://icons/48x48/Start.png</ql:icon>
     <ql:time>2020-07-21T03:45:02.693Z</ql:time>
     <ql:comment>Erstversion.</ql:comment>
    </ql:event>
    <ql:event>
     <ql:icon>://icons/48x48/WptEditProx.png</ql:icon>
     <ql:time>2020-07-21T03:45:05.738Z</ql:time>
     <ql:comment>Abstandsalarm geändert</ql:comment>
    </ql:event>
   </ql:history>
   <wptx1:WaypointExtension>
    <wptx1:Proximity>10.00000000</wptx1:Proximity>
   </wptx1:WaypointExtension>
  </extensions>
 </wpt>
 <wpt lon="13.61336667" lat="51.04651667">
  <ele>269</ele>
  <time>2020-07-21T03:48:14.400Z</time>
  <name>Wegpunkt 2a Links</name>
  <sym>Flag, Blue</sym>
  <extensions>
   <ql:key>3aa72a35dafb3eaebfaa87030b029371</ql:key>
   <ql:flags>3</ql:flags>
   <ql:bubble xoff="-320" yoff="-150" width="300"/>
   <ql:history>
    <ql:event>
     <ql:icon>://icons/48x48/Start.png</ql:icon>
     <ql:time>2020-07-21T03:48:14.401Z</ql:time>
     <ql:comment>Erstversion.</ql:comment>
    </ql:event>
    <ql:event>
     <ql:icon>://icons/48x48/WptEditProx.png</ql:icon>
     <ql:time>2020-07-21T03:48:21.955Z</ql:time>
     <ql:comment>Abstandsalarm geändert</ql:comment>
    </ql:event>
   </ql:history>
   <wptx1:WaypointExtension>
    <wptx1:Proximity>10.00000000</wptx1:Proximity>
   </wptx1:WaypointExtension>
  </extensions>
 </wpt>
 <wpt lon="13.62218333" lat="51.04826667">
  <ele>269</ele>
  <time>2020-07-21T03:51:47.626Z</time>
  <name>Wegpunkt 3 Rechts</name>
  <sym>Flag, Blue</sym>
  <extensions>
   <ql:key>d7e5d5e525672d9c882dcde6da02a7ac</ql:key>
   <ql:flags>3</ql:flags>
   <ql:bubble xoff="-320" yoff="-150" width="300"/>
   <ql:history>
    <ql:event>
     <ql:icon>://icons/48x48/Start.png</ql:icon>
     <ql:time>2020-07-21T03:51:47.626Z</ql:time>
     <ql:comment>Erstversion.</ql:comment>
    </ql:event>
    <ql:event>
     <ql:icon>://icons/48x48/WptEditProx.png</ql:icon>
     <ql:time>2020-07-21T03:51:51.139Z</ql:time>
     <ql:comment>Abstandsalarm geändert</ql:comment>
    </ql:event>
   </ql:history>
   <wptx1:WaypointExtension>
    <wptx1:Proximity>10.00000000</wptx1:Proximity>
   </wptx1:WaypointExtension>
  </extensions>
 </wpt>
 <wpt lon="13.64095000" lat="51.05855000">
  <ele>190</ele>
  <time>2020-07-22T03:25:05.623Z</time>
  <name>Wegpunkt 4 Links</name>
  <sym>Flag, Blue</sym>
  <extensions>
   <ql:key>53a62e7a9b20bd87f08524141d551cb7</ql:key>
   <ql:flags>3</ql:flags>
   <ql:bubble xoff="-320" yoff="-150" width="300"/>
   <ql:history>
    <ql:event>
     <ql:icon>://icons/48x48/Start.png</ql:icon>
     <ql:time>2020-07-22T03:25:05.624Z</ql:time>
     <ql:comment>Erstversion.</ql:comment>
    </ql:event>
    <ql:event>
     <ql:icon>://icons/48x48/WptEditProx.png</ql:icon>
     <ql:time>2020-07-22T03:25:11.742Z</ql:time>
     <ql:comment>Abstandsalarm geändert</ql:comment>
    </ql:event>
   </ql:history>
   <wptx1:WaypointExtension>
    <wptx1:Proximity>10.00000000</wptx1:Proximity>
   </wptx1:WaypointExtension>
  </extensions>
 </wpt>
 <wpt lon="13.62800669" lat="51.06142604">
  <ele>256</ele>
  <time>2020-07-22T03:27:00.383Z</time>
  <name>Wegpunkt 5 Rechts</name>
  <sym>Flag, Blue</sym>
  <extensions>
   <ql:key>c6ab618af38c3d8020b20140e89be62f</ql:key>
   <ql:flags>3</ql:flags>
   <ql:bubble xoff="-320" yoff="-150" width="300"/>
   <ql:history>
    <ql:event>
     <ql:icon>://icons/48x48/Start.png</ql:icon>
     <ql:time>2020-07-22T03:27:00.384Z</ql:time>
     <ql:comment>Erstversion.</ql:comment>
    </ql:event>
    <ql:event>
     <ql:icon>://icons/48x48/WptEditProx.png</ql:icon>
     <ql:time>2020-07-22T03:27:03.677Z</ql:time>
     <ql:comment>Abstandsalarm geändert</ql:comment>
    </ql:event>
    <ql:event>
     <ql:icon>://icons/48x48/WptMove.png</ql:icon>
     <ql:time>2020-07-22T03:27:27.900Z</ql:time>
     <ql:comment>Position geändert</ql:comment>
    </ql:event>
   </ql:history>
   <wptx1:WaypointExtension>
    <wptx1:Proximity>10.00000000</wptx1:Proximity>
   </wptx1:WaypointExtension>
  </extensions>
 </wpt>
 <wpt lon="13.64576962" lat="51.06229564">
  <ele>173</ele>
  <time>2020-07-22T03:30:32.223Z</time>
  <name>Wegpunkt 6 Rechts</name>
  <sym>Flag, Blue</sym>
  <extensions>
   <ql:key>799c5b4f002589609423e4d98576ef66</ql:key>
   <ql:flags>3</ql:flags>
   <ql:bubble xoff="-320" yoff="-150" width="300"/>
   <ql:history>
    <ql:event>
     <ql:icon>://icons/48x48/Start.png</ql:icon>
     <ql:time>2020-07-22T03:30:32.224Z</ql:time>
     <ql:comment>Erstversion.</ql:comment>
    </ql:event>
    <ql:event>
     <ql:icon>://icons/48x48/WptEditProx.png</ql:icon>
     <ql:time>2020-07-22T03:30:38.222Z</ql:time>
     <ql:comment>Abstandsalarm geändert</ql:comment>
    </ql:event>
    <ql:event>
     <ql:icon>://icons/48x48/WptEditProx.png</ql:icon>
     <ql:time>2020-07-22T03:30:56.249Z</ql:time>
     <ql:comment>Abstandsalarm geändert</ql:comment>
    </ql:event>
    <ql:event>
     <ql:icon>://icons/48x48/WptMove.png</ql:icon>
     <ql:time>2020-07-22T03:31:13.879Z</ql:time>
     <ql:comment>Position geändert</ql:comment>
    </ql:event>
   </ql:history>
   <wptx1:WaypointExtension>
    <wptx1:Proximity>10.00000000</wptx1:Proximity>
   </wptx1:WaypointExtension>
  </extensions>
 </wpt>
 <wpt lon="13.64600000" lat="51.06336667">
  <ele>168</ele>
  <time>2020-07-22T03:38:47.378Z</time>
  <name>Wegpunkt 7 Rechts</name>
  <sym>Flag, Blue</sym>
  <extensions>
   <ql:key>bfe39b9b110747cbb13712cc69e55540</ql:key>
   <ql:flags>3</ql:flags>
   <ql:bubble xoff="-320" yoff="-150" width="300"/>
   <ql:history>
    <ql:event>
     <ql:icon>://icons/48x48/Start.png</ql:icon>
     <ql:time>2020-07-22T03:38:47.379Z</ql:time>
     <ql:comment>Erstversion.</ql:comment>
    </ql:event>
    <ql:event>
     <ql:icon>://icons/48x48/WptEditProx.png</ql:icon>
     <ql:time>2020-07-22T03:38:51.633Z</ql:time>
     <ql:comment>Abstandsalarm geändert</ql:comment>
    </ql:event>
   </ql:history>
   <wptx1:WaypointExtension>
    <wptx1:Proximity>10.00000000</wptx1:Proximity>
   </wptx1:WaypointExtension>
  </extensions>
 </wpt>
 <wpt lon="13.64520000" lat="51.06580000">
  <ele>188</ele>
  <time>2020-07-22T03:41:02.593Z</time>
  <name>Wegpunkt 8 Rechts</name>
  <sym>Flag, Blue</sym>
  <extensions>
   <ql:key>aaeba5ce13fe54feb544273ad0702757</ql:key>
   <ql:flags>3</ql:flags>
   <ql:bubble xoff="-320" yoff="-150" width="300"/>
   <ql:history>
    <ql:event>
     <ql:icon>://icons/48x48/Start.png</ql:icon>
     <ql:time>2020-07-22T03:41:02.594Z</ql:time>
     <ql:comment>Erstversion.</ql:comment>
    </ql:event>
    <ql:event>
     <ql:icon>://icons/48x48/WptEditProx.png</ql:icon>
     <ql:time>2020-07-22T03:41:05.606Z</ql:time>
     <ql:comment>Abstandsalarm geändert</ql:comment>
    </ql:event>
   </ql:history>
   <wptx1:WaypointExtension>
    <wptx1:Proximity>10.00000000</wptx1:Proximity>
   </wptx1:WaypointExtension>
  </extensions>
 </wpt>
 <wpt lon="13.65171667" lat="51.06395000">
  <ele>170</ele>
  <time>2020-07-22T03:42:10.589Z</time>
  <name>Wegpunkt 9 Links</name>
  <sym>Flag, Blue</sym>
  <extensions>
   <ql:key>f5ffc7779812a0380115a3114e97802e</ql:key>
   <ql:flags>3</ql:flags>
   <ql:bubble xoff="-320" yoff="-150" width="300"/>
   <ql:history>
    <ql:event>
     <ql:icon>://icons/48x48/Start.png</ql:icon>
     <ql:time>2020-07-22T03:42:10.589Z</ql:time>
     <ql:comment>Erstversion.</ql:comment>
    </ql:event>
    <ql:event>
     <ql:icon>://icons/48x48/WptEditProx.png</ql:icon>
     <ql:time>2020-07-22T03:42:14.050Z</ql:time>
     <ql:comment>Abstandsalarm geändert</ql:comment>
    </ql:event>
   </ql:history>
   <wptx1:WaypointExtension>
    <wptx1:Proximity>10.00000000</wptx1:Proximity>
   </wptx1:WaypointExtension>
  </extensions>
 </wpt>
 <wpt lon="13.65651667" lat="51.06653333">
  <ele>141</ele>
  <time>2020-07-22T03:43:43.925Z</time>
  <name>Wegpunkt 10 Links</name>
  <sym>Flag, Blue</sym>
  <extensions>
   <ql:key>88f45a3bd3a82662b36615c97da1a96e</ql:key>
   <ql:flags>3</ql:flags>
   <ql:bubble xoff="-320" yoff="-150" width="300"/>
   <ql:history>
    <ql:event>
     <ql:icon>://icons/48x48/Start.png</ql:icon>
     <ql:time>2020-07-22T03:43:43.925Z</ql:time>
     <ql:comment>Erstversion.</ql:comment>
    </ql:event>
    <ql:event>
     <ql:icon>://icons/48x48/WptEditProx.png</ql:icon>
     <ql:time>2020-07-22T03:43:47.691Z</ql:time>
     <ql:comment>Abstandsalarm geändert</ql:comment>
    </ql:event>
   </ql:history>
   <wptx1:WaypointExtension>
    <wptx1:Proximity>10.00000000</wptx1:Proximity>
   </wptx1:WaypointExtension>
  </extensions>
 </wpt>
 <wpt lon="13.65986667" lat="51.06865000">
  <ele>133</ele>
  <time>2020-07-22T03:44:39.716Z</time>
  <name>Wegpunkt 11 Links</name>
  <sym>Flag, Blue</sym>
  <extensions>
   <ql:key>b0ea98dc1c69d0d248725f8eeac80b0f</ql:key>
   <ql:flags>3</ql:flags>
   <ql:bubble xoff="-320" yoff="-150" width="300"/>
   <ql:history>
    <ql:event>
     <ql:icon>://icons/48x48/Start.png</ql:icon>
     <ql:time>2020-07-22T03:44:39.717Z</ql:time>
     <ql:comment>Erstversion.</ql:comment>
    </ql:event>
    <ql:event>
     <ql:icon>://icons/48x48/WptEditProx.png</ql:icon>
     <ql:time>2020-07-22T03:44:42.960Z</ql:time>
     <ql:comment>Abstandsalarm geändert</ql:comment>
    </ql:event>
   </ql:history>
   <wptx1:WaypointExtension>
    <wptx1:Proximity>10.00000000</wptx1:Proximity>
   </wptx1:WaypointExtension>
  </extensions>
 </wpt>
 <wpt lon="13.67220000" lat="51.06771667">
  <ele>133</ele>
  <time>2020-07-22T03:48:20.095Z</time>
  <name>Wegpunkt 12 Hier</name>
  <sym>Flag, Blue</sym>
  <extensions>
   <ql:key>c0b088fcbde85882db2832ddbf1f5f13</ql:key>
   <ql:flags>3</ql:flags>
   <ql:bubble xoff="-320" yoff="-150" width="300"/>
   <ql:history>
    <ql:event>
     <ql:icon>://icons/48x48/Start.png</ql:icon>
     <ql:time>2020-07-22T03:48:20.096Z</ql:time>
     <ql:comment>Erstversion.</ql:comment>
    </ql:event>
    <ql:event>
     <ql:icon>://icons/48x48/WptEditProx.png</ql:icon>
     <ql:time>2020-07-22T03:48:22.874Z</ql:time>
     <ql:comment>Abstandsalarm geändert</ql:comment>
    </ql:event>
   </ql:history>
   <wptx1:WaypointExtension>
    <wptx1:Proximity>10.00000000</wptx1:Proximity>
   </wptx1:WaypointExtension>
  </extensions>
 </wpt>
 <wpt lon="13.66903333" lat="51.06541667">
  <ele>133</ele>
  <time>2020-07-22T03:50:23.933Z</time>
  <name>Wegpunkt 13 Rechts</name>
  <sym>Flag, Blue</sym>
  <extensions>
   <ql:key>bb45951db5a461cb07106dfeec1ed526</ql:key>
   <ql:flags>3</ql:flags>
   <ql:bubble xoff="-320" yoff="-150" width="300"/>
   <ql:history>
    <ql:event>
     <ql:icon>://icons/48x48/Start.png</ql:icon>
     <ql:time>2020-07-22T03:50:23.934Z</ql:time>
     <ql:comment>Erstversion.</ql:comment>
    </ql:event>
    <ql:event>
     <ql:icon>://icons/48x48/WptEditProx.png</ql:icon>
     <ql:time>2020-07-22T03:50:27.528Z</ql:time>
     <ql:comment>Abstandsalarm geändert</ql:comment>
    </ql:event>
   </ql:history>
   <wptx1:WaypointExtension>
    <wptx1:Proximity>10.00000000</wptx1:Proximity>
   </wptx1:WaypointExtension>
  </extensions>
 </wpt>
 <wpt lon="13.67611667" lat="51.06243333">
  <ele>129</ele>
  <time>2020-07-22T03:51:47.666Z</time>
  <name>Wegpunkt 14 Hier</name>
  <sym>Flag, Blue</sym>
  <extensions>
   <ql:key>9a9c68d359cdf0773b93d56c8af58adf</ql:key>
   <ql:flags>3</ql:flags>
   <ql:bubble xoff="-320" yoff="-150" width="300"/>
   <ql:history>
    <ql:event>
     <ql:icon>://icons/48x48/Start.png</ql:icon>
     <ql:time>2020-07-22T03:51:47.667Z</ql:time>
     <ql:comment>Erstversion.</ql:comment>
    </ql:event>
    <ql:event>
     <ql:icon>://icons/48x48/WptEditProx.png</ql:icon>
     <ql:time>2020-07-22T03:51:51.128Z</ql:time>
     <ql:comment>Abstandsalarm geändert</ql:comment>
    </ql:event>
   </ql:history>
   <wptx1:WaypointExtension>
    <wptx1:Proximity>10.00000000</wptx1:Proximity>
   </wptx1:WaypointExtension>
  </extensions>
 </wpt>
 <trk>
  <name>Track</name>
  <extensions>
   <ql:key>c5ba0a54a3e5775bd2dca1c5ed883d28</ql:key>
   <ql:flags>7</ql:flags>
   <ql:history>
    <ql:event>
     <ql:icon>://icons/48x48/Start.png</ql:icon>
     <ql:time>2020-06-17T16:07:32.489Z</ql:time>
     <ql:comment>Erstversion.</ql:comment>
    </ql:event>
    <ql:event>
     <ql:icon>://icons/48x48/ActFoot.png</ql:icon>
     <ql:time>2020-06-30T16:39:59.129Z</ql:time>
     <ql:comment>Die Aktivität wurde für den gesamten Track auf 'Fußgänger' geändert.</ql:comment>
    </ql:event>
    <ql:event>
     <ql:icon>://icons/48x48/LineMove.png</ql:icon>
     <ql:time>2020-06-30T16:46:55.412Z</ql:time>
     <ql:comment>Wegpunkte geändert, alle vorherigen Daten sind verloren.</ql:comment>
    </ql:event>
    <ql:event>
     <ql:icon>://icons/48x48/LineMove.png</ql:icon>
     <ql:time>2020-06-30T16:47:55.084Z</ql:time>
     <ql:comment>Wegpunkte geändert, alle vorherigen Daten sind verloren.</ql:comment>
    </ql:event>
    <ql:event>
     <ql:icon>://icons/48x48/LineMove.png</ql:icon>
     <ql:time>2020-06-30T16:49:44.943Z</ql:time>
     <ql:comment>Wegpunkte geändert, alle vorherigen Daten sind verloren.</ql:comment>
    </ql:event>
    <ql:event>
     <ql:icon>://icons/48x48/LineMove.png</ql:icon>
     <ql:time>2020-06-30T16:50:31.034Z</ql:time>
     <ql:comment>Wegpunkte geändert, alle vorherigen Daten sind verloren.</ql:comment>
    </ql:event>
    <ql:event>
     <ql:icon>://icons/48x48/LineMove.png</ql:icon>
     <ql:time>2020-07-01T04:34:32.973Z</ql:time>
     <ql:comment>Wegpunkte geändert, alle vorherigen Daten sind verloren.</ql:comment>
    </ql:event>
    <ql:event>
     <ql:icon>://icons/48x48/LineMove.png</ql:icon>
     <ql:time>2020-07-01T04:37:47.908Z</ql:time>
     <ql:comment>Wegpunkte geändert, alle vorherigen Daten sind verloren.</ql:comment>
    </ql:event>
    <ql:event>
     <ql:icon>://icons/48x48/LineMove.png</ql:icon>
     <ql:time>2020-07-01T04:41:03.125Z</ql:time>
     <ql:comment>Wegpunkte geändert, alle vorherigen Daten sind verloren.</ql:comment>
    </ql:event>
   </ql:history>
   <gpxx:TrackExtension>
    <gpxx:DisplayColor>DarkBlue</gpxx:DisplayColor>
   </gpxx:TrackExtension>
  </extensions>
  <trkseg>
   <trkpt lon="13.62654452" lat="51.04079065">
    <ele>297</ele>
    <extensions>
     <ql:flags>0</ql:flags>
    </extensions>
   </trkpt>
   <trkpt lon="13.62652302" lat="51.04082823">
    <ele>297</ele>
    <extensions>
     <ql:flags>8</ql:flags>
    </extensions>
   </trkpt>
   <trkpt lon="13.62751007" lat="51.04117155">
    <ele>298</ele>
    <extensions>
     <ql:flags>8</ql:flags>
    </extensions>
   </trkpt>
   <trkpt lon="13.62864733" lat="51.04155779">
    <ele>299</ele>
    <extensions>
     <ql:flags>8</ql:flags>
    </extensions>
   </trkpt>
   <trkpt lon="13.62873316" lat="51.04168653">
    <ele>299</ele>
    <extensions>
     <ql:flags>8</ql:flags>
    </extensions>
   </trkpt>
   <trkpt lon="13.62877746" lat="51.04211805">
    <ele>299</ele>
    <extensions>
     <ql:flags>0</ql:flags>
    </extensions>
   </trkpt>
   <trkpt lon="13.62877607" lat="51.04235172">
    <ele>298</ele>
    <extensions>
     <ql:flags>8</ql:flags>
    </extensions>
   </trkpt>
   <trkpt lon="13.62881899" lat="51.04256630">
    <ele>297</ele>
    <extensions>
     <ql:flags>8</ql:flags>
    </extensions>
   </trkpt>
   <trkpt lon="13.62892628" lat="51.04263067">
    <ele>296</ele>
    <extensions>
     <ql:flags>8</ql:flags>
    </extensions>
   </trkpt>
   <trkpt lon="13.62891961" lat="51.04265577">
    <ele>296</ele>
    <extensions>
     <ql:flags>0</ql:flags>
    </extensions>
   </trkpt>
   <trkpt lon="13.62886190" lat="51.04280233">
    <ele>295</ele>
    <extensions>
     <ql:flags>8</ql:flags>
    </extensions>
   </trkpt>
   <trkpt lon="13.62892628" lat="51.04301691">
    <ele>294</ele>
    <extensions>
     <ql:flags>8</ql:flags>
    </extensions>
   </trkpt>
   <trkpt lon="13.62899065" lat="51.04333878">
    <ele>292</ele>
    <extensions>
     <ql:flags>8</ql:flags>
    </extensions>
   </trkpt>
   <trkpt lon="13.62905507" lat="51.04376924">
    <ele>289</ele>
    <extensions>
     <ql:flags>0</ql:flags>
    </extensions>
   </trkpt>
   <trkpt lon="13.62905502" lat="51.04376793">
    <ele>289</ele>
    <extensions>
     <ql:flags>8</ql:flags>
    </extensions>
   </trkpt>
   <trkpt lon="13.62830777" lat="51.04374552">
    <ele>290</ele>
    <extensions>
     <ql:flags>0</ql:flags>
    </extensions>
   </trkpt>
   <trkpt lon="13.62832282" lat="51.04411502">
    <ele>287</ele>
    <extensions>
     <ql:flags>0</ql:flags>
    </extensions>
   </trkpt>
   <trkpt lon="13.62836842" lat="51.04411248">
    <ele>287</ele>
    <extensions>
     <ql:flags>0</ql:flags>
    </extensions>
   </trkpt>
   <trkpt lon="13.62836838" lat="51.04417562">
    <ele>286</ele>
    <extensions>
     <ql:flags>8</ql:flags>
    </extensions>
   </trkpt>
   <trkpt lon="13.62836946" lat="51.04417669">
    <ele>286</ele>
    <extensions>
     <ql:flags>0</ql:flags>
    </extensions>
   </trkpt>
   <trkpt lon="13.62819672" lat="51.04432583">
    <ele>285</ele>
    <extensions>
     <ql:flags>8</ql:flags>
    </extensions>
   </trkpt>
   <trkpt lon="13.62778902" lat="51.04456186">
    <ele>283</ele>
    <extensions>
     <ql:flags>8</ql:flags>
    </extensions>
   </trkpt>
   <trkpt lon="13.62766027" lat="51.04460478">
    <ele>283</ele>
    <extensions>
     <ql:flags>8</ql:flags>
    </extensions>
   </trkpt>
   <trkpt lon="13.62755299" lat="51.04462624">
    <ele>282</ele>
    <extensions>
     <ql:flags>8</ql:flags>
    </extensions>
   </trkpt>
   <trkpt lon="13.62723112" lat="51.04462624">
    <ele>282</ele>
    <extensions>
     <ql:flags>8</ql:flags>
    </extensions>
   </trkpt>
   <trkpt lon="13.62714529" lat="51.04460478">
    <ele>282</ele>
    <extensions>
     <ql:flags>8</ql:flags>
    </extensions>
   </trkpt>
   <trkpt lon="13.62703800" lat="51.04456186">
    <ele>282</ele>
    <extensions>
     <ql:flags>8</ql:flags>
    </extensions>
   </trkpt>
   <trkpt lon="13.62688780" lat="51.04454041">
    <ele>282</ele>
    <extensions>
     <ql:flags>8</ql:flags>
    </extensions>
   </trkpt>
   <trkpt lon="13.62654448" lat="51.04454041">
    <ele>282</ele>
    <extensions>
     <ql:flags>8</ql:flags>
    </extensions>
   </trkpt>
   <trkpt lon="13.62624407" lat="51.04458332">
    <ele>282</ele>
    <extensions>
     <ql:flags>8</ql:flags>
    </extensions>
   </trkpt>
   <trkpt lon="13.62613678" lat="51.04458332">
    <ele>282</ele>
    <extensions>
     <ql:flags>8</ql:flags>
    </extensions>
   </trkpt>
   <trkpt lon="13.62598658" lat="51.04456186">
    <ele>282</ele>
    <extensions>
     <ql:flags>8</ql:flags>
    </extensions>
   </trkpt>
   <trkpt lon="13.62575054" lat="51.04460478">
    <ele>282</ele>
    <extensions>
     <ql:flags>8</ql:flags>
    </extensions>
   </trkpt>
   <trkpt lon="13.62557888" lat="51.04464769">
    <ele>282</ele>
    <extensions>
     <ql:flags>8</ql:flags>
    </extensions>
   </trkpt>
   <trkpt lon="13.62553596" lat="51.04464769">
    <ele>282</ele>
    <extensions>
     <ql:flags>8</ql:flags>
    </extensions>
   </trkpt>
   <trkpt lon="13.62543006" lat="51.04462904">
    <ele>282</ele>
    <extensions>
     <ql:flags>0</ql:flags>
    </extensions>
   </trkpt>
   <trkpt lon="13.62542868" lat="51.04462624">
    <ele>282</ele>
    <extensions>
     <ql:flags>8</ql:flags>
    </extensions>
   </trkpt>
   <trkpt lon="13.62510681" lat="51.04475498">
    <ele>282</ele>
    <extensions>
     <ql:flags>8</ql:flags>
    </extensions>
   </trkpt>
   <trkpt lon="13.62478495" lat="51.04490519">
    <ele>281</ele>
    <extensions>
     <ql:flags>8</ql:flags>
    </extensions>
   </trkpt>
   <trkpt lon="13.62439871" lat="51.04505539">
    <ele>281</ele>
    <extensions>
     <ql:flags>8</ql:flags>
    </extensions>
   </trkpt>
   <trkpt lon="13.62422705" lat="51.04509830">
    <ele>282</ele>
    <extensions>
     <ql:flags>8</ql:flags>
    </extensions>
   </trkpt>
   <trkpt lon="13.62409830" lat="51.04509830">
    <ele>282</ele>
    <extensions>
     <ql:flags>8</ql:flags>
    </extensions>
   </trkpt>
   <trkpt lon="13.62330679" lat="51.04524698">
    <ele>284</ele>
    <extensions>
     <ql:flags>0</ql:flags>
    </extensions>
   </trkpt>
   <trkpt lon="13.62321854" lat="51.04503393">
    <ele>285</ele>
    <extensions>
     <ql:flags>8</ql:flags>
    </extensions>
   </trkpt>
   <trkpt lon="13.62310696" lat="51.04467126">
    <ele>286</ele>
    <extensions>
     <ql:flags>0</ql:flags>
    </extensions>
   </trkpt>
   <trkpt lon="13.62167358" lat="51.04471207">
    <ele>287</ele>
    <extensions>
     <ql:flags>8</ql:flags>
    </extensions>
   </trkpt>
   <trkpt lon="13.62092257" lat="51.04479790">
    <ele>288</ele>
    <extensions>
     <ql:flags>8</ql:flags>
    </extensions>
   </trkpt>
   <trkpt lon="13.61916278" lat="51.04509819">
    <ele>286</ele>
    <extensions>
     <ql:flags>0</ql:flags>
    </extensions>
   </trkpt>
   <trkpt lon="13.61890554" lat="51.04424000">
    <ele>291</ele>
    <extensions>
     <ql:flags>8</ql:flags>
    </extensions>
   </trkpt>
   <trkpt lon="13.61890528" lat="51.04423840">
    <ele>291</ele>
    <extensions>
     <ql:flags>0</ql:flags>
    </extensions>
   </trkpt>
   <trkpt lon="13.61890554" lat="51.04424000">
    <ele>291</ele>
    <extensions>
     <ql:flags>8</ql:flags>
    </extensions>
   </trkpt>
   <trkpt lon="13.61789703" lat="51.04426146">
    <ele>289</ele>
    <extensions>
     <ql:flags>8</ql:flags>
    </extensions>
   </trkpt>
   <trkpt lon="13.61776829" lat="51.04428291">
    <ele>289</ele>
    <extensions>
     <ql:flags>8</ql:flags>
    </extensions>
   </trkpt>
   <trkpt lon="13.61733913" lat="51.04430437">
    <ele>288</ele>
    <extensions>
     <ql:flags>8</ql:flags>
    </extensions>
   </trkpt>
   <trkpt lon="13.61506462" lat="51.04462624">
    <ele>281</ele>
    <extensions>
     <ql:flags>8</ql:flags>
    </extensions>
   </trkpt>
   <trkpt lon="13.61463547" lat="51.04469061">
    <ele>280</ele>
    <extensions>
     <ql:flags>8</ql:flags>
    </extensions>
   </trkpt>
   <trkpt lon="13.61392736" lat="51.04484081">
    <ele>277</ele>
    <extensions>
     <ql:flags>8</ql:flags>
    </extensions>
   </trkpt>
   <trkpt lon="13.61379862" lat="51.04486227">
    <ele>277</ele>
    <extensions>
     <ql:flags>8</ql:flags>
    </extensions>
   </trkpt>
   <trkpt lon="13.61371279" lat="51.04486227">
    <ele>277</ele>
    <extensions>
     <ql:flags>8</ql:flags>
    </extensions>
   </trkpt>
   <trkpt lon="13.61339092" lat="51.04481936">
    <ele>276</ele>
    <extensions>
     <ql:flags>8</ql:flags>
    </extensions>
   </trkpt>
   <trkpt lon="13.61251116" lat="51.04464769">
    <ele>272</ele>
    <extensions>
     <ql:flags>8</ql:flags>
    </extensions>
   </trkpt>
   <trkpt lon="13.61210346" lat="51.04458332">
    <ele>270</ele>
    <extensions>
     <ql:flags>8</ql:flags>
    </extensions>
   </trkpt>
   <trkpt lon="13.61201763" lat="51.04458332">
    <ele>270</ele>
    <extensions>
     <ql:flags>8</ql:flags>
    </extensions>
   </trkpt>
   <trkpt lon="13.61199591" lat="51.04456219">
    <ele>270</ele>
    <extensions>
     <ql:flags>0</ql:flags>
    </extensions>
   </trkpt>
   <trkpt lon="13.61195326" lat="51.04456186">
    <ele>270</ele>
    <extensions>
     <ql:flags>8</ql:flags>
    </extensions>
   </trkpt>
   <trkpt lon="13.61178160" lat="51.04458332">
    <ele>269</ele>
    <extensions>
     <ql:flags>8</ql:flags>
    </extensions>
   </trkpt>
   <trkpt lon="13.61171965" lat="51.04460446">
    <ele>269</ele>
    <extensions>
     <ql:flags>0</ql:flags>
    </extensions>
   </trkpt>
   <trkpt lon="13.61171722" lat="51.04466915">
    <ele>269</ele>
    <extensions>
     <ql:flags>8</ql:flags>
    </extensions>
   </trkpt>
   <trkpt lon="13.61176014" lat="51.04484081">
    <ele>269</ele>
    <extensions>
     <ql:flags>8</ql:flags>
    </extensions>
   </trkpt>
   <trkpt lon="13.61175854" lat="51.04484034">
    <ele>269</ele>
    <extensions>
     <ql:flags>0</ql:flags>
    </extensions>
   </trkpt>
   <trkpt lon="13.61191034" lat="51.04486227">
    <ele>270</ele>
    <extensions>
     <ql:flags>8</ql:flags>
    </extensions>
   </trkpt>
   <trkpt lon="13.61227512" lat="51.04518414">
    <ele>270</ele>
    <extensions>
     <ql:flags>8</ql:flags>
    </extensions>
   </trkpt>
   <trkpt lon="13.61244678" lat="51.04550600">
    <ele>270</ele>
    <extensions>
     <ql:flags>8</ql:flags>
    </extensions>
   </trkpt>
   <trkpt lon="13.61253262" lat="51.04595661">
    <ele>270</ele>
    <extensions>
     <ql:flags>8</ql:flags>
    </extensions>
   </trkpt>
   <trkpt lon="13.61266136" lat="51.04636431">
    <ele>269</ele>
    <extensions>
     <ql:flags>8</ql:flags>
    </extensions>
   </trkpt>
   <trkpt lon="13.61278985" lat="51.04659876">
    <ele>268</ele>
    <extensions>
     <ql:flags>0</ql:flags>
    </extensions>
   </trkpt>
   <trkpt lon="13.61283302" lat="51.04655743">
    <ele>268</ele>
    <extensions>
     <ql:flags>8</ql:flags>
    </extensions>
   </trkpt>
   <trkpt lon="13.61315489" lat="51.04651451">
    <ele>269</ele>
    <extensions>
     <ql:flags>8</ql:flags>
    </extensions>
   </trkpt>
   <trkpt lon="13.61334801" lat="51.04653597">
    <ele>269</ele>
    <extensions>
     <ql:flags>8</ql:flags>
    </extensions>
   </trkpt>
   <trkpt lon="13.61461401" lat="51.04679346">
    <ele>269</ele>
    <extensions>
     <ql:flags>8</ql:flags>
    </extensions>
   </trkpt>
   <trkpt lon="13.61515045" lat="51.04694366">
    <ele>267</ele>
    <extensions>
     <ql:flags>8</ql:flags>
    </extensions>
   </trkpt>
   <trkpt lon="13.61536503" lat="51.04698658">
    <ele>267</ele>
    <extensions>
     <ql:flags>8</ql:flags>
    </extensions>
   </trkpt>
   <trkpt lon="13.61570835" lat="51.04705095">
    <ele>266</ele>
    <extensions>
     <ql:flags>8</ql:flags>
    </extensions>
   </trkpt>
   <trkpt lon="13.61648083" lat="51.04711533">
    <ele>265</ele>
    <extensions>
     <ql:flags>8</ql:flags>
    </extensions>
   </trkpt>
   <trkpt lon="13.61684561" lat="51.04724407">
    <ele>266</ele>
    <extensions>
     <ql:flags>8</ql:flags>
    </extensions>
   </trkpt>
   <trkpt lon="13.61723185" lat="51.04732990">
    <ele>267</ele>
    <extensions>
     <ql:flags>8</ql:flags>
    </extensions>
   </trkpt>
   <trkpt lon="13.61776400" lat="51.04750162">
    <ele>268</ele>
    <extensions>
     <ql:flags>0</ql:flags>
    </extensions>
   </trkpt>
   <trkpt lon="13.61809015" lat="51.04717970">
    <ele>270</ele>
    <extensions>
     <ql:flags>8</ql:flags>
    </extensions>
   </trkpt>
   <trkpt lon="13.61830473" lat="51.04720116">
    <ele>271</ele>
    <extensions>
     <ql:flags>8</ql:flags>
    </extensions>
   </trkpt>
   <trkpt lon="13.61875534" lat="51.04748011">
    <ele>271</ele>
    <extensions>
     <ql:flags>8</ql:flags>
    </extensions>
   </trkpt>
   <trkpt lon="13.61892700" lat="51.04756594">
    <ele>271</ele>
    <extensions>
     <ql:flags>8</ql:flags>
    </extensions>
   </trkpt>
   <trkpt lon="13.61912012" lat="51.04763031">
    <ele>271</ele>
    <extensions>
     <ql:flags>8</ql:flags>
    </extensions>
   </trkpt>
   <trkpt lon="13.61922741" lat="51.04778051">
    <ele>270</ele>
    <extensions>
     <ql:flags>8</ql:flags>
    </extensions>
   </trkpt>
   <trkpt lon="13.61931324" lat="51.04788780">
    <ele>270</ele>
    <extensions>
     <ql:flags>8</ql:flags>
    </extensions>
   </trkpt>
   <trkpt lon="13.61967802" lat="51.04793072">
    <ele>270</ele>
    <extensions>
     <ql:flags>8</ql:flags>
    </extensions>
   </trkpt>
   <trkpt lon="13.62090111" lat="51.04793072">
    <ele>271</ele>
    <extensions>
     <ql:flags>8</ql:flags>
    </extensions>
   </trkpt>
   <trkpt lon="13.62115901" lat="51.04797037">
    <ele>271</ele>
    <extensions>
     <ql:flags>0</ql:flags>
    </extensions>
   </trkpt>
   <trkpt lon="13.62179738" lat="51.04812254">
    <ele>270</ele>
    <extensions>
     <ql:flags>0</ql:flags>
    </extensions>
   </trkpt>
   <trkpt lon="13.62180233" lat="51.04812384">
    <ele>270</ele>
    <extensions>
     <ql:flags>8</ql:flags>
    </extensions>
   </trkpt>
   <trkpt lon="13.62212420" lat="51.04831696">
    <ele>269</ele>
    <extensions>
     <ql:flags>8</ql:flags>
    </extensions>
   </trkpt>
   <trkpt lon="13.62268209" lat="51.04874611">
    <ele>267</ele>
    <extensions>
     <ql:flags>8</ql:flags>
    </extensions>
   </trkpt>
   <trkpt lon="13.62293959" lat="51.04904652">
    <ele>263</ele>
    <extensions>
     <ql:flags>8</ql:flags>
    </extensions>
   </trkpt>
   <trkpt lon="13.62302542" lat="51.04915380">
    <ele>261</ele>
    <extensions>
     <ql:flags>8</ql:flags>
    </extensions>
   </trkpt>
   <trkpt lon="13.62302315" lat="51.04924008">
    <ele>260</ele>
    <extensions>
     <ql:flags>0</ql:flags>
    </extensions>
   </trkpt>
   <trkpt lon="13.62298250" lat="51.04936838">
    <ele>258</ele>
    <extensions>
     <ql:flags>8</ql:flags>
    </extensions>
   </trkpt>
   <trkpt lon="13.62291813" lat="51.04945421">
    <ele>256</ele>
    <extensions>
     <ql:flags>8</ql:flags>
    </extensions>
   </trkpt>
   <trkpt lon="13.62291854" lat="51.04949537">
    <ele>255</ele>
    <extensions>
     <ql:flags>0</ql:flags>
    </extensions>
   </trkpt>
   <trkpt lon="13.62332582" lat="51.04949713">
    <ele>256</ele>
    <extensions>
     <ql:flags>8</ql:flags>
    </extensions>
   </trkpt>
   <trkpt lon="13.62371206" lat="51.04938984">
    <ele>258</ele>
    <extensions>
     <ql:flags>8</ql:flags>
    </extensions>
   </trkpt>
   <trkpt lon="13.62397801" lat="51.04926713">
    <ele>260</ele>
    <extensions>
     <ql:flags>0</ql:flags>
    </extensions>
   </trkpt>
   <trkpt lon="13.62435579" lat="51.04928255">
    <ele>260</ele>
    <extensions>
     <ql:flags>8</ql:flags>
    </extensions>
   </trkpt>
   <trkpt lon="13.62474203" lat="51.04917526">
    <ele>261</ele>
    <extensions>
     <ql:flags>8</ql:flags>
    </extensions>
   </trkpt>
   <trkpt lon="13.62507772" lat="51.04913188">
    <ele>260</ele>
    <extensions>
     <ql:flags>0</ql:flags>
    </extensions>
   </trkpt>
   <trkpt lon="13.62521410" lat="51.04911089">
    <ele>260</ele>
    <extensions>
     <ql:flags>8</ql:flags>
    </extensions>
   </trkpt>
   <trkpt lon="13.62547159" lat="51.04900360">
    <ele>260</ele>
    <extensions>
     <ql:flags>8</ql:flags>
    </extensions>
   </trkpt>
   <trkpt lon="13.62609386" lat="51.04902506">
    <ele>258</ele>
    <extensions>
     <ql:flags>8</ql:flags>
    </extensions>
   </trkpt>
   <trkpt lon="13.62620022" lat="51.04890110">
    <ele>259</ele>
    <extensions>
     <ql:flags>0</ql:flags>
    </extensions>
   </trkpt>
   <trkpt lon="13.62620115" lat="51.04889631">
    <ele>259</ele>
    <extensions>
     <ql:flags>8</ql:flags>
    </extensions>
   </trkpt>
   <trkpt lon="13.62645864" lat="51.04891777">
    <ele>258</ele>
    <extensions>
     <ql:flags>8</ql:flags>
    </extensions>
   </trkpt>
   <trkpt lon="13.62697363" lat="51.04883194">
    <ele>257</ele>
    <extensions>
     <ql:flags>8</ql:flags>
    </extensions>
   </trkpt>
   <trkpt lon="13.62716675" lat="51.04881048">
    <ele>257</ele>
    <extensions>
     <ql:flags>8</ql:flags>
    </extensions>
   </trkpt>
   <trkpt lon="13.62729285" lat="51.04879168">
    <ele>257</ele>
    <extensions>
     <ql:flags>0</ql:flags>
    </extensions>
   </trkpt>
   <trkpt lon="13.62720966" lat="51.04904652">
    <ele>255</ele>
    <extensions>
     <ql:flags>8</ql:flags>
    </extensions>
   </trkpt>
   <trkpt lon="13.62733841" lat="51.04923964">
    <ele>254</ele>
    <extensions>
     <ql:flags>8</ql:flags>
    </extensions>
   </trkpt>
   <trkpt lon="13.62757444" lat="51.04938984">
    <ele>254</ele>
    <extensions>
     <ql:flags>8</ql:flags>
    </extensions>
   </trkpt>
   <trkpt lon="13.62770319" lat="51.04945421">
    <ele>255</ele>
    <extensions>
     <ql:flags>8</ql:flags>
    </extensions>
   </trkpt>
   <trkpt lon="13.62780918" lat="51.04964885">
    <ele>255</ele>
    <extensions>
     <ql:flags>0</ql:flags>
    </extensions>
   </trkpt>
   <trkpt lon="13.62796068" lat="51.05011940">
    <ele>253</ele>
    <extensions>
     <ql:flags>8</ql:flags>
    </extensions>
   </trkpt>
   <trkpt lon="13.62787485" lat="51.05024815">
    <ele>251</ele>
    <extensions>
     <ql:flags>8</ql:flags>
    </extensions>
   </trkpt>
   <trkpt lon="13.62778902" lat="51.05031252">
    <ele>250</ele>
    <extensions>
     <ql:flags>8</ql:flags>
    </extensions>
   </trkpt>
   <trkpt lon="13.62759590" lat="51.05035543">
    <ele>249</ele>
    <extensions>
     <ql:flags>8</ql:flags>
    </extensions>
   </trkpt>
   <trkpt lon="13.62735987" lat="51.05035543">
    <ele>248</ele>
    <extensions>
     <ql:flags>8</ql:flags>
    </extensions>
   </trkpt>
   <trkpt lon="13.62718821" lat="51.05041981">
    <ele>246</ele>
    <extensions>
     <ql:flags>8</ql:flags>
    </extensions>
   </trkpt>
   <trkpt lon="13.62718821" lat="51.05050564">
    <ele>246</ele>
    <extensions>
     <ql:flags>8</ql:flags>
    </extensions>
   </trkpt>
   <trkpt lon="13.62725258" lat="51.05057001">
    <ele>246</ele>
    <extensions>
     <ql:flags>8</ql:flags>
    </extensions>
   </trkpt>
   <trkpt lon="13.62742424" lat="51.05063438">
    <ele>246</ele>
    <extensions>
     <ql:flags>8</ql:flags>
    </extensions>
   </trkpt>
   <trkpt lon="13.62763882" lat="51.05067730">
    <ele>247</ele>
    <extensions>
     <ql:flags>8</ql:flags>
    </extensions>
   </trkpt>
   <trkpt lon="13.62804651" lat="51.05072021">
    <ele>248</ele>
    <extensions>
     <ql:flags>8</ql:flags>
    </extensions>
   </trkpt>
   <trkpt lon="13.62873316" lat="51.05072021">
    <ele>252</ele>
    <extensions>
     <ql:flags>8</ql:flags>
    </extensions>
   </trkpt>
   <trkpt lon="13.62918377" lat="51.05080605">
    <ele>254</ele>
    <extensions>
     <ql:flags>8</ql:flags>
    </extensions>
   </trkpt>
   <trkpt lon="13.62922668" lat="51.05082750">
    <ele>254</ele>
    <extensions>
     <ql:flags>8</ql:flags>
    </extensions>
   </trkpt>
   <trkpt lon="13.62937689" lat="51.05091333">
    <ele>254</ele>
    <extensions>
     <ql:flags>8</ql:flags>
    </extensions>
   </trkpt>
   <trkpt lon="13.62948418" lat="51.05110645">
    <ele>255</ele>
    <extensions>
     <ql:flags>8</ql:flags>
    </extensions>
   </trkpt>
   <trkpt lon="13.62948418" lat="51.05127811">
    <ele>254</ele>
    <extensions>
     <ql:flags>8</ql:flags>
    </extensions>
   </trkpt>
   <trkpt lon="13.62931252" lat="51.05164289">
    <ele>248</ele>
    <extensions>
     <ql:flags>8</ql:flags>
    </extensions>
   </trkpt>
   <trkpt lon="13.62909794" lat="51.05207205">
    <ele>241</ele>
    <extensions>
     <ql:flags>8</ql:flags>
    </extensions>
   </trkpt>
   <trkpt lon="13.62899065" lat="51.05245829">
    <ele>238</ele>
    <extensions>
     <ql:flags>8</ql:flags>
    </extensions>
   </trkpt>
   <trkpt lon="13.62901211" lat="51.05278015">
    <ele>236</ele>
    <extensions>
     <ql:flags>8</ql:flags>
    </extensions>
   </trkpt>
   <trkpt lon="13.62924814" lat="51.05329514">
    <ele>235</ele>
    <extensions>
     <ql:flags>8</ql:flags>
    </extensions>
   </trkpt>
   <trkpt lon="13.62941980" lat="51.05346680">
    <ele>236</ele>
    <extensions>
     <ql:flags>8</ql:flags>
    </extensions>
   </trkpt>
   <trkpt lon="13.63008499" lat="51.05391741">
    <ele>234</ele>
    <extensions>
     <ql:flags>8</ql:flags>
    </extensions>
   </trkpt>
   <trkpt lon="13.63019228" lat="51.05404615">
    <ele>232</ele>
    <extensions>
     <ql:flags>8</ql:flags>
    </extensions>
   </trkpt>
   <trkpt lon="13.63036394" lat="51.05415344">
    <ele>230</ele>
    <extensions>
     <ql:flags>8</ql:flags>
    </extensions>
   </trkpt>
   <trkpt lon="13.63049269" lat="51.05421782">
    <ele>228</ele>
    <extensions>
     <ql:flags>8</ql:flags>
    </extensions>
   </trkpt>
   <trkpt lon="13.63064289" lat="51.05426073">
    <ele>227</ele>
    <extensions>
     <ql:flags>8</ql:flags>
    </extensions>
   </trkpt>
   <trkpt lon="13.63102913" lat="51.05426073">
    <ele>225</ele>
    <extensions>
     <ql:flags>8</ql:flags>
    </extensions>
   </trkpt>
   <trkpt lon="13.63111496" lat="51.05436802">
    <ele>222</ele>
    <extensions>
     <ql:flags>8</ql:flags>
    </extensions>
   </trkpt>
   <trkpt lon="13.63122225" lat="51.05443239">
    <ele>220</ele>
    <extensions>
     <ql:flags>8</ql:flags>
    </extensions>
   </trkpt>
   <trkpt lon="13.63227367" lat="51.05436802">
    <ele>221</ele>
    <extensions>
     <ql:flags>8</ql:flags>
    </extensions>
   </trkpt>
   <trkpt lon="13.63270283" lat="51.05443239">
    <ele>221</ele>
    <extensions>
     <ql:flags>8</ql:flags>
    </extensions>
   </trkpt>
   <trkpt lon="13.63293886" lat="51.05449677">
    <ele>220</ele>
    <extensions>
     <ql:flags>8</ql:flags>
    </extensions>
   </trkpt>
   <trkpt lon="13.63308907" lat="51.05456114">
    <ele>220</ele>
    <extensions>
     <ql:flags>8</ql:flags>
    </extensions>
   </trkpt>
   <trkpt lon="13.63313198" lat="51.05466843">
    <ele>220</ele>
    <extensions>
     <ql:flags>8</ql:flags>
    </extensions>
   </trkpt>
   <trkpt lon="13.63313198" lat="51.05473280">
    <ele>219</ele>
    <extensions>
     <ql:flags>8</ql:flags>
    </extensions>
   </trkpt>
   <trkpt lon="13.63304615" lat="51.05488300">
    <ele>218</ele>
    <extensions>
     <ql:flags>8</ql:flags>
    </extensions>
   </trkpt>
   <trkpt lon="13.63263845" lat="51.05520487">
    <ele>216</ele>
    <extensions>
     <ql:flags>8</ql:flags>
    </extensions>
   </trkpt>
   <trkpt lon="13.63238096" lat="51.05550528">
    <ele>216</ele>
    <extensions>
     <ql:flags>8</ql:flags>
    </extensions>
   </trkpt>
   <trkpt lon="13.63235950" lat="51.05576277">
    <ele>215</ele>
    <extensions>
     <ql:flags>8</ql:flags>
    </extensions>
   </trkpt>
   <trkpt lon="13.63242388" lat="51.05591297">
    <ele>214</ele>
    <extensions>
     <ql:flags>8</ql:flags>
    </extensions>
   </trkpt>
   <trkpt lon="13.63278866" lat="51.05617046">
    <ele>213</ele>
    <extensions>
     <ql:flags>8</ql:flags>
    </extensions>
   </trkpt>
   <trkpt lon="13.63313198" lat="51.05632067">
    <ele>215</ele>
    <extensions>
     <ql:flags>8</ql:flags>
    </extensions>
   </trkpt>
   <trkpt lon="13.63341093" lat="51.05638504">
    <ele>216</ele>
    <extensions>
     <ql:flags>8</ql:flags>
    </extensions>
   </trkpt>
   <trkpt lon="13.63394737" lat="51.05662107">
    <ele>216</ele>
    <extensions>
     <ql:flags>8</ql:flags>
    </extensions>
   </trkpt>
   <trkpt lon="13.63411903" lat="51.05670691">
    <ele>215</ele>
    <extensions>
     <ql:flags>8</ql:flags>
    </extensions>
   </trkpt>
   <trkpt lon="13.63422632" lat="51.05677128">
    <ele>215</ele>
    <extensions>
     <ql:flags>8</ql:flags>
    </extensions>
   </trkpt>
   <trkpt lon="13.63437653" lat="51.05683565">
    <ele>215</ele>
    <extensions>
     <ql:flags>8</ql:flags>
    </extensions>
   </trkpt>
   <trkpt lon="13.63446236" lat="51.05683565">
    <ele>215</ele>
    <extensions>
     <ql:flags>8</ql:flags>
    </extensions>
   </trkpt>
   <trkpt lon="13.63448381" lat="51.05690002">
    <ele>214</ele>
    <extensions>
     <ql:flags>8</ql:flags>
    </extensions>
   </trkpt>
   <trkpt lon="13.63444090" lat="51.05705023">
    <ele>212</ele>
    <extensions>
     <ql:flags>8</ql:flags>
    </extensions>
   </trkpt>
   <trkpt lon="13.63433361" lat="51.05715752">
    <ele>210</ele>
    <extensions>
     <ql:flags>8</ql:flags>
    </extensions>
   </trkpt>
   <trkpt lon="13.63429070" lat="51.05728626">
    <ele>208</ele>
    <extensions>
     <ql:flags>8</ql:flags>
    </extensions>
   </trkpt>
   <trkpt lon="13.63456964" lat="51.05758667">
    <ele>206</ele>
    <extensions>
     <ql:flags>8</ql:flags>
    </extensions>
   </trkpt>
   <trkpt lon="13.63463402" lat="51.05767250">
    <ele>205</ele>
    <extensions>
     <ql:flags>8</ql:flags>
    </extensions>
   </trkpt>
   <trkpt lon="13.63495588" lat="51.05788708">
    <ele>204</ele>
    <extensions>
     <ql:flags>8</ql:flags>
    </extensions>
   </trkpt>
   <trkpt lon="13.63529921" lat="51.05801582">
    <ele>204</ele>
    <extensions>
     <ql:flags>8</ql:flags>
    </extensions>
   </trkpt>
   <trkpt lon="13.63559961" lat="51.05799437">
    <ele>205</ele>
    <extensions>
     <ql:flags>8</ql:flags>
    </extensions>
   </trkpt>
   <trkpt lon="13.63596439" lat="51.05792999">
    <ele>207</ele>
    <extensions>
     <ql:flags>8</ql:flags>
    </extensions>
   </trkpt>
   <trkpt lon="13.63673289" lat="51.05795090">
    <ele>208</ele>
    <extensions>
     <ql:flags>0</ql:flags>
    </extensions>
   </trkpt>
   <trkpt lon="13.63690321" lat="51.05795259">
    <ele>208</ele>
    <extensions>
     <ql:flags>0</ql:flags>
    </extensions>
   </trkpt>
   <trkpt lon="13.63692999" lat="51.05797291">
    <ele>207</ele>
    <extensions>
     <ql:flags>8</ql:flags>
    </extensions>
   </trkpt>
   <trkpt lon="13.63695145" lat="51.05805874">
    <ele>205</ele>
    <extensions>
     <ql:flags>8</ql:flags>
    </extensions>
   </trkpt>
   <trkpt lon="13.63701582" lat="51.05814457">
    <ele>203</ele>
    <extensions>
     <ql:flags>8</ql:flags>
    </extensions>
   </trkpt>
   <trkpt lon="13.63716602" lat="51.05818748">
    <ele>202</ele>
    <extensions>
     <ql:flags>8</ql:flags>
    </extensions>
   </trkpt>
   <trkpt lon="13.63798141" lat="51.05833769">
    <ele>198</ele>
    <extensions>
     <ql:flags>8</ql:flags>
    </extensions>
   </trkpt>
   <trkpt lon="13.63811016" lat="51.05840206">
    <ele>197</ele>
    <extensions>
     <ql:flags>8</ql:flags>
    </extensions>
   </trkpt>
   <trkpt lon="13.63823891" lat="51.05848789">
    <ele>196</ele>
    <extensions>
     <ql:flags>8</ql:flags>
    </extensions>
   </trkpt>
   <trkpt lon="13.63836367" lat="51.05865154">
    <ele>193</ele>
    <extensions>
     <ql:flags>0</ql:flags>
    </extensions>
   </trkpt>
   <trkpt lon="13.63864660" lat="51.05885267">
    <ele>191</ele>
    <extensions>
     <ql:flags>8</ql:flags>
    </extensions>
   </trkpt>
   <trkpt lon="13.63888264" lat="51.05895996">
    <ele>190</ele>
    <extensions>
     <ql:flags>8</ql:flags>
    </extensions>
   </trkpt>
   <trkpt lon="13.63909721" lat="51.05900288">
    <ele>189</ele>
    <extensions>
     <ql:flags>8</ql:flags>
    </extensions>
   </trkpt>
   <trkpt lon="13.63924742" lat="51.05900288">
    <ele>189</ele>
    <extensions>
     <ql:flags>8</ql:flags>
    </extensions>
   </trkpt>
   <trkpt lon="13.63937616" lat="51.05898142">
    <ele>189</ele>
    <extensions>
     <ql:flags>8</ql:flags>
    </extensions>
   </trkpt>
   <trkpt lon="13.63956928" lat="51.05891705">
    <ele>189</ele>
    <extensions>
     <ql:flags>8</ql:flags>
    </extensions>
   </trkpt>
   <trkpt lon="13.64006281" lat="51.05859518">
    <ele>193</ele>
    <extensions>
     <ql:flags>8</ql:flags>
    </extensions>
   </trkpt>
   <trkpt lon="13.64019156" lat="51.05853081">
    <ele>194</ele>
    <extensions>
     <ql:flags>8</ql:flags>
    </extensions>
   </trkpt>
   <trkpt lon="13.64064217" lat="51.05850935">
    <ele>193</ele>
    <extensions>
     <ql:flags>8</ql:flags>
    </extensions>
   </trkpt>
   <trkpt lon="13.64098549" lat="51.05853081">
    <ele>190</ele>
    <extensions>
     <ql:flags>8</ql:flags>
    </extensions>
   </trkpt>
   <trkpt lon="13.64113569" lat="51.05855227">
    <ele>189</ele>
    <extensions>
     <ql:flags>8</ql:flags>
    </extensions>
   </trkpt>
   <trkpt lon="13.64126444" lat="51.05857372">
    <ele>188</ele>
    <extensions>
     <ql:flags>8</ql:flags>
    </extensions>
   </trkpt>
   <trkpt lon="13.64132881" lat="51.05859518">
    <ele>187</ele>
    <extensions>
     <ql:flags>8</ql:flags>
    </extensions>
   </trkpt>
   <trkpt lon="13.64147906" lat="51.05861689">
    <ele>185</ele>
    <extensions>
     <ql:flags>0</ql:flags>
    </extensions>
   </trkpt>
   <trkpt lon="13.64167213" lat="51.05865955">
    <ele>183</ele>
    <extensions>
     <ql:flags>8</ql:flags>
    </extensions>
   </trkpt>
   <trkpt lon="13.64173651" lat="51.05868101">
    <ele>182</ele>
    <extensions>
     <ql:flags>8</ql:flags>
    </extensions>
   </trkpt>
   <trkpt lon="13.64179153" lat="51.05868028">
    <ele>182</ele>
    <extensions>
     <ql:flags>0</ql:flags>
    </extensions>
   </trkpt>
   <trkpt lon="13.64180088" lat="51.05872393">
    <ele>180</ele>
    <extensions>
     <ql:flags>8</ql:flags>
    </extensions>
   </trkpt>
   <trkpt lon="13.64177942" lat="51.05878830">
    <ele>179</ele>
    <extensions>
     <ql:flags>8</ql:flags>
    </extensions>
   </trkpt>
   <trkpt lon="13.64176203" lat="51.05882734">
    <ele>179</ele>
    <extensions>
     <ql:flags>0</ql:flags>
    </extensions>
   </trkpt>
   <trkpt lon="13.64341021" lat="51.05915308">
    <ele>174</ele>
    <extensions>
     <ql:flags>8</ql:flags>
    </extensions>
   </trkpt>
   <trkpt lon="13.64405394" lat="51.05949640">
    <ele>176</ele>
    <extensions>
     <ql:flags>8</ql:flags>
    </extensions>
   </trkpt>
   <trkpt lon="13.64428997" lat="51.05973244">
    <ele>178</ele>
    <extensions>
     <ql:flags>8</ql:flags>
    </extensions>
   </trkpt>
   <trkpt lon="13.64450455" lat="51.06022596">
    <ele>178</ele>
    <extensions>
     <ql:flags>8</ql:flags>
    </extensions>
   </trkpt>
   <trkpt lon="13.64489079" lat="51.06065512">
    <ele>182</ele>
    <extensions>
     <ql:flags>8</ql:flags>
    </extensions>
   </trkpt>
   <trkpt lon="13.64583492" lat="51.06121302">
    <ele>184</ele>
    <extensions>
     <ql:flags>8</ql:flags>
    </extensions>
   </trkpt>
   <trkpt lon="13.64600658" lat="51.06140614">
    <ele>183</ele>
    <extensions>
     <ql:flags>8</ql:flags>
    </extensions>
   </trkpt>
   <trkpt lon="13.64602804" lat="51.06155634">
    <ele>182</ele>
    <extensions>
     <ql:flags>8</ql:flags>
    </extensions>
   </trkpt>
   <trkpt lon="13.64581347" lat="51.06215715">
    <ele>172</ele>
    <extensions>
     <ql:flags>8</ql:flags>
    </extensions>
   </trkpt>
   <trkpt lon="13.64555597" lat="51.06258631">
    <ele>168</ele>
    <extensions>
     <ql:flags>8</ql:flags>
    </extensions>
   </trkpt>
   <trkpt lon="13.64555597" lat="51.06275797">
    <ele>167</ele>
    <extensions>
     <ql:flags>8</ql:flags>
    </extensions>
   </trkpt>
   <trkpt lon="13.64555597" lat="51.06297255">
    <ele>166</ele>
    <extensions>
     <ql:flags>8</ql:flags>
    </extensions>
   </trkpt>
   <trkpt lon="13.64579201" lat="51.06329441">
    <ele>166</ele>
    <extensions>
     <ql:flags>8</ql:flags>
    </extensions>
   </trkpt>
   <trkpt lon="13.64596367" lat="51.06340170">
    <ele>167</ele>
    <extensions>
     <ql:flags>8</ql:flags>
    </extensions>
   </trkpt>
   <trkpt lon="13.64630699" lat="51.06348753">
    <ele>169</ele>
    <extensions>
     <ql:flags>8</ql:flags>
    </extensions>
   </trkpt>
   <trkpt lon="13.64665031" lat="51.06355190">
    <ele>171</ele>
    <extensions>
     <ql:flags>8</ql:flags>
    </extensions>
   </trkpt>
   <trkpt lon="13.64712238" lat="51.06355190">
    <ele>176</ele>
    <extensions>
     <ql:flags>8</ql:flags>
    </extensions>
   </trkpt>
   <trkpt lon="13.64737988" lat="51.06357336">
    <ele>177</ele>
    <extensions>
     <ql:flags>8</ql:flags>
    </extensions>
   </trkpt>
   <trkpt lon="13.64776611" lat="51.06363773">
    <ele>177</ele>
    <extensions>
     <ql:flags>8</ql:flags>
    </extensions>
   </trkpt>
   <trkpt lon="13.64920378" lat="51.06408834">
    <ele>171</ele>
    <extensions>
     <ql:flags>8</ql:flags>
    </extensions>
   </trkpt>
   <trkpt lon="13.64950418" lat="51.06417418">
    <ele>169</ele>
    <extensions>
     <ql:flags>8</ql:flags>
    </extensions>
   </trkpt>
   <trkpt lon="13.64980459" lat="51.06419563">
    <ele>167</ele>
    <extensions>
     <ql:flags>8</ql:flags>
    </extensions>
   </trkpt>
   <trkpt lon="13.64991188" lat="51.06415272">
    <ele>169</ele>
    <extensions>
     <ql:flags>8</ql:flags>
    </extensions>
   </trkpt>
   <trkpt lon="13.65003665" lat="51.06408899">
    <ele>171</ele>
    <extensions>
     <ql:flags>0</ql:flags>
    </extensions>
   </trkpt>
   <trkpt lon="13.65029812" lat="51.06400251">
    <ele>173</ele>
    <extensions>
     <ql:flags>8</ql:flags>
    </extensions>
   </trkpt>
   <trkpt lon="13.65104914" lat="51.06393814">
    <ele>172</ele>
    <extensions>
     <ql:flags>8</ql:flags>
    </extensions>
   </trkpt>
   <trkpt lon="13.65190744" lat="51.06391668">
    <ele>171</ele>
    <extensions>
     <ql:flags>8</ql:flags>
    </extensions>
   </trkpt>
   <trkpt lon="13.65295887" lat="51.06391668">
    <ele>172</ele>
    <extensions>
     <ql:flags>8</ql:flags>
    </extensions>
   </trkpt>
   <trkpt lon="13.65343094" lat="51.06395960">
    <ele>171</ele>
    <extensions>
     <ql:flags>8</ql:flags>
    </extensions>
   </trkpt>
   <trkpt lon="13.65392447" lat="51.06406689">
    <ele>168</ele>
    <extensions>
     <ql:flags>8</ql:flags>
    </extensions>
   </trkpt>
   <trkpt lon="13.65420341" lat="51.06413126">
    <ele>167</ele>
    <extensions>
     <ql:flags>8</ql:flags>
    </extensions>
   </trkpt>
   <trkpt lon="13.65450382" lat="51.06426001">
    <ele>166</ele>
    <extensions>
     <ql:flags>8</ql:flags>
    </extensions>
   </trkpt>
   <trkpt lon="13.65553379" lat="51.06496811">
    <ele>157</ele>
    <extensions>
     <ql:flags>8</ql:flags>
    </extensions>
   </trkpt>
   <trkpt lon="13.65587711" lat="51.06528997">
    <ele>153</ele>
    <extensions>
     <ql:flags>8</ql:flags>
    </extensions>
   </trkpt>
   <trkpt lon="13.65592003" lat="51.06544018">
    <ele>151</ele>
    <extensions>
     <ql:flags>8</ql:flags>
    </extensions>
   </trkpt>
   <trkpt lon="13.65594149" lat="51.06554747">
    <ele>150</ele>
    <extensions>
     <ql:flags>8</ql:flags>
    </extensions>
   </trkpt>
   <trkpt lon="13.65596294" lat="51.06567621">
    <ele>148</ele>
    <extensions>
     <ql:flags>8</ql:flags>
    </extensions>
   </trkpt>
   <trkpt lon="13.65600586" lat="51.06580496">
    <ele>146</ele>
    <extensions>
     <ql:flags>8</ql:flags>
    </extensions>
   </trkpt>
   <trkpt lon="13.65611315" lat="51.06593370">
    <ele>145</ele>
    <extensions>
     <ql:flags>8</ql:flags>
    </extensions>
   </trkpt>
   <trkpt lon="13.65641356" lat="51.06616974">
    <ele>143</ele>
    <extensions>
     <ql:flags>8</ql:flags>
    </extensions>
   </trkpt>
   <trkpt lon="13.65646992" lat="51.06618892">
    <ele>144</ele>
    <extensions>
     <ql:flags>0</ql:flags>
    </extensions>
   </trkpt>
   <trkpt lon="13.65643501" lat="51.06627703">
    <ele>142</ele>
    <extensions>
     <ql:flags>8</ql:flags>
    </extensions>
   </trkpt>
   <trkpt lon="13.65643371" lat="51.06627848">
    <ele>142</ele>
    <extensions>
     <ql:flags>0</ql:flags>
    </extensions>
   </trkpt>
   <trkpt lon="13.65641360" lat="51.06634271">
    <ele>142</ele>
    <extensions>
     <ql:flags>0</ql:flags>
    </extensions>
   </trkpt>
   <trkpt lon="13.65647793" lat="51.06647015">
    <ele>141</ele>
    <extensions>
     <ql:flags>8</ql:flags>
    </extensions>
   </trkpt>
   <trkpt lon="13.65697145" lat="51.06674910">
    <ele>142</ele>
    <extensions>
     <ql:flags>8</ql:flags>
    </extensions>
   </trkpt>
   <trkpt lon="13.65744352" lat="51.06689930">
    <ele>142</ele>
    <extensions>
     <ql:flags>8</ql:flags>
    </extensions>
   </trkpt>
   <trkpt lon="13.65737915" lat="51.06698513">
    <ele>141</ele>
    <extensions>
     <ql:flags>8</ql:flags>
    </extensions>
   </trkpt>
   <trkpt lon="13.65740061" lat="51.06704950">
    <ele>140</ele>
    <extensions>
     <ql:flags>8</ql:flags>
    </extensions>
   </trkpt>
   <trkpt lon="13.65853786" lat="51.06734991">
    <ele>141</ele>
    <extensions>
     <ql:flags>8</ql:flags>
    </extensions>
   </trkpt>
   <trkpt lon="13.65875244" lat="51.06756449">
    <ele>141</ele>
    <extensions>
     <ql:flags>8</ql:flags>
    </extensions>
   </trkpt>
   <trkpt lon="13.65892410" lat="51.06762886">
    <ele>141</ele>
    <extensions>
     <ql:flags>8</ql:flags>
    </extensions>
   </trkpt>
   <trkpt lon="13.65922451" lat="51.06771469">
    <ele>141</ele>
    <extensions>
     <ql:flags>8</ql:flags>
    </extensions>
   </trkpt>
   <trkpt lon="13.65948200" lat="51.06790781">
    <ele>140</ele>
    <extensions>
     <ql:flags>8</ql:flags>
    </extensions>
   </trkpt>
   <trkpt lon="13.65954638" lat="51.06829405">
    <ele>137</ele>
    <extensions>
     <ql:flags>8</ql:flags>
    </extensions>
   </trkpt>
   <trkpt lon="13.65971804" lat="51.06857300">
    <ele>134</ele>
    <extensions>
     <ql:flags>8</ql:flags>
    </extensions>
   </trkpt>
   <trkpt lon="13.65999699" lat="51.06868029">
    <ele>133</ele>
    <extensions>
     <ql:flags>8</ql:flags>
    </extensions>
   </trkpt>
   <trkpt lon="13.66025050" lat="51.06884982">
    <ele>131</ele>
    <extensions>
     <ql:flags>0</ql:flags>
    </extensions>
   </trkpt>
   <trkpt lon="13.66038058" lat="51.06883123">
    <ele>131</ele>
    <extensions>
     <ql:flags>0</ql:flags>
    </extensions>
   </trkpt>
   <trkpt lon="13.66061926" lat="51.06872320">
    <ele>131</ele>
    <extensions>
     <ql:flags>8</ql:flags>
    </extensions>
   </trkpt>
   <trkpt lon="13.66175652" lat="51.06829405">
    <ele>134</ele>
    <extensions>
     <ql:flags>8</ql:flags>
    </extensions>
   </trkpt>
   <trkpt lon="13.66199255" lat="51.06822968">
    <ele>135</ele>
    <extensions>
     <ql:flags>8</ql:flags>
    </extensions>
   </trkpt>
   <trkpt lon="13.66257191" lat="51.06814384">
    <ele>137</ele>
    <extensions>
     <ql:flags>8</ql:flags>
    </extensions>
   </trkpt>
   <trkpt lon="13.66274357" lat="51.06812239">
    <ele>138</ele>
    <extensions>
     <ql:flags>8</ql:flags>
    </extensions>
   </trkpt>
   <trkpt lon="13.66385937" lat="51.06812239">
    <ele>140</ele>
    <extensions>
     <ql:flags>8</ql:flags>
    </extensions>
   </trkpt>
   <trkpt lon="13.66418123" lat="51.06810093">
    <ele>141</ele>
    <extensions>
     <ql:flags>8</ql:flags>
    </extensions>
   </trkpt>
   <trkpt lon="13.66484642" lat="51.06803656">
    <ele>142</ele>
    <extensions>
     <ql:flags>8</ql:flags>
    </extensions>
   </trkpt>
   <trkpt lon="13.66589785" lat="51.06797218">
    <ele>142</ele>
    <extensions>
     <ql:flags>8</ql:flags>
    </extensions>
   </trkpt>
   <trkpt lon="13.66621971" lat="51.06795073">
    <ele>142</ele>
    <extensions>
     <ql:flags>8</ql:flags>
    </extensions>
   </trkpt>
   <trkpt lon="13.66645575" lat="51.06790781">
    <ele>142</ele>
    <extensions>
     <ql:flags>8</ql:flags>
    </extensions>
   </trkpt>
   <trkpt lon="13.66765738" lat="51.06784344">
    <ele>142</ele>
    <extensions>
     <ql:flags>8</ql:flags>
    </extensions>
   </trkpt>
   <trkpt lon="13.66870880" lat="51.06771469">
    <ele>141</ele>
    <extensions>
     <ql:flags>8</ql:flags>
    </extensions>
   </trkpt>
   <trkpt lon="13.66871018" lat="51.06771584">
    <ele>141</ele>
    <extensions>
     <ql:flags>0</ql:flags>
    </extensions>
   </trkpt>
   <trkpt lon="13.66860151" lat="51.06715679">
    <ele>142</ele>
    <extensions>
     <ql:flags>8</ql:flags>
    </extensions>
   </trkpt>
   <trkpt lon="13.66858006" lat="51.06687784">
    <ele>142</ele>
    <extensions>
     <ql:flags>8</ql:flags>
    </extensions>
   </trkpt>
   <trkpt lon="13.66873026" lat="51.06621265">
    <ele>139</ele>
    <extensions>
     <ql:flags>8</ql:flags>
    </extensions>
   </trkpt>
   <trkpt lon="13.66883755" lat="51.06593370">
    <ele>137</ele>
    <extensions>
     <ql:flags>8</ql:flags>
    </extensions>
   </trkpt>
   <trkpt lon="13.66905082" lat="51.06543853">
    <ele>133</ele>
    <extensions>
     <ql:flags>0</ql:flags>
    </extensions>
   </trkpt>
   <trkpt lon="13.66920103" lat="51.06516389">
    <ele>133</ele>
    <extensions>
     <ql:flags>0</ql:flags>
    </extensions>
   </trkpt>
   <trkpt lon="13.66922249" lat="51.06514276">
    <ele>133</ele>
    <extensions>
     <ql:flags>0</ql:flags>
    </extensions>
   </trkpt>
   <trkpt lon="13.66930962" lat="51.06496811">
    <ele>133</ele>
    <extensions>
     <ql:flags>8</ql:flags>
    </extensions>
   </trkpt>
   <trkpt lon="13.66937399" lat="51.06481791">
    <ele>133</ele>
    <extensions>
     <ql:flags>8</ql:flags>
    </extensions>
   </trkpt>
   <trkpt lon="13.66933107" lat="51.06473207">
    <ele>134</ele>
    <extensions>
     <ql:flags>8</ql:flags>
    </extensions>
   </trkpt>
   <trkpt lon="13.66933112" lat="51.06467123">
    <ele>134</ele>
    <extensions>
     <ql:flags>0</ql:flags>
    </extensions>
   </trkpt>
   <trkpt lon="13.66943840" lat="51.06466785">
    <ele>134</ele>
    <extensions>
     <ql:flags>0</ql:flags>
    </extensions>
   </trkpt>
   <trkpt lon="13.66984606" lat="51.06468916">
    <ele>134</ele>
    <extensions>
     <ql:flags>8</ql:flags>
    </extensions>
   </trkpt>
   <trkpt lon="13.67021084" lat="51.06466770">
    <ele>134</ele>
    <extensions>
     <ql:flags>8</ql:flags>
    </extensions>
   </trkpt>
   <trkpt lon="13.67031813" lat="51.06464624">
    <ele>134</ele>
    <extensions>
     <ql:flags>8</ql:flags>
    </extensions>
   </trkpt>
   <trkpt lon="13.67046833" lat="51.06458187">
    <ele>134</ele>
    <extensions>
     <ql:flags>8</ql:flags>
    </extensions>
   </trkpt>
   <trkpt lon="13.67054616" lat="51.06452503">
    <ele>134</ele>
    <extensions>
     <ql:flags>0</ql:flags>
    </extensions>
   </trkpt>
   <trkpt lon="13.67098331" lat="51.06451750">
    <ele>134</ele>
    <extensions>
     <ql:flags>8</ql:flags>
    </extensions>
   </trkpt>
   <trkpt lon="13.67154121" lat="51.06447458">
    <ele>133</ele>
    <extensions>
     <ql:flags>8</ql:flags>
    </extensions>
   </trkpt>
   <trkpt lon="13.67197037" lat="51.06441021">
    <ele>132</ele>
    <extensions>
     <ql:flags>8</ql:flags>
    </extensions>
   </trkpt>
   <trkpt lon="13.67212057" lat="51.06436729">
    <ele>132</ele>
    <extensions>
     <ql:flags>8</ql:flags>
    </extensions>
   </trkpt>
   <trkpt lon="13.67242098" lat="51.06426001">
    <ele>131</ele>
    <extensions>
     <ql:flags>8</ql:flags>
    </extensions>
   </trkpt>
   <trkpt lon="13.67263556" lat="51.06415272">
    <ele>131</ele>
    <extensions>
     <ql:flags>8</ql:flags>
    </extensions>
   </trkpt>
   <trkpt lon="13.67293198" lat="51.06398419">
    <ele>130</ele>
    <extensions>
     <ql:flags>0</ql:flags>
    </extensions>
   </trkpt>
   <trkpt lon="13.67304325" lat="51.06389523">
    <ele>130</ele>
    <extensions>
     <ql:flags>8</ql:flags>
    </extensions>
   </trkpt>
   <trkpt lon="13.67312908" lat="51.06378794">
    <ele>130</ele>
    <extensions>
     <ql:flags>8</ql:flags>
    </extensions>
   </trkpt>
   <trkpt lon="13.67315054" lat="51.06374502">
    <ele>130</ele>
    <extensions>
     <ql:flags>8</ql:flags>
    </extensions>
   </trkpt>
   <trkpt lon="13.67323637" lat="51.06342316">
    <ele>132</ele>
    <extensions>
     <ql:flags>8</ql:flags>
    </extensions>
   </trkpt>
   <trkpt lon="13.67338657" lat="51.06314421">
    <ele>132</ele>
    <extensions>
     <ql:flags>8</ql:flags>
    </extensions>
   </trkpt>
   <trkpt lon="13.67349386" lat="51.06303692">
    <ele>132</ele>
    <extensions>
     <ql:flags>8</ql:flags>
    </extensions>
   </trkpt>
   <trkpt lon="13.67360115" lat="51.06295109">
    <ele>132</ele>
    <extensions>
     <ql:flags>8</ql:flags>
    </extensions>
   </trkpt>
   <trkpt lon="13.67383718" lat="51.06280088">
    <ele>131</ele>
    <extensions>
     <ql:flags>8</ql:flags>
    </extensions>
   </trkpt>
   <trkpt lon="13.67388010" lat="51.06277943">
    <ele>131</ele>
    <extensions>
     <ql:flags>8</ql:flags>
    </extensions>
   </trkpt>
   <trkpt lon="13.67411613" lat="51.06265068">
    <ele>132</ele>
    <extensions>
     <ql:flags>8</ql:flags>
    </extensions>
   </trkpt>
   <trkpt lon="13.67465258" lat="51.06245756">
    <ele>131</ele>
    <extensions>
     <ql:flags>8</ql:flags>
    </extensions>
   </trkpt>
   <trkpt lon="13.67495298" lat="51.06237173">
    <ele>131</ele>
    <extensions>
     <ql:flags>8</ql:flags>
    </extensions>
   </trkpt>
   <trkpt lon="13.67518902" lat="51.06235027">
    <ele>130</ele>
    <extensions>
     <ql:flags>8</ql:flags>
    </extensions>
   </trkpt>
   <trkpt lon="13.67540359" lat="51.06235027">
    <ele>130</ele>
    <extensions>
     <ql:flags>8</ql:flags>
    </extensions>
   </trkpt>
   <trkpt lon="13.67588241" lat="51.06239207">
    <ele>129</ele>
    <extensions>
     <ql:flags>0</ql:flags>
    </extensions>
   </trkpt>
   <trkpt lon="13.67589712" lat="51.06239319">
    <ele>129</ele>
    <extensions>
     <ql:flags>8</ql:flags>
    </extensions>
   </trkpt>
   <trkpt lon="13.67604733" lat="51.06241465">
    <ele>129</ele>
    <extensions>
     <ql:flags>8</ql:flags>
    </extensions>
   </trkpt>
   <trkpt lon="13.67617209" lat="51.06241657">
    <ele>129</ele>
    <extensions>
     <ql:flags>0</ql:flags>
    </extensions>
   </trkpt>
   <trkpt lon="13.67617607" lat="51.06241465">
    <ele>129</ele>
    <extensions>
     <ql:flags>8</ql:flags>
    </extensions>
   </trkpt>
   <trkpt lon="13.67621899" lat="51.06232882">
    <ele>129</ele>
    <extensions>
     <ql:flags>8</ql:flags>
    </extensions>
   </trkpt>
   <trkpt lon="13.67634773" lat="51.06226444">
    <ele>129</ele>
    <extensions>
     <ql:flags>8</ql:flags>
    </extensions>
   </trkpt>
   <trkpt lon="13.67645502" lat="51.06222153">
    <ele>128</ele>
    <extensions>
     <ql:flags>8</ql:flags>
    </extensions>
   </trkpt>
   <trkpt lon="13.67657576" lat="51.06222389">
    <ele>128</ele>
    <extensions>
     <ql:flags>0</ql:flags>
    </extensions>
   </trkpt>
   <trkpt lon="13.67658377" lat="51.06222153">
    <ele>128</ele>
    <extensions>
     <ql:flags>8</ql:flags>
    </extensions>
   </trkpt>
   <trkpt lon="13.67660522" lat="51.06192112">
    <ele>127</ele>
    <extensions>
     <ql:flags>8</ql:flags>
    </extensions>
   </trkpt>
   <trkpt lon="13.67662672" lat="51.06102468">
    <ele>126</ele>
    <extensions>
     <ql:flags>0</ql:flags>
    </extensions>
   </trkpt>
   <trkpt lon="13.67662668" lat="51.06101990">
    <ele>126</ele>
    <extensions>
     <ql:flags>8</ql:flags>
    </extensions>
   </trkpt>
   <trkpt lon="13.67681980" lat="51.06095552">
    <ele>126</ele>
    <extensions>
     <ql:flags>8</ql:flags>
    </extensions>
   </trkpt>
   <trkpt lon="13.67690563" lat="51.06091261">
    <ele>126</ele>
    <extensions>
     <ql:flags>8</ql:flags>
    </extensions>
   </trkpt>
   <trkpt lon="13.67694725" lat="51.06087341">
    <ele>126</ele>
    <extensions>
     <ql:flags>0</ql:flags>
    </extensions>
   </trkpt>
  </trkseg>
 </trk>
 <trk>
  <name>Track (Abstecher Briesnitzer Kirche)</name>
  <extensions>
   <ql:key>8a0ec423d93ac039abac0493c5ad6f88</ql:key>
   <ql:flags>3</ql:flags>
   <gpxx:TrackExtension>
    <gpxx:DisplayColor>DarkRed</gpxx:DisplayColor>
   </gpxx:TrackExtension>
  </extensions>
  <trkseg>
   <trkpt lon="13.66871323" lat="51.06771575">
    <ele>141</ele>
    <extensions>
     <ql:flags>0</ql:flags>
    </extensions>
   </trkpt>
   <trkpt lon="13.67051125" lat="51.06750011">
    <ele>137</ele>
    <extensions>
     <ql:flags>8</ql:flags>
    </extensions>
   </trkpt>
   <trkpt lon="13.67126226" lat="51.06741428">
    <ele>136</ele>
    <extensions>
     <ql:flags>8</ql:flags>
    </extensions>
   </trkpt>
   <trkpt lon="13.67156040" lat="51.06737184">
    <ele>134</ele>
    <extensions>
     <ql:flags>0</ql:flags>
    </extensions>
   </trkpt>
   <trkpt lon="13.67160331" lat="51.06754253">
    <ele>135</ele>
    <extensions>
     <ql:flags>0</ql:flags>
    </extensions>
   </trkpt>
   <trkpt lon="13.67169142" lat="51.06752157">
    <ele>134</ele>
    <extensions>
     <ql:flags>8</ql:flags>
    </extensions>
   </trkpt>
   <trkpt lon="13.67218494" lat="51.06771469">
    <ele>133</ele>
    <extensions>
     <ql:flags>8</ql:flags>
    </extensions>
   </trkpt>
   <trkpt lon="13.67218133" lat="51.06771322">
    <ele>133</ele>
    <extensions>
     <ql:flags>0</ql:flags>
    </extensions>
   </trkpt>
  </trkseg>
 </trk>
 <trk>
  <name>Track (Ausstieg Ockerwitz)</name>
  <extensions>
   <ql:key>21cf685a8ebccd543d8674b4b42fd0be</ql:key>
   <ql:flags>1</ql:flags>
   <ql:history>
    <ql:event>
     <ql:icon>://icons/48x48/Start.png</ql:icon>
     <ql:time>2020-06-18T04:34:06.098Z</ql:time>
     <ql:comment>Erstversion.</ql:comment>
    </ql:event>
    <ql:event>
     <ql:icon>://icons/48x48/ActFoot.png</ql:icon>
     <ql:time>2020-06-30T16:39:59.134Z</ql:time>
     <ql:comment>Die Aktivität wurde für den gesamten Track auf 'Fußgänger' geändert.</ql:comment>
    </ql:event>
   </ql:history>
   <gpxx:TrackExtension>
    <gpxx:DisplayColor>DarkRed</gpxx:DisplayColor>
   </gpxx:TrackExtension>
  </extensions>
  <trkseg>
   <trkpt lon="13.64167084" lat="51.05865912">
    <ele>183</ele>
    <extensions>
     <ql:flags>2147483648</ql:flags>
    </extensions>
   </trkpt>
   <trkpt lon="13.64167218" lat="51.05860080">
    <ele>185</ele>
    <extensions>
     <ql:flags>2147483648</ql:flags>
    </extensions>
   </trkpt>
   <trkpt lon="13.64167084" lat="51.05856869">
    <ele>186</ele>
    <extensions>
     <ql:flags>2147483648</ql:flags>
    </extensions>
   </trkpt>
   <trkpt lon="13.64167213" lat="51.05829477">
    <ele>194</ele>
    <extensions>
     <ql:flags>2147483656</ql:flags>
    </extensions>
   </trkpt>
   <trkpt lon="13.64162922" lat="51.05823040">
    <ele>196</ele>
    <extensions>
     <ql:flags>2147483656</ql:flags>
    </extensions>
   </trkpt>
   <trkpt lon="13.64147902" lat="51.05814457">
    <ele>199</ele>
    <extensions>
     <ql:flags>2147483656</ql:flags>
    </extensions>
   </trkpt>
   <trkpt lon="13.64115585" lat="51.05806074">
    <ele>202</ele>
    <extensions>
     <ql:flags>2147483648</ql:flags>
    </extensions>
   </trkpt>
   <trkpt lon="13.64117861" lat="51.05797291">
    <ele>204</ele>
    <extensions>
     <ql:flags>2147483656</ql:flags>
    </extensions>
   </trkpt>
   <trkpt lon="13.64115715" lat="51.05780125">
    <ele>209</ele>
    <extensions>
     <ql:flags>2147483656</ql:flags>
    </extensions>
   </trkpt>
   <trkpt lon="13.64115719" lat="51.05771591">
    <ele>211</ele>
    <extensions>
     <ql:flags>2147483648</ql:flags>
    </extensions>
   </trkpt>
   <trkpt lon="13.64117861" lat="51.05769396">
    <ele>211</ele>
    <extensions>
     <ql:flags>2147483656</ql:flags>
    </extensions>
   </trkpt>
   <trkpt lon="13.64130735" lat="51.05765104">
    <ele>212</ele>
    <extensions>
     <ql:flags>2147483656</ql:flags>
    </extensions>
   </trkpt>
   <trkpt lon="13.64145756" lat="51.05765104">
    <ele>212</ele>
    <extensions>
     <ql:flags>2147483656</ql:flags>
    </extensions>
   </trkpt>
   <trkpt lon="13.64147902" lat="51.05762959">
    <ele>212</ele>
    <extensions>
     <ql:flags>2147483656</ql:flags>
    </extensions>
   </trkpt>
   <trkpt lon="13.64145756" lat="51.05760813">
    <ele>213</ele>
    <extensions>
     <ql:flags>2147483656</ql:flags>
    </extensions>
   </trkpt>
   <trkpt lon="13.64132881" lat="51.05756521">
    <ele>214</ele>
    <extensions>
     <ql:flags>2147483656</ql:flags>
    </extensions>
   </trkpt>
   <trkpt lon="13.64111423" lat="51.05745792">
    <ele>216</ele>
    <extensions>
     <ql:flags>2147483656</ql:flags>
    </extensions>
   </trkpt>
   <trkpt lon="13.64094257" lat="51.05730772">
    <ele>220</ele>
    <extensions>
     <ql:flags>2147483656</ql:flags>
    </extensions>
   </trkpt>
   <trkpt lon="13.64087820" lat="51.05709314">
    <ele>225</ele>
    <extensions>
     <ql:flags>2147483656</ql:flags>
    </extensions>
   </trkpt>
   <trkpt lon="13.64089568" lat="51.05701694">
    <ele>226</ele>
    <extensions>
     <ql:flags>2147483648</ql:flags>
    </extensions>
   </trkpt>
   <trkpt lon="13.64104986" lat="51.05694294">
    <ele>226</ele>
    <extensions>
     <ql:flags>2147483656</ql:flags>
    </extensions>
   </trkpt>
   <trkpt lon="13.64107132" lat="51.05687857">
    <ele>227</ele>
    <extensions>
     <ql:flags>2147483656</ql:flags>
    </extensions>
   </trkpt>
   <trkpt lon="13.64111423" lat="51.05670691">
    <ele>228</ele>
    <extensions>
     <ql:flags>2147483656</ql:flags>
    </extensions>
   </trkpt>
   <trkpt lon="13.64120011" lat="51.05647264">
    <ele>230</ele>
    <extensions>
     <ql:flags>2147483648</ql:flags>
    </extensions>
   </trkpt>
   <trkpt lon="13.64122152" lat="51.05636358">
    <ele>231</ele>
    <extensions>
     <ql:flags>2147483656</ql:flags>
    </extensions>
   </trkpt>
   <trkpt lon="13.64126444" lat="51.05627775">
    <ele>232</ele>
    <extensions>
     <ql:flags>2147483656</ql:flags>
    </extensions>
   </trkpt>
   <trkpt lon="13.64141464" lat="51.05612755">
    <ele>232</ele>
    <extensions>
     <ql:flags>2147483656</ql:flags>
    </extensions>
   </trkpt>
   <trkpt lon="13.64160776" lat="51.05595589">
    <ele>231</ele>
    <extensions>
     <ql:flags>2147483656</ql:flags>
    </extensions>
   </trkpt>
   <trkpt lon="13.64225149" lat="51.05604172">
    <ele>228</ele>
    <extensions>
     <ql:flags>2147483656</ql:flags>
    </extensions>
   </trkpt>
   <trkpt lon="13.64233732" lat="51.05604172">
    <ele>227</ele>
    <extensions>
     <ql:flags>2147483656</ql:flags>
    </extensions>
   </trkpt>
   <trkpt lon="13.64242315" lat="51.05602026">
    <ele>227</ele>
    <extensions>
     <ql:flags>2147483656</ql:flags>
    </extensions>
   </trkpt>
   <trkpt lon="13.64250898" lat="51.05599880">
    <ele>226</ele>
    <extensions>
     <ql:flags>2147483656</ql:flags>
    </extensions>
   </trkpt>
   <trkpt lon="13.64259481" lat="51.05595589">
    <ele>226</ele>
    <extensions>
     <ql:flags>2147483656</ql:flags>
    </extensions>
   </trkpt>
   <trkpt lon="13.64274502" lat="51.05584860">
    <ele>225</ele>
    <extensions>
     <ql:flags>2147483656</ql:flags>
    </extensions>
   </trkpt>
   <trkpt lon="13.64287381" lat="51.05572125">
    <ele>225</ele>
    <extensions>
     <ql:flags>2147483648</ql:flags>
    </extensions>
   </trkpt>
   <trkpt lon="13.64313126" lat="51.05559111">
    <ele>224</ele>
    <extensions>
     <ql:flags>2147483656</ql:flags>
    </extensions>
   </trkpt>
   <trkpt lon="13.64313264" lat="51.05558855">
    <ele>224</ele>
    <extensions>
     <ql:flags>2147483648</ql:flags>
    </extensions>
   </trkpt>
  </trkseg>
 </trk>
 <trk>
  <name>Track (Rundweg Merbitzer Weinberge)</name>
  <extensions>
   <ql:key>171f53355edcdf0dc428de2bfc8d386c</ql:key>
   <ql:flags>5</ql:flags>
   <ql:history>
    <ql:event>
     <ql:icon>://icons/48x48/Start.png</ql:icon>
     <ql:time>2020-06-18T04:50:54.095Z</ql:time>
     <ql:comment>Erstversion.</ql:comment>
    </ql:event>
    <ql:event>
     <ql:icon>://icons/48x48/ActFoot.png</ql:icon>
     <ql:time>2020-06-30T16:39:59.137Z</ql:time>
     <ql:comment>Die Aktivität wurde für den gesamten Track auf 'Fußgänger' geändert.</ql:comment>
    </ql:event>
   </ql:history>
   <gpxx:TrackExtension>
    <gpxx:DisplayColor>DarkRed</gpxx:DisplayColor>
   </gpxx:TrackExtension>
  </extensions>
  <trkseg>
   <trkpt lon="13.64555333" lat="51.06275881">
    <ele>167</ele>
    <extensions>
     <ql:flags>2147483648</ql:flags>
    </extensions>
   </trkpt>
   <trkpt lon="13.64527702" lat="51.06277943">
    <ele>166</ele>
    <extensions>
     <ql:flags>2147483656</ql:flags>
    </extensions>
   </trkpt>
   <trkpt lon="13.64514828" lat="51.06301546">
    <ele>165</ele>
    <extensions>
     <ql:flags>2147483656</ql:flags>
    </extensions>
   </trkpt>
   <trkpt lon="13.64512682" lat="51.06325150">
    <ele>164</ele>
    <extensions>
     <ql:flags>2147483656</ql:flags>
    </extensions>
   </trkpt>
   <trkpt lon="13.64504103" lat="51.06370023">
    <ele>162</ele>
    <extensions>
     <ql:flags>2147483648</ql:flags>
    </extensions>
   </trkpt>
   <trkpt lon="13.64499807" lat="51.06391668">
    <ele>164</ele>
    <extensions>
     <ql:flags>2147483656</ql:flags>
    </extensions>
   </trkpt>
   <trkpt lon="13.64474058" lat="51.06438875">
    <ele>171</ele>
    <extensions>
     <ql:flags>2147483656</ql:flags>
    </extensions>
   </trkpt>
   <trkpt lon="13.64474058" lat="51.06447458">
    <ele>172</ele>
    <extensions>
     <ql:flags>2147483656</ql:flags>
    </extensions>
   </trkpt>
   <trkpt lon="13.64471648" lat="51.06458162">
    <ele>173</ele>
    <extensions>
     <ql:flags>2147483648</ql:flags>
    </extensions>
   </trkpt>
   <trkpt lon="13.64448309" lat="51.06453896">
    <ele>174</ele>
    <extensions>
     <ql:flags>2147483656</ql:flags>
    </extensions>
   </trkpt>
   <trkpt lon="13.64371061" lat="51.06456041">
    <ele>179</ele>
    <extensions>
     <ql:flags>2147483656</ql:flags>
    </extensions>
   </trkpt>
   <trkpt lon="13.64248753" lat="51.06462479">
    <ele>191</ele>
    <extensions>
     <ql:flags>2147483656</ql:flags>
    </extensions>
   </trkpt>
   <trkpt lon="13.64188944" lat="51.06456134">
    <ele>197</ele>
    <extensions>
     <ql:flags>2147483648</ql:flags>
    </extensions>
   </trkpt>
   <trkpt lon="13.64152193" lat="51.06449604">
    <ele>200</ele>
    <extensions>
     <ql:flags>2147483656</ql:flags>
    </extensions>
   </trkpt>
   <trkpt lon="13.64117861" lat="51.06447458">
    <ele>203</ele>
    <extensions>
     <ql:flags>2147483656</ql:flags>
    </extensions>
   </trkpt>
   <trkpt lon="13.64019156" lat="51.06447458">
    <ele>208</ele>
    <extensions>
     <ql:flags>2147483656</ql:flags>
    </extensions>
   </trkpt>
   <trkpt lon="13.63907576" lat="51.06443167">
    <ele>216</ele>
    <extensions>
     <ql:flags>2147483656</ql:flags>
    </extensions>
   </trkpt>
   <trkpt lon="13.63892555" lat="51.06447458">
    <ele>218</ele>
    <extensions>
     <ql:flags>2147483656</ql:flags>
    </extensions>
   </trkpt>
   <trkpt lon="13.63881965" lat="51.06453936">
    <ele>218</ele>
    <extensions>
     <ql:flags>2147483648</ql:flags>
    </extensions>
   </trkpt>
   <trkpt lon="13.63845348" lat="51.06496811">
    <ele>224</ele>
    <extensions>
     <ql:flags>2147483656</ql:flags>
    </extensions>
   </trkpt>
   <trkpt lon="13.63828182" lat="51.06522560">
    <ele>226</ele>
    <extensions>
     <ql:flags>2147483656</ql:flags>
    </extensions>
   </trkpt>
   <trkpt lon="13.63821745" lat="51.06533289">
    <ele>227</ele>
    <extensions>
     <ql:flags>2147483656</ql:flags>
    </extensions>
   </trkpt>
   <trkpt lon="13.63817453" lat="51.06550455">
    <ele>228</ele>
    <extensions>
     <ql:flags>2147483656</ql:flags>
    </extensions>
   </trkpt>
   <trkpt lon="13.63813162" lat="51.06571913">
    <ele>229</ele>
    <extensions>
     <ql:flags>2147483656</ql:flags>
    </extensions>
   </trkpt>
   <trkpt lon="13.63813162" lat="51.06591225">
    <ele>229</ele>
    <extensions>
     <ql:flags>2147483656</ql:flags>
    </extensions>
   </trkpt>
   <trkpt lon="13.63819599" lat="51.06601954">
    <ele>229</ele>
    <extensions>
     <ql:flags>2147483656</ql:flags>
    </extensions>
   </trkpt>
   <trkpt lon="13.63828052" lat="51.06614747">
    <ele>229</ele>
    <extensions>
     <ql:flags>2147483648</ql:flags>
    </extensions>
   </trkpt>
   <trkpt lon="13.63873243" lat="51.06668472">
    <ele>228</ele>
    <extensions>
     <ql:flags>2147483656</ql:flags>
    </extensions>
   </trkpt>
   <trkpt lon="13.63892555" lat="51.06681347">
    <ele>227</ele>
    <extensions>
     <ql:flags>2147483656</ql:flags>
    </extensions>
   </trkpt>
   <trkpt lon="13.63933325" lat="51.06692076">
    <ele>225</ele>
    <extensions>
     <ql:flags>2147483656</ql:flags>
    </extensions>
   </trkpt>
   <trkpt lon="13.63967527" lat="51.06707192">
    <ele>223</ele>
    <extensions>
     <ql:flags>2147483648</ql:flags>
    </extensions>
   </trkpt>
   <trkpt lon="13.64021301" lat="51.06687784">
    <ele>220</ele>
    <extensions>
     <ql:flags>2147483656</ql:flags>
    </extensions>
   </trkpt>
   <trkpt lon="13.64049196" lat="51.06679201">
    <ele>219</ele>
    <extensions>
     <ql:flags>2147483656</ql:flags>
    </extensions>
   </trkpt>
   <trkpt lon="13.64089966" lat="51.06679201">
    <ele>217</ele>
    <extensions>
     <ql:flags>2147483656</ql:flags>
    </extensions>
   </trkpt>
   <trkpt lon="13.64120007" lat="51.06681347">
    <ele>216</ele>
    <extensions>
     <ql:flags>2147483656</ql:flags>
    </extensions>
   </trkpt>
   <trkpt lon="13.64182234" lat="51.06683493">
    <ele>212</ele>
    <extensions>
     <ql:flags>2147483656</ql:flags>
    </extensions>
   </trkpt>
   <trkpt lon="13.64268064" lat="51.06696367">
    <ele>207</ele>
    <extensions>
     <ql:flags>2147483656</ql:flags>
    </extensions>
   </trkpt>
   <trkpt lon="13.64313126" lat="51.06696367">
    <ele>204</ele>
    <extensions>
     <ql:flags>2147483656</ql:flags>
    </extensions>
   </trkpt>
   <trkpt lon="13.64347458" lat="51.06692076">
    <ele>202</ele>
    <extensions>
     <ql:flags>2147483656</ql:flags>
    </extensions>
   </trkpt>
   <trkpt lon="13.64362478" lat="51.06689930">
    <ele>201</ele>
    <extensions>
     <ql:flags>2147483656</ql:flags>
    </extensions>
   </trkpt>
   <trkpt lon="13.64379644" lat="51.06683493">
    <ele>200</ele>
    <extensions>
     <ql:flags>2147483656</ql:flags>
    </extensions>
   </trkpt>
   <trkpt lon="13.64396811" lat="51.06674910">
    <ele>199</ele>
    <extensions>
     <ql:flags>2147483656</ql:flags>
    </extensions>
   </trkpt>
   <trkpt lon="13.64418268" lat="51.06662035">
    <ele>198</ele>
    <extensions>
     <ql:flags>2147483656</ql:flags>
    </extensions>
   </trkpt>
   <trkpt lon="13.64444017" lat="51.06636286">
    <ele>198</ele>
    <extensions>
     <ql:flags>2147483656</ql:flags>
    </extensions>
   </trkpt>
   <trkpt lon="13.64461184" lat="51.06616974">
    <ele>196</ele>
    <extensions>
     <ql:flags>2147483656</ql:flags>
    </extensions>
   </trkpt>
   <trkpt lon="13.64474058" lat="51.06610537">
    <ele>194</ele>
    <extensions>
     <ql:flags>2147483656</ql:flags>
    </extensions>
   </trkpt>
   <trkpt lon="13.64491224" lat="51.06604099">
    <ele>192</ele>
    <extensions>
     <ql:flags>2147483656</ql:flags>
    </extensions>
   </trkpt>
   <trkpt lon="13.64510536" lat="51.06593370">
    <ele>190</ele>
    <extensions>
     <ql:flags>2147483656</ql:flags>
    </extensions>
   </trkpt>
   <trkpt lon="13.64529848" lat="51.06578350">
    <ele>187</ele>
    <extensions>
     <ql:flags>2147483656</ql:flags>
    </extensions>
   </trkpt>
   <trkpt lon="13.64553452" lat="51.06563330">
    <ele>184</ele>
    <extensions>
     <ql:flags>2147483656</ql:flags>
    </extensions>
   </trkpt>
   <trkpt lon="13.64577055" lat="51.06554747">
    <ele>182</ele>
    <extensions>
     <ql:flags>2147483656</ql:flags>
    </extensions>
   </trkpt>
   <trkpt lon="13.64587784" lat="51.06544018">
    <ele>180</ele>
    <extensions>
     <ql:flags>2147483656</ql:flags>
    </extensions>
   </trkpt>
   <trkpt lon="13.64594221" lat="51.06535435">
    <ele>179</ele>
    <extensions>
     <ql:flags>2147483656</ql:flags>
    </extensions>
   </trkpt>
   <trkpt lon="13.64598513" lat="51.06522560">
    <ele>176</ele>
    <extensions>
     <ql:flags>2147483656</ql:flags>
    </extensions>
   </trkpt>
   <trkpt lon="13.64596639" lat="51.06508357">
    <ele>174</ele>
    <extensions>
     <ql:flags>2147483648</ql:flags>
    </extensions>
   </trkpt>
   <trkpt lon="13.64559889" lat="51.06488228">
    <ele>173</ele>
    <extensions>
     <ql:flags>2147483656</ql:flags>
    </extensions>
   </trkpt>
   <trkpt lon="13.64493370" lat="51.06462479">
    <ele>173</ele>
    <extensions>
     <ql:flags>2147483656</ql:flags>
    </extensions>
   </trkpt>
   <trkpt lon="13.64471912" lat="51.06458187">
    <ele>173</ele>
    <extensions>
     <ql:flags>2147483656</ql:flags>
    </extensions>
   </trkpt>
   <trkpt lon="13.64471112" lat="51.06458331">
    <ele>173</ele>
    <extensions>
     <ql:flags>2147483648</ql:flags>
    </extensions>
   </trkpt>
  </trkseg>
  <trkseg>
   <trkpt lon="13.64471380" lat="51.06458415">
    <ele>173</ele>
    <extensions>
     <ql:flags>2147483648</ql:flags>
    </extensions>
   </trkpt>
   <trkpt lon="13.64474058" lat="51.06447458">
    <ele>172</ele>
    <extensions>
     <ql:flags>2147483656</ql:flags>
    </extensions>
   </trkpt>
   <trkpt lon="13.64474058" lat="51.06438875">
    <ele>171</ele>
    <extensions>
     <ql:flags>2147483656</ql:flags>
    </extensions>
   </trkpt>
   <trkpt lon="13.64499807" lat="51.06391668">
    <ele>164</ele>
    <extensions>
     <ql:flags>2147483656</ql:flags>
    </extensions>
   </trkpt>
   <trkpt lon="13.64503969" lat="51.06370275">
    <ele>162</ele>
    <extensions>
     <ql:flags>2147483648</ql:flags>
    </extensions>
   </trkpt>
   <trkpt lon="13.64512682" lat="51.06325150">
    <ele>164</ele>
    <extensions>
     <ql:flags>2147483656</ql:flags>
    </extensions>
   </trkpt>
   <trkpt lon="13.64514828" lat="51.06301546">
    <ele>165</ele>
    <extensions>
     <ql:flags>2147483656</ql:flags>
    </extensions>
   </trkpt>
   <trkpt lon="13.64527702" lat="51.06277943">
    <ele>166</ele>
    <extensions>
     <ql:flags>2147483656</ql:flags>
    </extensions>
   </trkpt>
   <trkpt lon="13.64555065" lat="51.06275711">
    <ele>167</ele>
    <extensions>
     <ql:flags>2147483648</ql:flags>
    </extensions>
   </trkpt>
  </trkseg>
 </trk>
 <trk>
  <name>Track (Rundweg Podemus)</name>
  <extensions>
   <ql:key>c33c77f6b439232f1d1efd508e993816</ql:key>
   <ql:flags>5</ql:flags>
   <ql:history>
    <ql:event>
     <ql:icon>://icons/48x48/Start.png</ql:icon>
     <ql:time>2020-06-18T04:21:12.966Z</ql:time>
     <ql:comment>Erstversion.</ql:comment>
    </ql:event>
    <ql:event>
     <ql:icon>://icons/48x48/LineMove.png</ql:icon>
     <ql:time>2020-06-18T04:22:07.823Z</ql:time>
     <ql:comment>Wegpunkte geändert, alle vorherigen Daten sind verloren.</ql:comment>
    </ql:event>
    <ql:event>
     <ql:icon>://icons/48x48/LineMove.png</ql:icon>
     <ql:time>2020-06-18T04:23:10.534Z</ql:time>
     <ql:comment>Wegpunkte geändert, alle vorherigen Daten sind verloren.</ql:comment>
    </ql:event>
    <ql:event>
     <ql:icon>://icons/48x48/ActFoot.png</ql:icon>
     <ql:time>2020-06-30T16:39:59.140Z</ql:time>
     <ql:comment>Die Aktivität wurde für den gesamten Track auf 'Fußgänger' geändert.</ql:comment>
    </ql:event>
   </ql:history>
   <gpxx:TrackExtension>
    <gpxx:DisplayColor>DarkRed</gpxx:DisplayColor>
   </gpxx:TrackExtension>
  </extensions>
  <trkseg>
   <trkpt lon="13.63836099" lat="51.05865997">
    <ele>192</ele>
    <extensions>
     <ql:flags>2147483648</ql:flags>
    </extensions>
   </trkpt>
   <trkpt lon="13.63811016" lat="51.05855227">
    <ele>194</ele>
    <extensions>
     <ql:flags>2147483656</ql:flags>
    </extensions>
   </trkpt>
   <trkpt lon="13.63763809" lat="51.05846643">
    <ele>195</ele>
    <extensions>
     <ql:flags>2147483656</ql:flags>
    </extensions>
   </trkpt>
   <trkpt lon="13.63699436" lat="51.05846643">
    <ele>195</ele>
    <extensions>
     <ql:flags>2147483656</ql:flags>
    </extensions>
   </trkpt>
   <trkpt lon="13.63626480" lat="51.05848789">
    <ele>196</ele>
    <extensions>
     <ql:flags>2147483656</ql:flags>
    </extensions>
   </trkpt>
   <trkpt lon="13.63564253" lat="51.05853081">
    <ele>196</ele>
    <extensions>
     <ql:flags>2147483656</ql:flags>
    </extensions>
   </trkpt>
   <trkpt lon="13.63510609" lat="51.05850935">
    <ele>198</ele>
    <extensions>
     <ql:flags>2147483656</ql:flags>
    </extensions>
   </trkpt>
   <trkpt lon="13.63405873" lat="51.05831684">
    <ele>202</ele>
    <extensions>
     <ql:flags>2147483648</ql:flags>
    </extensions>
   </trkpt>
   <trkpt lon="13.63274574" lat="51.05816603">
    <ele>212</ele>
    <extensions>
     <ql:flags>2147483656</ql:flags>
    </extensions>
   </trkpt>
   <trkpt lon="13.63182306" lat="51.05803728">
    <ele>219</ele>
    <extensions>
     <ql:flags>2147483656</ql:flags>
    </extensions>
   </trkpt>
   <trkpt lon="13.63105059" lat="51.05784416">
    <ele>222</ele>
    <extensions>
     <ql:flags>2147483656</ql:flags>
    </extensions>
   </trkpt>
   <trkpt lon="13.63040686" lat="51.05773687">
    <ele>227</ele>
    <extensions>
     <ql:flags>2147483656</ql:flags>
    </extensions>
   </trkpt>
   <trkpt lon="13.62974167" lat="51.05767250">
    <ele>229</ele>
    <extensions>
     <ql:flags>2147483656</ql:flags>
    </extensions>
   </trkpt>
   <trkpt lon="13.62926960" lat="51.05767250">
    <ele>231</ele>
    <extensions>
     <ql:flags>2147483656</ql:flags>
    </extensions>
   </trkpt>
   <trkpt lon="13.62830941" lat="51.05769394">
    <ele>234</ele>
    <extensions>
     <ql:flags>2147483648</ql:flags>
    </extensions>
   </trkpt>
   <trkpt lon="13.62815380" lat="51.05771542">
    <ele>234</ele>
    <extensions>
     <ql:flags>2147483656</ql:flags>
    </extensions>
   </trkpt>
   <trkpt lon="13.62806797" lat="51.05773687">
    <ele>235</ele>
    <extensions>
     <ql:flags>2147483656</ql:flags>
    </extensions>
   </trkpt>
   <trkpt lon="13.62800360" lat="51.05775833">
    <ele>235</ele>
    <extensions>
     <ql:flags>2147483656</ql:flags>
    </extensions>
   </trkpt>
   <trkpt lon="13.62796068" lat="51.05777979">
    <ele>235</ele>
    <extensions>
     <ql:flags>2147483656</ql:flags>
    </extensions>
   </trkpt>
   <trkpt lon="13.62793922" lat="51.05780125">
    <ele>235</ele>
    <extensions>
     <ql:flags>2147483656</ql:flags>
    </extensions>
   </trkpt>
   <trkpt lon="13.62789631" lat="51.05786562">
    <ele>235</ele>
    <extensions>
     <ql:flags>2147483656</ql:flags>
    </extensions>
   </trkpt>
   <trkpt lon="13.62787485" lat="51.05790854">
    <ele>235</ele>
    <extensions>
     <ql:flags>2147483656</ql:flags>
    </extensions>
   </trkpt>
   <trkpt lon="13.62774611" lat="51.05831623">
    <ele>239</ele>
    <extensions>
     <ql:flags>2147483656</ql:flags>
    </extensions>
   </trkpt>
   <trkpt lon="13.62768173" lat="51.05855227">
    <ele>241</ele>
    <extensions>
     <ql:flags>2147483656</ql:flags>
    </extensions>
   </trkpt>
   <trkpt lon="13.62755299" lat="51.05900288">
    <ele>244</ele>
    <extensions>
     <ql:flags>2147483656</ql:flags>
    </extensions>
   </trkpt>
   <trkpt lon="13.62753153" lat="51.05911016">
    <ele>245</ele>
    <extensions>
     <ql:flags>2147483656</ql:flags>
    </extensions>
   </trkpt>
   <trkpt lon="13.62748861" lat="51.05919600">
    <ele>245</ele>
    <extensions>
     <ql:flags>2147483656</ql:flags>
    </extensions>
   </trkpt>
   <trkpt lon="13.62731695" lat="51.05977535">
    <ele>249</ele>
    <extensions>
     <ql:flags>2147483656</ql:flags>
    </extensions>
   </trkpt>
   <trkpt lon="13.62723112" lat="51.05998993">
    <ele>250</ele>
    <extensions>
     <ql:flags>2147483656</ql:flags>
    </extensions>
   </trkpt>
   <trkpt lon="13.62708092" lat="51.06048346">
    <ele>252</ele>
    <extensions>
     <ql:flags>2147483656</ql:flags>
    </extensions>
   </trkpt>
   <trkpt lon="13.62703800" lat="51.06052637">
    <ele>252</ele>
    <extensions>
     <ql:flags>2147483656</ql:flags>
    </extensions>
   </trkpt>
   <trkpt lon="13.62697363" lat="51.06054783">
    <ele>252</ele>
    <extensions>
     <ql:flags>2147483656</ql:flags>
    </extensions>
   </trkpt>
   <trkpt lon="13.62667322" lat="51.06059074">
    <ele>251</ele>
    <extensions>
     <ql:flags>2147483656</ql:flags>
    </extensions>
   </trkpt>
   <trkpt lon="13.62660885" lat="51.06061220">
    <ele>251</ele>
    <extensions>
     <ql:flags>2147483656</ql:flags>
    </extensions>
   </trkpt>
   <trkpt lon="13.62656593" lat="51.06063366">
    <ele>251</ele>
    <extensions>
     <ql:flags>2147483656</ql:flags>
    </extensions>
   </trkpt>
   <trkpt lon="13.62652302" lat="51.06065512">
    <ele>251</ele>
    <extensions>
     <ql:flags>2147483656</ql:flags>
    </extensions>
   </trkpt>
   <trkpt lon="13.62643719" lat="51.06071949">
    <ele>251</ele>
    <extensions>
     <ql:flags>2147483656</ql:flags>
    </extensions>
   </trkpt>
   <trkpt lon="13.62637281" lat="51.06078386">
    <ele>251</ele>
    <extensions>
     <ql:flags>2147483656</ql:flags>
    </extensions>
   </trkpt>
   <trkpt lon="13.62630844" lat="51.06086969">
    <ele>251</ele>
    <extensions>
     <ql:flags>2147483656</ql:flags>
    </extensions>
   </trkpt>
   <trkpt lon="13.62626553" lat="51.06097698">
    <ele>251</ele>
    <extensions>
     <ql:flags>2147483656</ql:flags>
    </extensions>
   </trkpt>
   <trkpt lon="13.62626553" lat="51.06104136">
    <ele>252</ele>
    <extensions>
     <ql:flags>2147483656</ql:flags>
    </extensions>
   </trkpt>
   <trkpt lon="13.62628698" lat="51.06129885">
    <ele>253</ele>
    <extensions>
     <ql:flags>2147483656</ql:flags>
    </extensions>
   </trkpt>
   <trkpt lon="13.62630844" lat="51.06140614">
    <ele>254</ele>
    <extensions>
     <ql:flags>2147483656</ql:flags>
    </extensions>
   </trkpt>
   <trkpt lon="13.62628434" lat="51.06153428">
    <ele>254</ele>
    <extensions>
     <ql:flags>2147483648</ql:flags>
    </extensions>
   </trkpt>
   <trkpt lon="13.62753153" lat="51.06164217">
    <ele>256</ele>
    <extensions>
     <ql:flags>2147483656</ql:flags>
    </extensions>
   </trkpt>
   <trkpt lon="13.62761736" lat="51.06164217">
    <ele>256</ele>
    <extensions>
     <ql:flags>2147483656</ql:flags>
    </extensions>
   </trkpt>
   <trkpt lon="13.62789367" lat="51.06164076">
    <ele>256</ele>
    <extensions>
     <ql:flags>2147483648</ql:flags>
    </extensions>
   </trkpt>
   <trkpt lon="13.62830400" lat="51.06119156">
    <ele>255</ele>
    <extensions>
     <ql:flags>2147483656</ql:flags>
    </extensions>
   </trkpt>
   <trkpt lon="13.62845421" lat="51.06099844">
    <ele>255</ele>
    <extensions>
     <ql:flags>2147483656</ql:flags>
    </extensions>
   </trkpt>
   <trkpt lon="13.62869024" lat="51.06080532">
    <ele>255</ele>
    <extensions>
     <ql:flags>2147483656</ql:flags>
    </extensions>
   </trkpt>
   <trkpt lon="13.62873316" lat="51.06076241">
    <ele>255</ele>
    <extensions>
     <ql:flags>2147483656</ql:flags>
    </extensions>
   </trkpt>
   <trkpt lon="13.62890482" lat="51.06050491">
    <ele>254</ele>
    <extensions>
     <ql:flags>2147483656</ql:flags>
    </extensions>
   </trkpt>
   <trkpt lon="13.62897326" lat="51.06009926">
    <ele>252</ele>
    <extensions>
     <ql:flags>2147483648</ql:flags>
    </extensions>
   </trkpt>
   <trkpt lon="13.62958480" lat="51.06016010">
    <ele>250</ele>
    <extensions>
     <ql:flags>2147483648</ql:flags>
    </extensions>
   </trkpt>
   <trkpt lon="13.62971757" lat="51.06016095">
    <ele>250</ele>
    <extensions>
     <ql:flags>2147483648</ql:flags>
    </extensions>
   </trkpt>
   <trkpt lon="13.62972021" lat="51.06016159">
    <ele>250</ele>
    <extensions>
     <ql:flags>2147483656</ql:flags>
    </extensions>
   </trkpt>
   <trkpt lon="13.63010645" lat="51.06020451">
    <ele>249</ele>
    <extensions>
     <ql:flags>2147483656</ql:flags>
    </extensions>
   </trkpt>
   <trkpt lon="13.63039617" lat="51.06024716">
    <ele>248</ele>
    <extensions>
     <ql:flags>2147483648</ql:flags>
    </extensions>
   </trkpt>
   <trkpt lon="13.63047123" lat="51.06016159">
    <ele>247</ele>
    <extensions>
     <ql:flags>2147483656</ql:flags>
    </extensions>
   </trkpt>
   <trkpt lon="13.63165140" lat="51.06026888">
    <ele>237</ele>
    <extensions>
     <ql:flags>2147483656</ql:flags>
    </extensions>
   </trkpt>
   <trkpt lon="13.63285039" lat="51.06041365">
    <ele>223</ele>
    <extensions>
     <ql:flags>2147483648</ql:flags>
    </extensions>
   </trkpt>
   <trkpt lon="13.63308911" lat="51.06042210">
    <ele>221</ele>
    <extensions>
     <ql:flags>2147483648</ql:flags>
    </extensions>
   </trkpt>
   <trkpt lon="13.63463402" lat="51.06054783">
    <ele>215</ele>
    <extensions>
     <ql:flags>2147483656</ql:flags>
    </extensions>
   </trkpt>
   <trkpt lon="13.63504171" lat="51.06061220">
    <ele>216</ele>
    <extensions>
     <ql:flags>2147483656</ql:flags>
    </extensions>
   </trkpt>
   <trkpt lon="13.63517046" lat="51.06059074">
    <ele>215</ele>
    <extensions>
     <ql:flags>2147483656</ql:flags>
    </extensions>
   </trkpt>
   <trkpt lon="13.63523483" lat="51.06056929">
    <ele>215</ele>
    <extensions>
     <ql:flags>2147483656</ql:flags>
    </extensions>
   </trkpt>
   <trkpt lon="13.63532066" lat="51.06048346">
    <ele>213</ele>
    <extensions>
     <ql:flags>2147483656</ql:flags>
    </extensions>
   </trkpt>
   <trkpt lon="13.63538504" lat="51.06039762">
    <ele>212</ele>
    <extensions>
     <ql:flags>2147483656</ql:flags>
    </extensions>
   </trkpt>
   <trkpt lon="13.63555670" lat="51.06024742">
    <ele>209</ele>
    <extensions>
     <ql:flags>2147483656</ql:flags>
    </extensions>
   </trkpt>
   <trkpt lon="13.63590002" lat="51.06011868">
    <ele>207</ele>
    <extensions>
     <ql:flags>2147483656</ql:flags>
    </extensions>
   </trkpt>
   <trkpt lon="13.63632917" lat="51.06001139">
    <ele>204</ele>
    <extensions>
     <ql:flags>2147483656</ql:flags>
    </extensions>
   </trkpt>
   <trkpt lon="13.63673687" lat="51.05998993">
    <ele>201</ele>
    <extensions>
     <ql:flags>2147483656</ql:flags>
    </extensions>
   </trkpt>
   <trkpt lon="13.63716602" lat="51.06003284">
    <ele>199</ele>
    <extensions>
     <ql:flags>2147483656</ql:flags>
    </extensions>
   </trkpt>
   <trkpt lon="13.63813162" lat="51.06011868">
    <ele>195</ele>
    <extensions>
     <ql:flags>2147483656</ql:flags>
    </extensions>
   </trkpt>
   <trkpt lon="13.63830328" lat="51.06018305">
    <ele>195</ele>
    <extensions>
     <ql:flags>2147483656</ql:flags>
    </extensions>
   </trkpt>
   <trkpt lon="13.63838911" lat="51.06018305">
    <ele>195</ele>
    <extensions>
     <ql:flags>2147483656</ql:flags>
    </extensions>
   </trkpt>
   <trkpt lon="13.63866806" lat="51.06011868">
    <ele>192</ele>
    <extensions>
     <ql:flags>2147483656</ql:flags>
    </extensions>
   </trkpt>
   <trkpt lon="13.63888264" lat="51.06005430">
    <ele>190</ele>
    <extensions>
     <ql:flags>2147483656</ql:flags>
    </extensions>
   </trkpt>
   <trkpt lon="13.63914013" lat="51.05992556">
    <ele>188</ele>
    <extensions>
     <ql:flags>2147483656</ql:flags>
    </extensions>
   </trkpt>
   <trkpt lon="13.63931179" lat="51.05979681">
    <ele>185</ele>
    <extensions>
     <ql:flags>2147483656</ql:flags>
    </extensions>
   </trkpt>
   <trkpt lon="13.63944054" lat="51.05962515">
    <ele>182</ele>
    <extensions>
     <ql:flags>2147483656</ql:flags>
    </extensions>
   </trkpt>
   <trkpt lon="13.63997698" lat="51.05936766">
    <ele>182</ele>
    <extensions>
     <ql:flags>2147483656</ql:flags>
    </extensions>
   </trkpt>
   <trkpt lon="13.64044905" lat="51.05917454">
    <ele>183</ele>
    <extensions>
     <ql:flags>2147483656</ql:flags>
    </extensions>
   </trkpt>
   <trkpt lon="13.64077091" lat="51.05915308">
    <ele>181</ele>
    <extensions>
     <ql:flags>2147483656</ql:flags>
    </extensions>
   </trkpt>
   <trkpt lon="13.64104986" lat="51.05917454">
    <ele>179</ele>
    <extensions>
     <ql:flags>2147483656</ql:flags>
    </extensions>
   </trkpt>
   <trkpt lon="13.64115715" lat="51.05915308">
    <ele>179</ele>
    <extensions>
     <ql:flags>2147483656</ql:flags>
    </extensions>
   </trkpt>
   <trkpt lon="13.64127789" lat="51.05896338">
    <ele>180</ele>
    <extensions>
     <ql:flags>2147483648</ql:flags>
    </extensions>
   </trkpt>
   <trkpt lon="13.64130874" lat="51.05898028">
    <ele>180</ele>
    <extensions>
     <ql:flags>2147483648</ql:flags>
    </extensions>
   </trkpt>
   <trkpt lon="13.64147902" lat="51.05887413">
    <ele>180</ele>
    <extensions>
     <ql:flags>2147483656</ql:flags>
    </extensions>
   </trkpt>
   <trkpt lon="13.64162922" lat="51.05880976">
    <ele>180</ele>
    <extensions>
     <ql:flags>2147483656</ql:flags>
    </extensions>
   </trkpt>
   <trkpt lon="13.64175667" lat="51.05883069">
    <ele>179</ele>
    <extensions>
     <ql:flags>2147483648</ql:flags>
    </extensions>
   </trkpt>
  </trkseg>
 </trk>
 <extensions>
  <ql:key>97616c849622eec11692310620e0d421</ql:key>
  <ql:sortingRoadbook>0</ql:sortingRoadbook>
  <ql:sortingFolder>0</ql:sortingFolder>
  <ql:correlation>1</ql:correlation>
 </extensions>
</gpx>
