<?xml version="1.0" encoding="UTF-8" standalone="no" ?>
<gpx version="1.1" xmlns:gpxx="http://www.garmin.com/xmlschemas/GpxExtensions/v3" creator="QMapShack 1.10.0 http://www.qlandkarte.org/" xsi:schemaLocation="http://www.topografix.com/GPX/1/1 http://www.topografix.com/GPX/1/1/gpx.xsd http://www.garmin.com/xmlschemas/GpxExtensions/v3 http://www.garmin.com/xmlschemas/GpxExtensionsv3.xsd http://www.garmin.com/xmlschemas/TrackPointExtension/v1 http://www.garmin.com/xmlschemas/TrackPointExtensionv1.xsd http://www.garmin.com/xmlschemas/WaypointExtension/v1 http://www.garmin.com/xmlschemas/WaypointExtensionv1.xsd http://www.qlandkarte.org/xmlschemas/v1.1 http://www.qlandkarte.org/xmlschemas/v1.1/ql-extensions.xsd http://www.cluetrust.com/XML/GPXDATA/1/0 http://www.cluetrust.com/Schemas/gpxdata10.xsd" xmlns:xsi="http://www.w3.org/2001/XMLSchema-instance" xmlns:tp1="http://www.garmin.com/xmlschemas/TrackPointExtension/v1" xmlns="http://www.topografix.com/GPX/1/1" xmlns:rmc="urn:net:trekbuddy:1.0:nmea:rmc" xmlns:gpxdata="http://www.cluetrust.com/XML/GPXDATA/1/0" xmlns:ql="http://www.qlandkarte.org/xmlschemas/v1.1" xmlns:gpxtpx="http://www.garmin.com/xmlschemas/TrackPointExtension/v1" xmlns:wptx1="http://www.garmin.com/xmlschemas/WaypointExtension/v1">
 <metadata>
  <name>Streifzug 09: Durch das Reich der Blütenkönigin von Borthen</name>
  <link href="https://www.dvb.de/de-de/entdecken/wandertipps/durch-das-reich-der-bluetenkoenigin/">
   <text>Webseite</text>
   <type>Link</type>
  </link>
  <time>2020-06-23T04:27:28.000Z</time>
 </metadata>
 <wpt lat="50.98254160" lon="13.83029446">
  <ele>150</ele>
  <time>2020-07-26T15:17:17.504Z</time>
  <name>Wegpunkt 1 Links</name>
  <sym>Flag, Blue</sym>
  <extensions>
   <ql:key>5ecb93f81435986481438c01bfd6f87f</ql:key>
   <ql:flags>3</ql:flags>
   <ql:bubble yoff="-150" xoff="-320" width="300"/>
   <ql:history>
    <ql:event>
     <ql:icon>://icons/48x48/Start.png</ql:icon>
     <ql:time>2020-07-26T15:17:17.505Z</ql:time>
     <ql:comment>Erstversion.</ql:comment>
    </ql:event>
    <ql:event>
     <ql:icon>://icons/48x48/WptEditProx.png</ql:icon>
     <ql:time>2020-07-26T15:17:26.338Z</ql:time>
     <ql:comment>Abstandsalarm geändert</ql:comment>
    </ql:event>
    <ql:event>
     <ql:icon>://icons/48x48/WptMove.png</ql:icon>
     <ql:time>2020-07-26T15:17:35.581Z</ql:time>
     <ql:comment>Position geändert</ql:comment>
    </ql:event>
   </ql:history>
   <wptx1:WaypointExtension>
    <wptx1:Proximity>10.00000000</wptx1:Proximity>
   </wptx1:WaypointExtension>
  </extensions>
 </wpt>
 <wpt lat="50.97819009" lon="13.83427754">
  <ele>194</ele>
  <time>2020-07-26T15:18:04.991Z</time>
  <name>Wegpunkt 2 Rechts</name>
  <sym>Flag, Blue</sym>
  <extensions>
   <ql:key>ee59814e5974c50ba278be305bc0cb1f</ql:key>
   <ql:flags>3</ql:flags>
   <ql:bubble yoff="-150" xoff="-320" width="300"/>
   <ql:history>
    <ql:event>
     <ql:icon>://icons/48x48/Start.png</ql:icon>
     <ql:time>2020-07-26T15:18:04.992Z</ql:time>
     <ql:comment>Erstversion.</ql:comment>
    </ql:event>
    <ql:event>
     <ql:icon>://icons/48x48/WptEditProx.png</ql:icon>
     <ql:time>2020-07-26T15:18:07.386Z</ql:time>
     <ql:comment>Abstandsalarm geändert</ql:comment>
    </ql:event>
    <ql:event>
     <ql:icon>://icons/48x48/WptMove.png</ql:icon>
     <ql:time>2020-07-26T15:19:08.595Z</ql:time>
     <ql:comment>Position geändert</ql:comment>
    </ql:event>
    <ql:event>
     <ql:icon>://icons/48x48/WptMove.png</ql:icon>
     <ql:time>2020-07-26T15:19:42.403Z</ql:time>
     <ql:comment>Position geändert</ql:comment>
    </ql:event>
   </ql:history>
   <wptx1:WaypointExtension>
    <wptx1:Proximity>10.00000000</wptx1:Proximity>
   </wptx1:WaypointExtension>
  </extensions>
 </wpt>
 <wpt lat="50.97746667" lon="13.83381667">
  <ele>204</ele>
  <time>2020-07-26T15:20:01.046Z</time>
  <name>Wegpunkt 3 Hier</name>
  <sym>Flag, Blue</sym>
  <extensions>
   <ql:key>512158b7df4c48c7bba41c8ddebb549c</ql:key>
   <ql:flags>3</ql:flags>
   <ql:bubble yoff="-150" xoff="-320" width="300"/>
   <ql:history>
    <ql:event>
     <ql:icon>://icons/48x48/Start.png</ql:icon>
     <ql:time>2020-07-26T15:20:01.046Z</ql:time>
     <ql:comment>Erstversion.</ql:comment>
    </ql:event>
    <ql:event>
     <ql:icon>://icons/48x48/WptEditProx.png</ql:icon>
     <ql:time>2020-07-26T15:20:03.360Z</ql:time>
     <ql:comment>Abstandsalarm geändert</ql:comment>
    </ql:event>
   </ql:history>
   <wptx1:WaypointExtension>
    <wptx1:Proximity>10.00000000</wptx1:Proximity>
   </wptx1:WaypointExtension>
  </extensions>
 </wpt>
 <wpt lat="50.97006667" lon="13.80288333">
  <ele>235</ele>
  <time>2020-07-26T15:21:36.393Z</time>
  <name>Wegpunkt 4 Hier</name>
  <sym>Flag, Blue</sym>
  <extensions>
   <ql:key>adab7b5fee632fd8bda39dcfee962460</ql:key>
   <ql:flags>3</ql:flags>
   <ql:bubble yoff="-150" xoff="-320" width="300"/>
   <ql:history>
    <ql:event>
     <ql:icon>://icons/48x48/Start.png</ql:icon>
     <ql:time>2020-07-26T15:21:36.393Z</ql:time>
     <ql:comment>Erstversion.</ql:comment>
    </ql:event>
    <ql:event>
     <ql:icon>://icons/48x48/WptEditProx.png</ql:icon>
     <ql:time>2020-07-26T15:21:41.778Z</ql:time>
     <ql:comment>Abstandsalarm geändert</ql:comment>
    </ql:event>
   </ql:history>
   <wptx1:WaypointExtension>
    <wptx1:Proximity>10.00000000</wptx1:Proximity>
   </wptx1:WaypointExtension>
  </extensions>
 </wpt>
 <wpt lat="50.96595000" lon="13.80855000">
  <ele>236</ele>
  <time>2020-07-26T15:22:22.637Z</time>
  <name>Wegpunkt 5 Hier</name>
  <sym>Flag, Blue</sym>
  <extensions>
   <ql:key>d83f79ad0e56933b9b1634150beac23b</ql:key>
   <ql:flags>3</ql:flags>
   <ql:bubble yoff="-150" xoff="-320" width="300"/>
   <ql:history>
    <ql:event>
     <ql:icon>://icons/48x48/Start.png</ql:icon>
     <ql:time>2020-07-26T15:22:22.638Z</ql:time>
     <ql:comment>Erstversion.</ql:comment>
    </ql:event>
    <ql:event>
     <ql:icon>://icons/48x48/WptEditProx.png</ql:icon>
     <ql:time>2020-07-26T15:22:25.290Z</ql:time>
     <ql:comment>Abstandsalarm geändert</ql:comment>
    </ql:event>
   </ql:history>
   <wptx1:WaypointExtension>
    <wptx1:Proximity>10.00000000</wptx1:Proximity>
   </wptx1:WaypointExtension>
  </extensions>
 </wpt>
 <wpt lat="50.96288333" lon="13.80120000">
  <ele>239</ele>
  <time>2020-07-26T15:23:07.432Z</time>
  <name>Wegpunkt 6 Rechts</name>
  <sym>Flag, Blue</sym>
  <extensions>
   <ql:key>859ebba87b8772ed2eb1bdad7532686c</ql:key>
   <ql:flags>3</ql:flags>
   <ql:bubble yoff="-150" xoff="-320" width="300"/>
   <ql:history>
    <ql:event>
     <ql:icon>://icons/48x48/Start.png</ql:icon>
     <ql:time>2020-07-26T15:23:07.433Z</ql:time>
     <ql:comment>Erstversion.</ql:comment>
    </ql:event>
    <ql:event>
     <ql:icon>://icons/48x48/WptEditProx.png</ql:icon>
     <ql:time>2020-07-26T15:23:10.721Z</ql:time>
     <ql:comment>Abstandsalarm geändert</ql:comment>
    </ql:event>
   </ql:history>
   <wptx1:WaypointExtension>
    <wptx1:Proximity>10.00000000</wptx1:Proximity>
   </wptx1:WaypointExtension>
  </extensions>
 </wpt>
 <wpt lat="50.95445000" lon="13.80026667">
  <ele>282</ele>
  <time>2020-07-26T15:25:53.849Z</time>
  <name>Wegpunkt 7 Hier</name>
  <sym>Flag, Blue</sym>
  <extensions>
   <ql:key>7602b1baab4c5dad03f1c7902af068f5</ql:key>
   <ql:flags>3</ql:flags>
   <ql:bubble yoff="-150" xoff="-320" width="300"/>
   <ql:history>
    <ql:event>
     <ql:icon>://icons/48x48/Start.png</ql:icon>
     <ql:time>2020-07-26T15:25:53.850Z</ql:time>
     <ql:comment>Erstversion.</ql:comment>
    </ql:event>
    <ql:event>
     <ql:icon>://icons/48x48/WptEditProx.png</ql:icon>
     <ql:time>2020-07-26T15:25:56.722Z</ql:time>
     <ql:comment>Abstandsalarm geändert</ql:comment>
    </ql:event>
   </ql:history>
   <wptx1:WaypointExtension>
    <wptx1:Proximity>10.00000000</wptx1:Proximity>
   </wptx1:WaypointExtension>
  </extensions>
 </wpt>
 <wpt lat="50.95178333" lon="13.80063333">
  <ele>289</ele>
  <time>2020-07-26T15:26:54.071Z</time>
  <name>Wegpunkt 8 Links</name>
  <sym>Flag, Blue</sym>
  <extensions>
   <ql:key>e77228aada7b4af09e9e44e2bd525119</ql:key>
   <ql:flags>3</ql:flags>
   <ql:bubble yoff="-150" xoff="-320" width="300"/>
   <ql:history>
    <ql:event>
     <ql:icon>://icons/48x48/Start.png</ql:icon>
     <ql:time>2020-07-26T15:26:54.071Z</ql:time>
     <ql:comment>Erstversion.</ql:comment>
    </ql:event>
    <ql:event>
     <ql:icon>://icons/48x48/WptEditProx.png</ql:icon>
     <ql:time>2020-07-26T15:26:57.993Z</ql:time>
     <ql:comment>Abstandsalarm geändert</ql:comment>
    </ql:event>
    <ql:event>
     <ql:icon>://icons/48x48/WptEditProx.png</ql:icon>
     <ql:time>2020-07-26T15:27:00.730Z</ql:time>
     <ql:comment>Abstandsalarm geändert</ql:comment>
    </ql:event>
    <ql:event>
     <ql:icon>://icons/48x48/WptEditProx.png</ql:icon>
     <ql:time>2020-07-26T15:27:06.001Z</ql:time>
     <ql:comment>Abstandsalarm geändert</ql:comment>
    </ql:event>
    <ql:event>
     <ql:icon>://icons/48x48/EditText.png</ql:icon>
     <ql:time>2020-07-26T15:27:30.599Z</ql:time>
     <ql:comment>Name geändert</ql:comment>
    </ql:event>
   </ql:history>
   <wptx1:WaypointExtension>
    <wptx1:Proximity>10.00000000</wptx1:Proximity>
   </wptx1:WaypointExtension>
  </extensions>
 </wpt>
 <wpt lat="50.94783240" lon="13.79826754">
  <ele>294</ele>
  <time>2020-07-26T15:28:08.918Z</time>
  <name>Wegpunkt 9 Rechts</name>
  <sym>Flag, Blue</sym>
  <extensions>
   <ql:key>ca7d5bc995eba3d2357ecfb0552dda15</ql:key>
   <ql:flags>3</ql:flags>
   <ql:bubble yoff="-150" xoff="-320" width="300"/>
   <ql:history>
    <ql:event>
     <ql:icon>://icons/48x48/Start.png</ql:icon>
     <ql:time>2020-07-26T15:28:08.918Z</ql:time>
     <ql:comment>Erstversion.</ql:comment>
    </ql:event>
    <ql:event>
     <ql:icon>://icons/48x48/WptEditProx.png</ql:icon>
     <ql:time>2020-07-26T15:28:12.219Z</ql:time>
     <ql:comment>Abstandsalarm geändert</ql:comment>
    </ql:event>
    <ql:event>
     <ql:icon>://icons/48x48/WptEditProx.png</ql:icon>
     <ql:time>2020-07-26T15:28:16.332Z</ql:time>
     <ql:comment>Abstandsalarm geändert</ql:comment>
    </ql:event>
    <ql:event>
     <ql:icon>://icons/48x48/WptMove.png</ql:icon>
     <ql:time>2020-07-26T15:28:23.766Z</ql:time>
     <ql:comment>Position geändert</ql:comment>
    </ql:event>
    <ql:event>
     <ql:icon>://icons/48x48/EditText.png</ql:icon>
     <ql:time>2020-07-26T15:31:02.093Z</ql:time>
     <ql:comment>Name geändert</ql:comment>
    </ql:event>
   </ql:history>
   <wptx1:WaypointExtension>
    <wptx1:Proximity>10.00000000</wptx1:Proximity>
   </wptx1:WaypointExtension>
  </extensions>
 </wpt>
 <wpt lat="50.94997405" lon="13.79472569">
  <ele>295</ele>
  <time>2020-07-26T15:30:24.490Z</time>
  <name>Wegpunkt 10 Hier</name>
  <sym>Flag, Blue</sym>
  <extensions>
   <ql:key>84181c1949e9a411e190aba8d3f0e387</ql:key>
   <ql:flags>3</ql:flags>
   <ql:bubble yoff="-150" xoff="-320" width="300"/>
   <ql:history>
    <ql:event>
     <ql:icon>://icons/48x48/Start.png</ql:icon>
     <ql:time>2020-07-26T15:30:24.490Z</ql:time>
     <ql:comment>Erstversion.</ql:comment>
    </ql:event>
    <ql:event>
     <ql:icon>://icons/48x48/WptEditProx.png</ql:icon>
     <ql:time>2020-07-26T15:30:26.907Z</ql:time>
     <ql:comment>Abstandsalarm geändert</ql:comment>
    </ql:event>
    <ql:event>
     <ql:icon>://icons/48x48/WptMove.png</ql:icon>
     <ql:time>2020-07-26T15:30:38.902Z</ql:time>
     <ql:comment>Position geändert</ql:comment>
    </ql:event>
   </ql:history>
   <wptx1:WaypointExtension>
    <wptx1:Proximity>10.00000000</wptx1:Proximity>
   </wptx1:WaypointExtension>
  </extensions>
 </wpt>
 <wpt lat="50.95810000" lon="13.78385000">
  <ele>285</ele>
  <time>2020-07-26T15:33:49.666Z</time>
  <name>Wegpunkt 11 Hier</name>
  <sym>Flag, Blue</sym>
  <extensions>
   <ql:key>3b0f6c1065ca3356626890e9525eff71</ql:key>
   <ql:flags>3</ql:flags>
   <ql:bubble yoff="-150" xoff="-320" width="300"/>
   <ql:history>
    <ql:event>
     <ql:icon>://icons/48x48/Start.png</ql:icon>
     <ql:time>2020-07-26T15:33:49.666Z</ql:time>
     <ql:comment>Erstversion.</ql:comment>
    </ql:event>
    <ql:event>
     <ql:icon>://icons/48x48/WptEditProx.png</ql:icon>
     <ql:time>2020-07-26T15:33:53.513Z</ql:time>
     <ql:comment>Abstandsalarm geändert</ql:comment>
    </ql:event>
    <ql:event>
     <ql:icon>://icons/48x48/EditText.png</ql:icon>
     <ql:time>2020-07-26T15:37:56.571Z</ql:time>
     <ql:comment>Name geändert</ql:comment>
    </ql:event>
   </ql:history>
   <wptx1:WaypointExtension>
    <wptx1:Proximity>10.00000000</wptx1:Proximity>
   </wptx1:WaypointExtension>
  </extensions>
 </wpt>
 <wpt lat="50.96568333" lon="13.79291667">
  <ele>261</ele>
  <time>2020-07-26T15:35:19.066Z</time>
  <name>Wegpunkt 12 Links</name>
  <sym>Flag, Blue</sym>
  <extensions>
   <ql:key>8a90592297e3957fcd09ce0d62de9127</ql:key>
   <ql:flags>3</ql:flags>
   <ql:bubble yoff="-150" xoff="-320" width="300"/>
   <ql:history>
    <ql:event>
     <ql:icon>://icons/48x48/Start.png</ql:icon>
     <ql:time>2020-07-26T15:35:19.066Z</ql:time>
     <ql:comment>Erstversion.</ql:comment>
    </ql:event>
    <ql:event>
     <ql:icon>://icons/48x48/WptEditProx.png</ql:icon>
     <ql:time>2020-07-26T15:35:23.889Z</ql:time>
     <ql:comment>Abstandsalarm geändert</ql:comment>
    </ql:event>
    <ql:event>
     <ql:icon>://icons/48x48/EditText.png</ql:icon>
     <ql:time>2020-07-26T15:38:19.132Z</ql:time>
     <ql:comment>Name geändert</ql:comment>
    </ql:event>
   </ql:history>
   <wptx1:WaypointExtension>
    <wptx1:Proximity>10.00000000</wptx1:Proximity>
   </wptx1:WaypointExtension>
  </extensions>
 </wpt>
 <wpt lat="50.97027968" lon="13.79083984">
  <ele>256</ele>
  <time>2020-07-26T15:36:35.107Z</time>
  <name>Wegpunkt 13 Hier</name>
  <sym>Flag, Blue</sym>
  <extensions>
   <ql:key>11569b35ea8058798c5cb88e6e2c4500</ql:key>
   <ql:flags>3</ql:flags>
   <ql:bubble yoff="-150" xoff="-320" width="300"/>
   <ql:history>
    <ql:event>
     <ql:icon>://icons/48x48/Start.png</ql:icon>
     <ql:time>2020-07-26T15:36:35.107Z</ql:time>
     <ql:comment>Erstversion.</ql:comment>
    </ql:event>
    <ql:event>
     <ql:icon>://icons/48x48/WptEditProx.png</ql:icon>
     <ql:time>2020-07-26T15:36:37.770Z</ql:time>
     <ql:comment>Abstandsalarm geändert</ql:comment>
    </ql:event>
    <ql:event>
     <ql:icon>://icons/48x48/WptMove.png</ql:icon>
     <ql:time>2020-07-26T15:36:42.719Z</ql:time>
     <ql:comment>Position geändert</ql:comment>
    </ql:event>
    <ql:event>
     <ql:icon>://icons/48x48/EditText.png</ql:icon>
     <ql:time>2020-07-26T15:38:36.084Z</ql:time>
     <ql:comment>Name geändert</ql:comment>
    </ql:event>
   </ql:history>
   <wptx1:WaypointExtension>
    <wptx1:Proximity>10.00000000</wptx1:Proximity>
   </wptx1:WaypointExtension>
  </extensions>
 </wpt>
 <wpt lat="50.97118333" lon="13.78338333">
  <ele>248</ele>
  <time>2020-07-26T15:37:30.804Z</time>
  <name>Wegpunkt 14 Rechts</name>
  <sym>Flag, Blue</sym>
  <extensions>
   <ql:key>ad1c2878e5036e535ce1ee655825f6b5</ql:key>
   <ql:flags>3</ql:flags>
   <ql:bubble yoff="-150" xoff="-320" width="300"/>
   <ql:history>
    <ql:event>
     <ql:icon>://icons/48x48/Start.png</ql:icon>
     <ql:time>2020-07-26T15:37:30.804Z</ql:time>
     <ql:comment>Erstversion.</ql:comment>
    </ql:event>
    <ql:event>
     <ql:icon>://icons/48x48/WptEditProx.png</ql:icon>
     <ql:time>2020-07-26T15:37:33.619Z</ql:time>
     <ql:comment>Abstandsalarm geändert</ql:comment>
    </ql:event>
   </ql:history>
   <wptx1:WaypointExtension>
    <wptx1:Proximity>10.00000000</wptx1:Proximity>
   </wptx1:WaypointExtension>
  </extensions>
 </wpt>
 <wpt lat="50.97733333" lon="13.79475000">
  <ele>172</ele>
  <time>2020-07-26T15:39:57.568Z</time>
  <name>Wegpunkt 15 Hier</name>
  <sym>Flag, Blue</sym>
  <extensions>
   <ql:key>4e2ae5b93dd434cf4bfcedaa80aa4598</ql:key>
   <ql:flags>3</ql:flags>
   <ql:bubble yoff="-150" xoff="-320" width="300"/>
   <ql:history>
    <ql:event>
     <ql:icon>://icons/48x48/Start.png</ql:icon>
     <ql:time>2020-07-26T15:39:57.569Z</ql:time>
     <ql:comment>Erstversion.</ql:comment>
    </ql:event>
    <ql:event>
     <ql:icon>://icons/48x48/WptEditProx.png</ql:icon>
     <ql:time>2020-07-26T15:40:00.577Z</ql:time>
     <ql:comment>Abstandsalarm geändert</ql:comment>
    </ql:event>
   </ql:history>
   <wptx1:WaypointExtension>
    <wptx1:Proximity>10.00000000</wptx1:Proximity>
   </wptx1:WaypointExtension>
  </extensions>
 </wpt>
 <wpt lat="50.97831667" lon="13.79753333">
  <ele>189</ele>
  <time>2020-07-26T15:40:38.390Z</time>
  <name>Wegpunkt 16 Hier</name>
  <sym>Flag, Blue</sym>
  <extensions>
   <ql:key>12a9735dc7a74d9705ce0fc139841dd4</ql:key>
   <ql:flags>3</ql:flags>
   <ql:bubble yoff="-150" xoff="-320" width="300"/>
   <ql:history>
    <ql:event>
     <ql:icon>://icons/48x48/Start.png</ql:icon>
     <ql:time>2020-07-26T15:40:38.391Z</ql:time>
     <ql:comment>Erstversion.</ql:comment>
    </ql:event>
    <ql:event>
     <ql:icon>://icons/48x48/WptEditProx.png</ql:icon>
     <ql:time>2020-07-26T15:40:43.561Z</ql:time>
     <ql:comment>Abstandsalarm geändert</ql:comment>
    </ql:event>
   </ql:history>
   <wptx1:WaypointExtension>
    <wptx1:Proximity>10.00000000</wptx1:Proximity>
   </wptx1:WaypointExtension>
  </extensions>
 </wpt>
 <wpt lat="50.98733333" lon="13.80660000">
  <ele>140</ele>
  <time>2020-07-26T15:41:30.648Z</time>
  <name>Wegpunkt 17 Hier</name>
  <sym>Flag, Blue</sym>
  <extensions>
   <ql:key>f465538246af015802ba4c5c29b4e152</ql:key>
   <ql:flags>3</ql:flags>
   <ql:bubble yoff="-150" xoff="-320" width="300"/>
   <ql:history>
    <ql:event>
     <ql:icon>://icons/48x48/Start.png</ql:icon>
     <ql:time>2020-07-26T15:41:30.648Z</ql:time>
     <ql:comment>Erstversion.</ql:comment>
    </ql:event>
    <ql:event>
     <ql:icon>://icons/48x48/WptEditProx.png</ql:icon>
     <ql:time>2020-07-26T15:41:34.181Z</ql:time>
     <ql:comment>Abstandsalarm geändert</ql:comment>
    </ql:event>
   </ql:history>
   <wptx1:WaypointExtension>
    <wptx1:Proximity>10.00000000</wptx1:Proximity>
   </wptx1:WaypointExtension>
  </extensions>
 </wpt>
 <trk>
  <name>Track</name>
  <extensions>
   <ql:key>b59b009278a39d8a0f79c58c25d0d671</ql:key>
   <ql:flags>7</ql:flags>
   <ql:history>
    <ql:event>
     <ql:icon>://icons/48x48/Start.png</ql:icon>
     <ql:time>2020-06-23T15:40:07.461Z</ql:time>
     <ql:comment>Erstversion.</ql:comment>
    </ql:event>
    <ql:event>
     <ql:icon>://icons/48x48/ActFoot.png</ql:icon>
     <ql:time>2020-06-30T16:40:49.349Z</ql:time>
     <ql:comment>Die Aktivität wurde für den gesamten Track auf 'Fußgänger' geändert.</ql:comment>
    </ql:event>
    <ql:event>
     <ql:icon>://icons/48x48/LineMove.png</ql:icon>
     <ql:time>2020-07-26T15:25:05.529Z</ql:time>
     <ql:comment>Wegpunkte geändert, alle vorherigen Daten sind verloren.</ql:comment>
    </ql:event>
   </ql:history>
   <gpxx:TrackExtension>
    <gpxx:DisplayColor>DarkBlue</gpxx:DisplayColor>
   </gpxx:TrackExtension>
  </extensions>
  <trkseg>
   <trkpt lat="50.98551978" lon="13.83212109">
    <ele>128</ele>
    <extensions>
     <ql:flags>0</ql:flags>
    </extensions>
   </trkpt>
   <trkpt lat="50.98542452" lon="13.83219481">
    <ele>128</ele>
    <extensions>
     <ql:flags>8</ql:flags>
    </extensions>
   </trkpt>
   <trkpt lat="50.98508120" lon="13.83247375">
    <ele>128</ele>
    <extensions>
     <ql:flags>8</ql:flags>
    </extensions>
   </trkpt>
   <trkpt lat="50.98495245" lon="13.83260250">
    <ele>128</ele>
    <extensions>
     <ql:flags>8</ql:flags>
    </extensions>
   </trkpt>
   <trkpt lat="50.98467350" lon="13.83243084">
    <ele>129</ele>
    <extensions>
     <ql:flags>8</ql:flags>
    </extensions>
   </trkpt>
   <trkpt lat="50.98454375" lon="13.83239199">
    <ele>130</ele>
    <extensions>
     <ql:flags>0</ql:flags>
    </extensions>
   </trkpt>
   <trkpt lat="50.98471644" lon="13.83185152">
    <ele>130</ele>
    <extensions>
     <ql:flags>0</ql:flags>
    </extensions>
   </trkpt>
   <trkpt lat="50.98366499" lon="13.83069277">
    <ele>142</ele>
    <extensions>
     <ql:flags>8</ql:flags>
    </extensions>
   </trkpt>
   <trkpt lat="50.98325729" lon="13.83019924">
    <ele>146</ele>
    <extensions>
     <ql:flags>8</ql:flags>
    </extensions>
   </trkpt>
   <trkpt lat="50.98315001" lon="13.83002758">
    <ele>146</ele>
    <extensions>
     <ql:flags>8</ql:flags>
    </extensions>
   </trkpt>
   <trkpt lat="50.98310718" lon="13.82990290">
    <ele>147</ele>
    <extensions>
     <ql:flags>0</ql:flags>
    </extensions>
   </trkpt>
   <trkpt lat="50.98278522" lon="13.82985592">
    <ele>149</ele>
    <extensions>
     <ql:flags>8</ql:flags>
    </extensions>
   </trkpt>
   <trkpt lat="50.98274231" lon="13.82987738">
    <ele>149</ele>
    <extensions>
     <ql:flags>8</ql:flags>
    </extensions>
   </trkpt>
   <trkpt lat="50.98267794" lon="13.82994175">
    <ele>149</ele>
    <extensions>
     <ql:flags>8</ql:flags>
    </extensions>
   </trkpt>
   <trkpt lat="50.98261356" lon="13.83002758">
    <ele>150</ele>
    <extensions>
     <ql:flags>8</ql:flags>
    </extensions>
   </trkpt>
   <trkpt lat="50.98259211" lon="13.83009195">
    <ele>150</ele>
    <extensions>
     <ql:flags>8</ql:flags>
    </extensions>
   </trkpt>
   <trkpt lat="50.98248482" lon="13.83039236">
    <ele>151</ele>
    <extensions>
     <ql:flags>8</ql:flags>
    </extensions>
   </trkpt>
   <trkpt lat="50.98244433" lon="13.83043129">
    <ele>152</ele>
    <extensions>
     <ql:flags>0</ql:flags>
    </extensions>
   </trkpt>
   <trkpt lat="50.98231316" lon="13.83047819">
    <ele>153</ele>
    <extensions>
     <ql:flags>8</ql:flags>
    </extensions>
   </trkpt>
   <trkpt lat="50.98229449" lon="13.83047957">
    <ele>153</ele>
    <extensions>
     <ql:flags>0</ql:flags>
    </extensions>
   </trkpt>
   <trkpt lat="50.98224878" lon="13.83054256">
    <ele>153</ele>
    <extensions>
     <ql:flags>8</ql:flags>
    </extensions>
   </trkpt>
   <trkpt lat="50.98216295" lon="13.83060694">
    <ele>154</ele>
    <extensions>
     <ql:flags>8</ql:flags>
    </extensions>
   </trkpt>
   <trkpt lat="50.98205566" lon="13.83077860">
    <ele>155</ele>
    <extensions>
     <ql:flags>8</ql:flags>
    </extensions>
   </trkpt>
   <trkpt lat="50.98196983" lon="13.83101463">
    <ele>156</ele>
    <extensions>
     <ql:flags>8</ql:flags>
    </extensions>
   </trkpt>
   <trkpt lat="50.98188645" lon="13.83118500">
    <ele>157</ele>
    <extensions>
     <ql:flags>0</ql:flags>
    </extensions>
   </trkpt>
   <trkpt lat="50.98132610" lon="13.83114338">
    <ele>164</ele>
    <extensions>
     <ql:flags>8</ql:flags>
    </extensions>
   </trkpt>
   <trkpt lat="50.98107627" lon="13.83114208">
    <ele>168</ele>
    <extensions>
     <ql:flags>0</ql:flags>
    </extensions>
   </trkpt>
   <trkpt lat="50.98098278" lon="13.83116484">
    <ele>170</ele>
    <extensions>
     <ql:flags>8</ql:flags>
    </extensions>
   </trkpt>
   <trkpt lat="50.98091841" lon="13.83118629">
    <ele>171</ele>
    <extensions>
     <ql:flags>8</ql:flags>
    </extensions>
   </trkpt>
   <trkpt lat="50.98083258" lon="13.83125067">
    <ele>173</ele>
    <extensions>
     <ql:flags>8</ql:flags>
    </extensions>
   </trkpt>
   <trkpt lat="50.98068237" lon="13.83144379">
    <ele>175</ele>
    <extensions>
     <ql:flags>8</ql:flags>
    </extensions>
   </trkpt>
   <trkpt lat="50.98059654" lon="13.83150816">
    <ele>177</ele>
    <extensions>
     <ql:flags>8</ql:flags>
    </extensions>
   </trkpt>
   <trkpt lat="50.98053217" lon="13.83155107">
    <ele>178</ele>
    <extensions>
     <ql:flags>8</ql:flags>
    </extensions>
   </trkpt>
   <trkpt lat="50.98051071" lon="13.83159399">
    <ele>178</ele>
    <extensions>
     <ql:flags>8</ql:flags>
    </extensions>
   </trkpt>
   <trkpt lat="50.98048925" lon="13.83228064">
    <ele>179</ele>
    <extensions>
     <ql:flags>8</ql:flags>
    </extensions>
   </trkpt>
   <trkpt lat="50.98044634" lon="13.83249521">
    <ele>179</ele>
    <extensions>
     <ql:flags>8</ql:flags>
    </extensions>
   </trkpt>
   <trkpt lat="50.98018885" lon="13.83292437">
    <ele>184</ele>
    <extensions>
     <ql:flags>8</ql:flags>
    </extensions>
   </trkpt>
   <trkpt lat="50.98010302" lon="13.83322477">
    <ele>184</ele>
    <extensions>
     <ql:flags>8</ql:flags>
    </extensions>
   </trkpt>
   <trkpt lat="50.98002650" lon="13.83326505">
    <ele>185</ele>
    <extensions>
     <ql:flags>0</ql:flags>
    </extensions>
   </trkpt>
   <trkpt lat="50.97995281" lon="13.83326769">
    <ele>186</ele>
    <extensions>
     <ql:flags>8</ql:flags>
    </extensions>
   </trkpt>
   <trkpt lat="50.97950499" lon="13.83309875">
    <ele>194</ele>
    <extensions>
     <ql:flags>0</ql:flags>
    </extensions>
   </trkpt>
   <trkpt lat="50.97943783" lon="13.83335352">
    <ele>196</ele>
    <extensions>
     <ql:flags>8</ql:flags>
    </extensions>
   </trkpt>
   <trkpt lat="50.97937346" lon="13.83350372">
    <ele>197</ele>
    <extensions>
     <ql:flags>8</ql:flags>
    </extensions>
   </trkpt>
   <trkpt lat="50.97933054" lon="13.83358955">
    <ele>197</ele>
    <extensions>
     <ql:flags>8</ql:flags>
    </extensions>
   </trkpt>
   <trkpt lat="50.97928762" lon="13.83365393">
    <ele>198</ele>
    <extensions>
     <ql:flags>8</ql:flags>
    </extensions>
   </trkpt>
   <trkpt lat="50.97885847" lon="13.83408308">
    <ele>204</ele>
    <extensions>
     <ql:flags>8</ql:flags>
    </extensions>
   </trkpt>
   <trkpt lat="50.97847223" lon="13.83438349">
    <ele>206</ele>
    <extensions>
     <ql:flags>8</ql:flags>
    </extensions>
   </trkpt>
   <trkpt lat="50.97834349" lon="13.83442640">
    <ele>206</ele>
    <extensions>
     <ql:flags>8</ql:flags>
    </extensions>
   </trkpt>
   <trkpt lat="50.97832203" lon="13.83442640">
    <ele>206</ele>
    <extensions>
     <ql:flags>8</ql:flags>
    </extensions>
   </trkpt>
   <trkpt lat="50.97827911" lon="13.83442640">
    <ele>206</ele>
    <extensions>
     <ql:flags>8</ql:flags>
    </extensions>
   </trkpt>
   <trkpt lat="50.97817183" lon="13.83434057">
    <ele>206</ele>
    <extensions>
     <ql:flags>8</ql:flags>
    </extensions>
   </trkpt>
   <trkpt lat="50.97748831" lon="13.83387257">
    <ele>204</ele>
    <extensions>
     <ql:flags>0</ql:flags>
    </extensions>
   </trkpt>
   <trkpt lat="50.97748518" lon="13.83386850">
    <ele>204</ele>
    <extensions>
     <ql:flags>8</ql:flags>
    </extensions>
   </trkpt>
   <trkpt lat="50.97791433" lon="13.83264542">
    <ele>206</ele>
    <extensions>
     <ql:flags>8</ql:flags>
    </extensions>
   </trkpt>
   <trkpt lat="50.97812891" lon="13.83195877">
    <ele>205</ele>
    <extensions>
     <ql:flags>8</ql:flags>
    </extensions>
   </trkpt>
   <trkpt lat="50.97823620" lon="13.83157253">
    <ele>205</ele>
    <extensions>
     <ql:flags>8</ql:flags>
    </extensions>
   </trkpt>
   <trkpt lat="50.97830057" lon="13.83140087">
    <ele>204</ele>
    <extensions>
     <ql:flags>8</ql:flags>
    </extensions>
   </trkpt>
   <trkpt lat="50.97830363" lon="13.83118902">
    <ele>204</ele>
    <extensions>
     <ql:flags>0</ql:flags>
    </extensions>
   </trkpt>
   <trkpt lat="50.97782850" lon="13.83095026">
    <ele>204</ele>
    <extensions>
     <ql:flags>8</ql:flags>
    </extensions>
   </trkpt>
   <trkpt lat="50.97748518" lon="13.83084297">
    <ele>205</ele>
    <extensions>
     <ql:flags>8</ql:flags>
    </extensions>
   </trkpt>
   <trkpt lat="50.97712040" lon="13.83073568">
    <ele>205</ele>
    <extensions>
     <ql:flags>8</ql:flags>
    </extensions>
   </trkpt>
   <trkpt lat="50.97656460" lon="13.83071427">
    <ele>205</ele>
    <extensions>
     <ql:flags>0</ql:flags>
    </extensions>
   </trkpt>
   <trkpt lat="50.97647667" lon="13.83071423">
    <ele>205</ele>
    <extensions>
     <ql:flags>8</ql:flags>
    </extensions>
   </trkpt>
   <trkpt lat="50.97555399" lon="13.83084297">
    <ele>204</ele>
    <extensions>
     <ql:flags>8</ql:flags>
    </extensions>
   </trkpt>
   <trkpt lat="50.97540379" lon="13.83084297">
    <ele>204</ele>
    <extensions>
     <ql:flags>8</ql:flags>
    </extensions>
   </trkpt>
   <trkpt lat="50.97523212" lon="13.83067131">
    <ele>203</ele>
    <extensions>
     <ql:flags>8</ql:flags>
    </extensions>
   </trkpt>
   <trkpt lat="50.97501755" lon="13.83032799">
    <ele>202</ele>
    <extensions>
     <ql:flags>8</ql:flags>
    </extensions>
   </trkpt>
   <trkpt lat="50.97478151" lon="13.82985592">
    <ele>202</ele>
    <extensions>
     <ql:flags>8</ql:flags>
    </extensions>
   </trkpt>
   <trkpt lat="50.97463131" lon="13.82949114">
    <ele>201</ele>
    <extensions>
     <ql:flags>8</ql:flags>
    </extensions>
   </trkpt>
   <trkpt lat="50.97452402" lon="13.82908344">
    <ele>202</ele>
    <extensions>
     <ql:flags>8</ql:flags>
    </extensions>
   </trkpt>
   <trkpt lat="50.97441673" lon="13.82858992">
    <ele>203</ele>
    <extensions>
     <ql:flags>8</ql:flags>
    </extensions>
   </trkpt>
   <trkpt lat="50.97428955" lon="13.82784296">
    <ele>204</ele>
    <extensions>
     <ql:flags>0</ql:flags>
    </extensions>
   </trkpt>
   <trkpt lat="50.97424507" lon="13.82764578">
    <ele>204</ele>
    <extensions>
     <ql:flags>8</ql:flags>
    </extensions>
   </trkpt>
   <trkpt lat="50.97398758" lon="13.82635832">
    <ele>204</ele>
    <extensions>
     <ql:flags>8</ql:flags>
    </extensions>
   </trkpt>
   <trkpt lat="50.97373009" lon="13.82567167">
    <ele>204</ele>
    <extensions>
     <ql:flags>8</ql:flags>
    </extensions>
   </trkpt>
   <trkpt lat="50.97287178" lon="13.82378340">
    <ele>205</ele>
    <extensions>
     <ql:flags>8</ql:flags>
    </extensions>
   </trkpt>
   <trkpt lat="50.97231388" lon="13.82271051">
    <ele>207</ele>
    <extensions>
     <ql:flags>8</ql:flags>
    </extensions>
   </trkpt>
   <trkpt lat="50.97214394" lon="13.82228543">
    <ele>208</ele>
    <extensions>
     <ql:flags>0</ql:flags>
    </extensions>
   </trkpt>
   <trkpt lat="50.97209930" lon="13.82210970">
    <ele>208</ele>
    <extensions>
     <ql:flags>8</ql:flags>
    </extensions>
   </trkpt>
   <trkpt lat="50.97197056" lon="13.82176638">
    <ele>209</ele>
    <extensions>
     <ql:flags>8</ql:flags>
    </extensions>
   </trkpt>
   <trkpt lat="50.97182035" lon="13.82146597">
    <ele>209</ele>
    <extensions>
     <ql:flags>8</ql:flags>
    </extensions>
   </trkpt>
   <trkpt lat="50.97175598" lon="13.82140160">
    <ele>210</ele>
    <extensions>
     <ql:flags>8</ql:flags>
    </extensions>
   </trkpt>
   <trkpt lat="50.97173581" lon="13.82138420">
    <ele>210</ele>
    <extensions>
     <ql:flags>0</ql:flags>
    </extensions>
   </trkpt>
   <trkpt lat="50.97173412" lon="13.82138018">
    <ele>210</ele>
    <extensions>
     <ql:flags>0</ql:flags>
    </extensions>
   </trkpt>
   <trkpt lat="50.97119896" lon="13.82093091">
    <ele>211</ele>
    <extensions>
     <ql:flags>0</ql:flags>
    </extensions>
   </trkpt>
   <trkpt lat="50.97119558" lon="13.82092689">
    <ele>211</ele>
    <extensions>
     <ql:flags>0</ql:flags>
    </extensions>
   </trkpt>
   <trkpt lat="50.97115517" lon="13.82084370">
    <ele>211</ele>
    <extensions>
     <ql:flags>8</ql:flags>
    </extensions>
   </trkpt>
   <trkpt lat="50.97111225" lon="13.82069349">
    <ele>211</ele>
    <extensions>
     <ql:flags>8</ql:flags>
    </extensions>
   </trkpt>
   <trkpt lat="50.97111225" lon="13.82062912">
    <ele>211</ele>
    <extensions>
     <ql:flags>8</ql:flags>
    </extensions>
   </trkpt>
   <trkpt lat="50.97115517" lon="13.82050037">
    <ele>212</ele>
    <extensions>
     <ql:flags>8</ql:flags>
    </extensions>
   </trkpt>
   <trkpt lat="50.97130537" lon="13.82019997">
    <ele>212</ele>
    <extensions>
     <ql:flags>8</ql:flags>
    </extensions>
   </trkpt>
   <trkpt lat="50.97145557" lon="13.81985664">
    <ele>212</ele>
    <extensions>
     <ql:flags>8</ql:flags>
    </extensions>
   </trkpt>
   <trkpt lat="50.97169161" lon="13.81925583">
    <ele>213</ele>
    <extensions>
     <ql:flags>8</ql:flags>
    </extensions>
   </trkpt>
   <trkpt lat="50.97173452" lon="13.81908417">
    <ele>213</ele>
    <extensions>
     <ql:flags>8</ql:flags>
    </extensions>
   </trkpt>
   <trkpt lat="50.97173496" lon="13.81891523">
    <ele>213</ele>
    <extensions>
     <ql:flags>0</ql:flags>
    </extensions>
   </trkpt>
   <trkpt lat="50.97167015" lon="13.81768942">
    <ele>214</ele>
    <extensions>
     <ql:flags>8</ql:flags>
    </extensions>
   </trkpt>
   <trkpt lat="50.97164869" lon="13.81713152">
    <ele>215</ele>
    <extensions>
     <ql:flags>8</ql:flags>
    </extensions>
   </trkpt>
   <trkpt lat="50.97145557" lon="13.81552219">
    <ele>215</ele>
    <extensions>
     <ql:flags>8</ql:flags>
    </extensions>
   </trkpt>
   <trkpt lat="50.97145557" lon="13.81526470">
    <ele>215</ele>
    <extensions>
     <ql:flags>8</ql:flags>
    </extensions>
   </trkpt>
   <trkpt lat="50.97147703" lon="13.81509304">
    <ele>215</ele>
    <extensions>
     <ql:flags>8</ql:flags>
    </extensions>
   </trkpt>
   <trkpt lat="50.97156286" lon="13.81470680">
    <ele>215</ele>
    <extensions>
     <ql:flags>8</ql:flags>
    </extensions>
   </trkpt>
   <trkpt lat="50.97162724" lon="13.81453514">
    <ele>215</ele>
    <extensions>
     <ql:flags>8</ql:flags>
    </extensions>
   </trkpt>
   <trkpt lat="50.97188473" lon="13.81397724">
    <ele>214</ele>
    <extensions>
     <ql:flags>8</ql:flags>
    </extensions>
   </trkpt>
   <trkpt lat="50.97237825" lon="13.81314039">
    <ele>214</ele>
    <extensions>
     <ql:flags>8</ql:flags>
    </extensions>
   </trkpt>
   <trkpt lat="50.97239971" lon="13.81311893">
    <ele>213</ele>
    <extensions>
     <ql:flags>8</ql:flags>
    </extensions>
   </trkpt>
   <trkpt lat="50.97250700" lon="13.81283998">
    <ele>214</ele>
    <extensions>
     <ql:flags>8</ql:flags>
    </extensions>
   </trkpt>
   <trkpt lat="50.97259283" lon="13.81256104">
    <ele>214</ele>
    <extensions>
     <ql:flags>8</ql:flags>
    </extensions>
   </trkpt>
   <trkpt lat="50.97274428" lon="13.81168399">
    <ele>216</ele>
    <extensions>
     <ql:flags>0</ql:flags>
    </extensions>
   </trkpt>
   <trkpt lat="50.97287178" lon="13.81095171">
    <ele>218</ele>
    <extensions>
     <ql:flags>8</ql:flags>
    </extensions>
   </trkpt>
   <trkpt lat="50.97302198" lon="13.81017923">
    <ele>218</ele>
    <extensions>
     <ql:flags>8</ql:flags>
    </extensions>
   </trkpt>
   <trkpt lat="50.97317219" lon="13.80962133">
    <ele>218</ele>
    <extensions>
     <ql:flags>8</ql:flags>
    </extensions>
   </trkpt>
   <trkpt lat="50.97330143" lon="13.80917076">
    <ele>219</ele>
    <extensions>
     <ql:flags>0</ql:flags>
    </extensions>
   </trkpt>
   <trkpt lat="50.97349405" lon="13.80839825">
    <ele>219</ele>
    <extensions>
     <ql:flags>8</ql:flags>
    </extensions>
   </trkpt>
   <trkpt lat="50.97353697" lon="13.80803347">
    <ele>220</ele>
    <extensions>
     <ql:flags>8</ql:flags>
    </extensions>
   </trkpt>
   <trkpt lat="50.97351551" lon="13.80773306">
    <ele>220</ele>
    <extensions>
     <ql:flags>8</ql:flags>
    </extensions>
   </trkpt>
   <trkpt lat="50.97327942" lon="13.80659987">
    <ele>223</ele>
    <extensions>
     <ql:flags>0</ql:flags>
    </extensions>
   </trkpt>
   <trkpt lat="50.97319365" lon="13.80633831">
    <ele>223</ele>
    <extensions>
     <ql:flags>8</ql:flags>
    </extensions>
   </trkpt>
   <trkpt lat="50.97293615" lon="13.80603790">
    <ele>224</ele>
    <extensions>
     <ql:flags>8</ql:flags>
    </extensions>
   </trkpt>
   <trkpt lat="50.97257137" lon="13.80584478">
    <ele>226</ele>
    <extensions>
     <ql:flags>8</ql:flags>
    </extensions>
   </trkpt>
   <trkpt lat="50.97244263" lon="13.80584478">
    <ele>227</ele>
    <extensions>
     <ql:flags>8</ql:flags>
    </extensions>
   </trkpt>
   <trkpt lat="50.97218797" lon="13.80597223">
    <ele>228</ele>
    <extensions>
     <ql:flags>0</ql:flags>
    </extensions>
   </trkpt>
   <trkpt lat="50.97205639" lon="13.80552292">
    <ele>229</ele>
    <extensions>
     <ql:flags>8</ql:flags>
    </extensions>
   </trkpt>
   <trkpt lat="50.97203493" lon="13.80548000">
    <ele>229</ele>
    <extensions>
     <ql:flags>8</ql:flags>
    </extensions>
   </trkpt>
   <trkpt lat="50.97186327" lon="13.80483627">
    <ele>231</ele>
    <extensions>
     <ql:flags>8</ql:flags>
    </extensions>
   </trkpt>
   <trkpt lat="50.97171307" lon="13.80425692">
    <ele>231</ele>
    <extensions>
     <ql:flags>8</ql:flags>
    </extensions>
   </trkpt>
   <trkpt lat="50.97158432" lon="13.80391359">
    <ele>231</ele>
    <extensions>
     <ql:flags>8</ql:flags>
    </extensions>
   </trkpt>
   <trkpt lat="50.97132683" lon="13.80350590">
    <ele>231</ele>
    <extensions>
     <ql:flags>8</ql:flags>
    </extensions>
   </trkpt>
   <trkpt lat="50.97130650" lon="13.80342547">
    <ele>231</ele>
    <extensions>
     <ql:flags>0</ql:flags>
    </extensions>
   </trkpt>
   <trkpt lat="50.97115517" lon="13.80350590">
    <ele>232</ele>
    <extensions>
     <ql:flags>8</ql:flags>
    </extensions>
   </trkpt>
   <trkpt lat="50.97091913" lon="13.80359173">
    <ele>232</ele>
    <extensions>
     <ql:flags>8</ql:flags>
    </extensions>
   </trkpt>
   <trkpt lat="50.97072601" lon="13.80359173">
    <ele>233</ele>
    <extensions>
     <ql:flags>8</ql:flags>
    </extensions>
   </trkpt>
   <trkpt lat="50.97064517" lon="13.80352874">
    <ele>233</ele>
    <extensions>
     <ql:flags>0</ql:flags>
    </extensions>
   </trkpt>
   <trkpt lat="50.97051144" lon="13.80337715">
    <ele>233</ele>
    <extensions>
     <ql:flags>8</ql:flags>
    </extensions>
   </trkpt>
   <trkpt lat="50.97031832" lon="13.80299091">
    <ele>234</ele>
    <extensions>
     <ql:flags>8</ql:flags>
    </extensions>
   </trkpt>
   <trkpt lat="50.97027767" lon="13.80292658">
    <ele>234</ele>
    <extensions>
     <ql:flags>0</ql:flags>
    </extensions>
   </trkpt>
   <trkpt lat="50.97027540" lon="13.80292654">
    <ele>234</ele>
    <extensions>
     <ql:flags>8</ql:flags>
    </extensions>
   </trkpt>
   <trkpt lat="50.97014666" lon="13.80292654">
    <ele>234</ele>
    <extensions>
     <ql:flags>8</ql:flags>
    </extensions>
   </trkpt>
   <trkpt lat="50.97006083" lon="13.80292654">
    <ele>235</ele>
    <extensions>
     <ql:flags>8</ql:flags>
    </extensions>
   </trkpt>
   <trkpt lat="50.97001791" lon="13.80292654">
    <ele>235</ele>
    <extensions>
     <ql:flags>8</ql:flags>
    </extensions>
   </trkpt>
   <trkpt lat="50.96982972" lon="13.80290378">
    <ele>236</ele>
    <extensions>
     <ql:flags>0</ql:flags>
    </extensions>
   </trkpt>
   <trkpt lat="50.96954584" lon="13.80281925">
    <ele>237</ele>
    <extensions>
     <ql:flags>8</ql:flags>
    </extensions>
   </trkpt>
   <trkpt lat="50.96920394" lon="13.80269055">
    <ele>239</ele>
    <extensions>
     <ql:flags>0</ql:flags>
    </extensions>
   </trkpt>
   <trkpt lat="50.96887876" lon="13.80258460">
    <ele>240</ele>
    <extensions>
     <ql:flags>0</ql:flags>
    </extensions>
   </trkpt>
   <trkpt lat="50.96883774" lon="13.80275488">
    <ele>240</ele>
    <extensions>
     <ql:flags>8</ql:flags>
    </extensions>
   </trkpt>
   <trkpt lat="50.96855879" lon="13.80354881">
    <ele>240</ele>
    <extensions>
     <ql:flags>8</ql:flags>
    </extensions>
   </trkpt>
   <trkpt lat="50.96795797" lon="13.80543709">
    <ele>241</ele>
    <extensions>
     <ql:flags>8</ql:flags>
    </extensions>
   </trkpt>
   <trkpt lat="50.96782923" lon="13.80603790">
    <ele>241</ele>
    <extensions>
     <ql:flags>8</ql:flags>
    </extensions>
   </trkpt>
   <trkpt lat="50.96780777" lon="13.80610228">
    <ele>241</ele>
    <extensions>
     <ql:flags>8</ql:flags>
    </extensions>
   </trkpt>
   <trkpt lat="50.96767902" lon="13.80659580">
    <ele>241</ele>
    <extensions>
     <ql:flags>8</ql:flags>
    </extensions>
   </trkpt>
   <trkpt lat="50.96748590" lon="13.80741119">
    <ele>241</ele>
    <extensions>
     <ql:flags>8</ql:flags>
    </extensions>
   </trkpt>
   <trkpt lat="50.96744299" lon="13.80753994">
    <ele>241</ele>
    <extensions>
     <ql:flags>8</ql:flags>
    </extensions>
   </trkpt>
   <trkpt lat="50.96737862" lon="13.80796909">
    <ele>241</ele>
    <extensions>
     <ql:flags>8</ql:flags>
    </extensions>
   </trkpt>
   <trkpt lat="50.96737904" lon="13.80807106">
    <ele>241</ele>
    <extensions>
     <ql:flags>0</ql:flags>
    </extensions>
   </trkpt>
   <trkpt lat="50.96725032" lon="13.80809788">
    <ele>241</ele>
    <extensions>
     <ql:flags>0</ql:flags>
    </extensions>
   </trkpt>
   <trkpt lat="50.96722407" lon="13.80818505">
    <ele>240</ele>
    <extensions>
     <ql:flags>0</ql:flags>
    </extensions>
   </trkpt>
   <trkpt lat="50.96716404" lon="13.80818367">
    <ele>240</ele>
    <extensions>
     <ql:flags>8</ql:flags>
    </extensions>
   </trkpt>
   <trkpt lat="50.96652031" lon="13.80805492">
    <ele>240</ele>
    <extensions>
     <ql:flags>8</ql:flags>
    </extensions>
   </trkpt>
   <trkpt lat="50.96634843" lon="13.80796914">
    <ele>240</ele>
    <extensions>
     <ql:flags>0</ql:flags>
    </extensions>
   </trkpt>
   <trkpt lat="50.96635013" lon="13.80809386">
    <ele>240</ele>
    <extensions>
     <ql:flags>0</ql:flags>
    </extensions>
   </trkpt>
   <trkpt lat="50.96634865" lon="13.80809784">
    <ele>239</ele>
    <extensions>
     <ql:flags>8</ql:flags>
    </extensions>
   </trkpt>
   <trkpt lat="50.96632719" lon="13.80820513">
    <ele>239</ele>
    <extensions>
     <ql:flags>8</ql:flags>
    </extensions>
   </trkpt>
   <trkpt lat="50.96632726" lon="13.80850424">
    <ele>238</ele>
    <extensions>
     <ql:flags>0</ql:flags>
    </extensions>
   </trkpt>
   <trkpt lat="50.96619844" lon="13.80850554">
    <ele>238</ele>
    <extensions>
     <ql:flags>8</ql:flags>
    </extensions>
   </trkpt>
   <trkpt lat="50.96604824" lon="13.80850554">
    <ele>237</ele>
    <extensions>
     <ql:flags>8</ql:flags>
    </extensions>
   </trkpt>
   <trkpt lat="50.96594095" lon="13.80859137">
    <ele>236</ele>
    <extensions>
     <ql:flags>8</ql:flags>
    </extensions>
   </trkpt>
   <trkpt lat="50.96585512" lon="13.80846262">
    <ele>236</ele>
    <extensions>
     <ql:flags>8</ql:flags>
    </extensions>
   </trkpt>
   <trkpt lat="50.96581221" lon="13.80850554">
    <ele>235</ele>
    <extensions>
     <ql:flags>8</ql:flags>
    </extensions>
   </trkpt>
   <trkpt lat="50.96576929" lon="13.80854845">
    <ele>235</ele>
    <extensions>
     <ql:flags>8</ql:flags>
    </extensions>
   </trkpt>
   <trkpt lat="50.96566200" lon="13.80844116">
    <ele>234</ele>
    <extensions>
     <ql:flags>8</ql:flags>
    </extensions>
   </trkpt>
   <trkpt lat="50.96561909" lon="13.80848408">
    <ele>234</ele>
    <extensions>
     <ql:flags>8</ql:flags>
    </extensions>
   </trkpt>
   <trkpt lat="50.96557617" lon="13.80848408">
    <ele>234</ele>
    <extensions>
     <ql:flags>8</ql:flags>
    </extensions>
   </trkpt>
   <trkpt lat="50.96546888" lon="13.80846262">
    <ele>233</ele>
    <extensions>
     <ql:flags>8</ql:flags>
    </extensions>
   </trkpt>
   <trkpt lat="50.96542704" lon="13.80846266">
    <ele>233</ele>
    <extensions>
     <ql:flags>0</ql:flags>
    </extensions>
   </trkpt>
   <trkpt lat="50.96542597" lon="13.80846262">
    <ele>233</ele>
    <extensions>
     <ql:flags>8</ql:flags>
    </extensions>
   </trkpt>
   <trkpt lat="50.96542597" lon="13.80826950">
    <ele>233</ele>
    <extensions>
     <ql:flags>8</ql:flags>
    </extensions>
   </trkpt>
   <trkpt lat="50.96544737" lon="13.80814616">
    <ele>234</ele>
    <extensions>
     <ql:flags>0</ql:flags>
    </extensions>
   </trkpt>
   <trkpt lat="50.96536522" lon="13.80805631">
    <ele>233</ele>
    <extensions>
     <ql:flags>0</ql:flags>
    </extensions>
   </trkpt>
   <trkpt lat="50.96538305" lon="13.80796909">
    <ele>233</ele>
    <extensions>
     <ql:flags>8</ql:flags>
    </extensions>
   </trkpt>
   <trkpt lat="50.96538305" lon="13.80794764">
    <ele>233</ele>
    <extensions>
     <ql:flags>8</ql:flags>
    </extensions>
   </trkpt>
   <trkpt lat="50.96527576" lon="13.80741119">
    <ele>233</ele>
    <extensions>
     <ql:flags>8</ql:flags>
    </extensions>
   </trkpt>
   <trkpt lat="50.96525431" lon="13.80730391">
    <ele>233</ele>
    <extensions>
     <ql:flags>8</ql:flags>
    </extensions>
   </trkpt>
   <trkpt lat="50.96527630" lon="13.80724360">
    <ele>233</ele>
    <extensions>
     <ql:flags>0</ql:flags>
    </extensions>
   </trkpt>
   <trkpt lat="50.96521139" lon="13.80717516">
    <ele>232</ele>
    <extensions>
     <ql:flags>8</ql:flags>
    </extensions>
   </trkpt>
   <trkpt lat="50.96514702" lon="13.80708933">
    <ele>232</ele>
    <extensions>
     <ql:flags>8</ql:flags>
    </extensions>
   </trkpt>
   <trkpt lat="50.96508265" lon="13.80696058">
    <ele>231</ele>
    <extensions>
     <ql:flags>8</ql:flags>
    </extensions>
   </trkpt>
   <trkpt lat="50.96497536" lon="13.80674601">
    <ele>230</ele>
    <extensions>
     <ql:flags>8</ql:flags>
    </extensions>
   </trkpt>
   <trkpt lat="50.96484661" lon="13.80640268">
    <ele>228</ele>
    <extensions>
     <ql:flags>8</ql:flags>
    </extensions>
   </trkpt>
   <trkpt lat="50.96480370" lon="13.80627394">
    <ele>227</ele>
    <extensions>
     <ql:flags>8</ql:flags>
    </extensions>
   </trkpt>
   <trkpt lat="50.96476078" lon="13.80608082">
    <ele>227</ele>
    <extensions>
     <ql:flags>8</ql:flags>
    </extensions>
   </trkpt>
   <trkpt lat="50.96473932" lon="13.80603790">
    <ele>226</ele>
    <extensions>
     <ql:flags>8</ql:flags>
    </extensions>
   </trkpt>
   <trkpt lat="50.96471786" lon="13.80599499">
    <ele>226</ele>
    <extensions>
     <ql:flags>8</ql:flags>
    </extensions>
   </trkpt>
   <trkpt lat="50.96469641" lon="13.80588770">
    <ele>226</ele>
    <extensions>
     <ql:flags>8</ql:flags>
    </extensions>
   </trkpt>
   <trkpt lat="50.96467495" lon="13.80584478">
    <ele>226</ele>
    <extensions>
     <ql:flags>8</ql:flags>
    </extensions>
   </trkpt>
   <trkpt lat="50.96465349" lon="13.80569458">
    <ele>225</ele>
    <extensions>
     <ql:flags>8</ql:flags>
    </extensions>
   </trkpt>
   <trkpt lat="50.96463203" lon="13.80563021">
    <ele>225</ele>
    <extensions>
     <ql:flags>8</ql:flags>
    </extensions>
   </trkpt>
   <trkpt lat="50.96458912" lon="13.80548000">
    <ele>224</ele>
    <extensions>
     <ql:flags>8</ql:flags>
    </extensions>
   </trkpt>
   <trkpt lat="50.96446037" lon="13.80492210">
    <ele>224</ele>
    <extensions>
     <ql:flags>8</ql:flags>
    </extensions>
   </trkpt>
   <trkpt lat="50.96437454" lon="13.80455732">
    <ele>225</ele>
    <extensions>
     <ql:flags>8</ql:flags>
    </extensions>
   </trkpt>
   <trkpt lat="50.96428871" lon="13.80423546">
    <ele>227</ele>
    <extensions>
     <ql:flags>8</ql:flags>
    </extensions>
   </trkpt>
   <trkpt lat="50.96413851" lon="13.80397797">
    <ele>228</ele>
    <extensions>
     <ql:flags>8</ql:flags>
    </extensions>
   </trkpt>
   <trkpt lat="50.96399073" lon="13.80387340">
    <ele>229</ele>
    <extensions>
     <ql:flags>0</ql:flags>
    </extensions>
   </trkpt>
   <trkpt lat="50.96411946" lon="13.80361323">
    <ele>229</ele>
    <extensions>
     <ql:flags>0</ql:flags>
    </extensions>
   </trkpt>
   <trkpt lat="50.96396685" lon="13.80305529">
    <ele>230</ele>
    <extensions>
     <ql:flags>8</ql:flags>
    </extensions>
   </trkpt>
   <trkpt lat="50.96388102" lon="13.80279779">
    <ele>231</ele>
    <extensions>
     <ql:flags>8</ql:flags>
    </extensions>
   </trkpt>
   <trkpt lat="50.96375106" lon="13.80271335">
    <ele>231</ele>
    <extensions>
     <ql:flags>0</ql:flags>
    </extensions>
   </trkpt>
   <trkpt lat="50.96375105" lon="13.80271201">
    <ele>231</ele>
    <extensions>
     <ql:flags>0</ql:flags>
    </extensions>
   </trkpt>
   <trkpt lat="50.96340895" lon="13.80279779">
    <ele>233</ele>
    <extensions>
     <ql:flags>8</ql:flags>
    </extensions>
   </trkpt>
   <trkpt lat="50.96325874" lon="13.80284071">
    <ele>235</ele>
    <extensions>
     <ql:flags>8</ql:flags>
    </extensions>
   </trkpt>
   <trkpt lat="50.96325985" lon="13.80284209">
    <ele>235</ele>
    <extensions>
     <ql:flags>0</ql:flags>
    </extensions>
   </trkpt>
   <trkpt lat="50.96323729" lon="13.80266905">
    <ele>235</ele>
    <extensions>
     <ql:flags>8</ql:flags>
    </extensions>
   </trkpt>
   <trkpt lat="50.96317291" lon="13.80245447">
    <ele>236</ele>
    <extensions>
     <ql:flags>8</ql:flags>
    </extensions>
   </trkpt>
   <trkpt lat="50.96315145" lon="13.80215406">
    <ele>236</ele>
    <extensions>
     <ql:flags>8</ql:flags>
    </extensions>
   </trkpt>
   <trkpt lat="50.96293688" lon="13.80146742">
    <ele>239</ele>
    <extensions>
     <ql:flags>8</ql:flags>
    </extensions>
   </trkpt>
   <trkpt lat="50.96291542" lon="13.80127430">
    <ele>239</ele>
    <extensions>
     <ql:flags>8</ql:flags>
    </extensions>
   </trkpt>
   <trkpt lat="50.96246481" lon="13.80090952">
    <ele>242</ele>
    <extensions>
     <ql:flags>8</ql:flags>
    </extensions>
   </trkpt>
   <trkpt lat="50.96237898" lon="13.80058765">
    <ele>243</ele>
    <extensions>
     <ql:flags>8</ql:flags>
    </extensions>
   </trkpt>
   <trkpt lat="50.96229315" lon="13.80017996">
    <ele>244</ele>
    <extensions>
     <ql:flags>8</ql:flags>
    </extensions>
   </trkpt>
   <trkpt lat="50.96220732" lon="13.79983664">
    <ele>245</ele>
    <extensions>
     <ql:flags>8</ql:flags>
    </extensions>
   </trkpt>
   <trkpt lat="50.96205711" lon="13.79957914">
    <ele>246</ele>
    <extensions>
     <ql:flags>8</ql:flags>
    </extensions>
   </trkpt>
   <trkpt lat="50.96203566" lon="13.79957914">
    <ele>247</ele>
    <extensions>
     <ql:flags>8</ql:flags>
    </extensions>
   </trkpt>
   <trkpt lat="50.96173525" lon="13.79955769">
    <ele>251</ele>
    <extensions>
     <ql:flags>8</ql:flags>
    </extensions>
   </trkpt>
   <trkpt lat="50.96089840" lon="13.79975080">
    <ele>263</ele>
    <extensions>
     <ql:flags>8</ql:flags>
    </extensions>
   </trkpt>
   <trkpt lat="50.96087694" lon="13.79972935">
    <ele>263</ele>
    <extensions>
     <ql:flags>8</ql:flags>
    </extensions>
   </trkpt>
   <trkpt lat="50.96074820" lon="13.79955769">
    <ele>263</ele>
    <extensions>
     <ql:flags>8</ql:flags>
    </extensions>
   </trkpt>
   <trkpt lat="50.95993280" lon="13.79902124">
    <ele>263</ele>
    <extensions>
     <ql:flags>8</ql:flags>
    </extensions>
   </trkpt>
   <trkpt lat="50.95954657" lon="13.79889250">
    <ele>266</ele>
    <extensions>
     <ql:flags>8</ql:flags>
    </extensions>
   </trkpt>
   <trkpt lat="50.95928907" lon="13.79857063">
    <ele>265</ele>
    <extensions>
     <ql:flags>8</ql:flags>
    </extensions>
   </trkpt>
   <trkpt lat="50.95899037" lon="13.79852642">
    <ele>266</ele>
    <extensions>
     <ql:flags>0</ql:flags>
    </extensions>
   </trkpt>
   <trkpt lat="50.95898867" lon="13.79852772">
    <ele>266</ele>
    <extensions>
     <ql:flags>8</ql:flags>
    </extensions>
   </trkpt>
   <trkpt lat="50.95879555" lon="13.79852772">
    <ele>267</ele>
    <extensions>
     <ql:flags>8</ql:flags>
    </extensions>
   </trkpt>
   <trkpt lat="50.95834742" lon="13.79831448">
    <ele>268</ele>
    <extensions>
     <ql:flags>0</ql:flags>
    </extensions>
   </trkpt>
   <trkpt lat="50.95789433" lon="13.79809856">
    <ele>269</ele>
    <extensions>
     <ql:flags>8</ql:flags>
    </extensions>
   </trkpt>
   <trkpt lat="50.95767975" lon="13.79809856">
    <ele>271</ele>
    <extensions>
     <ql:flags>8</ql:flags>
    </extensions>
   </trkpt>
   <trkpt lat="50.95609188" lon="13.79839897">
    <ele>279</ele>
    <extensions>
     <ql:flags>8</ql:flags>
    </extensions>
   </trkpt>
   <trkpt lat="50.95561981" lon="13.79893541">
    <ele>279</ele>
    <extensions>
     <ql:flags>8</ql:flags>
    </extensions>
   </trkpt>
   <trkpt lat="50.95521212" lon="13.79955769">
    <ele>282</ele>
    <extensions>
     <ql:flags>8</ql:flags>
    </extensions>
   </trkpt>
   <trkpt lat="50.95476151" lon="13.80002975">
    <ele>282</ele>
    <extensions>
     <ql:flags>8</ql:flags>
    </extensions>
   </trkpt>
   <trkpt lat="50.95399117" lon="13.80051930">
    <ele>284</ele>
    <extensions>
     <ql:flags>0</ql:flags>
    </extensions>
   </trkpt>
   <trkpt lat="50.95398903" lon="13.80052328">
    <ele>284</ele>
    <extensions>
     <ql:flags>8</ql:flags>
    </extensions>
   </trkpt>
   <trkpt lat="50.95257282" lon="13.80069494">
    <ele>286</ele>
    <extensions>
     <ql:flags>8</ql:flags>
    </extensions>
   </trkpt>
   <trkpt lat="50.95167160" lon="13.80056620">
    <ele>289</ele>
    <extensions>
     <ql:flags>8</ql:flags>
    </extensions>
   </trkpt>
   <trkpt lat="50.95148121" lon="13.80075533">
    <ele>291</ele>
    <extensions>
     <ql:flags>0</ql:flags>
    </extensions>
   </trkpt>
   <trkpt lat="50.95109224" lon="13.80060911">
    <ele>292</ele>
    <extensions>
     <ql:flags>8</ql:flags>
    </extensions>
   </trkpt>
   <trkpt lat="50.95089912" lon="13.80060911">
    <ele>293</ele>
    <extensions>
     <ql:flags>8</ql:flags>
    </extensions>
   </trkpt>
   <trkpt lat="50.95059872" lon="13.80080223">
    <ele>294</ele>
    <extensions>
     <ql:flags>8</ql:flags>
    </extensions>
   </trkpt>
   <trkpt lat="50.95019102" lon="13.80110264">
    <ele>295</ele>
    <extensions>
     <ql:flags>8</ql:flags>
    </extensions>
   </trkpt>
   <trkpt lat="50.94980478" lon="13.80129576">
    <ele>295</ele>
    <extensions>
     <ql:flags>8</ql:flags>
    </extensions>
   </trkpt>
   <trkpt lat="50.94920397" lon="13.80208969">
    <ele>293</ele>
    <extensions>
     <ql:flags>8</ql:flags>
    </extensions>
   </trkpt>
   <trkpt lat="50.94890356" lon="13.80260468">
    <ele>292</ele>
    <extensions>
     <ql:flags>8</ql:flags>
    </extensions>
   </trkpt>
   <trkpt lat="50.94884403" lon="13.80262349">
    <ele>292</ele>
    <extensions>
     <ql:flags>0</ql:flags>
    </extensions>
   </trkpt>
   <trkpt lat="50.94879627" lon="13.80239010">
    <ele>292</ele>
    <extensions>
     <ql:flags>8</ql:flags>
    </extensions>
   </trkpt>
   <trkpt lat="50.94849499" lon="13.80125959">
    <ele>294</ele>
    <extensions>
     <ql:flags>0</ql:flags>
    </extensions>
   </trkpt>
   <trkpt lat="50.94832420" lon="13.80056620">
    <ele>296</ele>
    <extensions>
     <ql:flags>8</ql:flags>
    </extensions>
   </trkpt>
   <trkpt lat="50.94810963" lon="13.79998684">
    <ele>297</ele>
    <extensions>
     <ql:flags>8</ql:flags>
    </extensions>
   </trkpt>
   <trkpt lat="50.94780922" lon="13.79930019">
    <ele>296</ele>
    <extensions>
     <ql:flags>8</ql:flags>
    </extensions>
   </trkpt>
   <trkpt lat="50.94780922" lon="13.79827023">
    <ele>294</ele>
    <extensions>
     <ql:flags>8</ql:flags>
    </extensions>
   </trkpt>
   <trkpt lat="50.94783068" lon="13.79771233">
    <ele>293</ele>
    <extensions>
     <ql:flags>8</ql:flags>
    </extensions>
   </trkpt>
   <trkpt lat="50.94787359" lon="13.79730463">
    <ele>292</ele>
    <extensions>
     <ql:flags>8</ql:flags>
    </extensions>
   </trkpt>
   <trkpt lat="50.94787359" lon="13.79700422">
    <ele>292</ele>
    <extensions>
     <ql:flags>8</ql:flags>
    </extensions>
   </trkpt>
   <trkpt lat="50.94785213" lon="13.79678965">
    <ele>291</ele>
    <extensions>
     <ql:flags>8</ql:flags>
    </extensions>
   </trkpt>
   <trkpt lat="50.94776630" lon="13.79612446">
    <ele>290</ele>
    <extensions>
     <ql:flags>8</ql:flags>
    </extensions>
   </trkpt>
   <trkpt lat="50.94778776" lon="13.79560947">
    <ele>291</ele>
    <extensions>
     <ql:flags>8</ql:flags>
    </extensions>
   </trkpt>
   <trkpt lat="50.94776725" lon="13.79509587">
    <ele>291</ele>
    <extensions>
     <ql:flags>0</ql:flags>
    </extensions>
   </trkpt>
   <trkpt lat="50.94776725" lon="13.79509185">
    <ele>291</ele>
    <extensions>
     <ql:flags>0</ql:flags>
    </extensions>
   </trkpt>
   <trkpt lat="50.94847441" lon="13.79498720">
    <ele>293</ele>
    <extensions>
     <ql:flags>8</ql:flags>
    </extensions>
   </trkpt>
   <trkpt lat="50.94851732" lon="13.79498720">
    <ele>293</ele>
    <extensions>
     <ql:flags>8</ql:flags>
    </extensions>
   </trkpt>
   <trkpt lat="50.94888210" lon="13.79498720">
    <ele>293</ele>
    <extensions>
     <ql:flags>8</ql:flags>
    </extensions>
   </trkpt>
   <trkpt lat="50.94999871" lon="13.79509319">
    <ele>294</ele>
    <extensions>
     <ql:flags>0</ql:flags>
    </extensions>
   </trkpt>
   <trkpt lat="50.94999790" lon="13.79485846">
    <ele>294</ele>
    <extensions>
     <ql:flags>8</ql:flags>
    </extensions>
   </trkpt>
   <trkpt lat="50.94995499" lon="13.79475117">
    <ele>295</ele>
    <extensions>
     <ql:flags>8</ql:flags>
    </extensions>
   </trkpt>
   <trkpt lat="50.94991207" lon="13.79453659">
    <ele>295</ele>
    <extensions>
     <ql:flags>8</ql:flags>
    </extensions>
   </trkpt>
   <trkpt lat="50.94989061" lon="13.79404306">
    <ele>295</ele>
    <extensions>
     <ql:flags>8</ql:flags>
    </extensions>
   </trkpt>
   <trkpt lat="50.94984770" lon="13.79374266">
    <ele>295</ele>
    <extensions>
     <ql:flags>8</ql:flags>
    </extensions>
   </trkpt>
   <trkpt lat="50.94984792" lon="13.79374270">
    <ele>295</ele>
    <extensions>
     <ql:flags>0</ql:flags>
    </extensions>
   </trkpt>
   <trkpt lat="50.95001936" lon="13.79376411">
    <ele>296</ele>
    <extensions>
     <ql:flags>8</ql:flags>
    </extensions>
   </trkpt>
   <trkpt lat="50.95008373" lon="13.79378557">
    <ele>296</ele>
    <extensions>
     <ql:flags>8</ql:flags>
    </extensions>
   </trkpt>
   <trkpt lat="50.95014811" lon="13.79378557">
    <ele>296</ele>
    <extensions>
     <ql:flags>8</ql:flags>
    </extensions>
   </trkpt>
   <trkpt lat="50.95021248" lon="13.79376411">
    <ele>297</ele>
    <extensions>
     <ql:flags>8</ql:flags>
    </extensions>
   </trkpt>
   <trkpt lat="50.95025539" lon="13.79359245">
    <ele>297</ele>
    <extensions>
     <ql:flags>8</ql:flags>
    </extensions>
   </trkpt>
   <trkpt lat="50.95034122" lon="13.79337788">
    <ele>298</ele>
    <extensions>
     <ql:flags>8</ql:flags>
    </extensions>
   </trkpt>
   <trkpt lat="50.95031977" lon="13.79316330">
    <ele>297</ele>
    <extensions>
     <ql:flags>8</ql:flags>
    </extensions>
   </trkpt>
   <trkpt lat="50.95038414" lon="13.79281998">
    <ele>297</ele>
    <extensions>
     <ql:flags>8</ql:flags>
    </extensions>
   </trkpt>
   <trkpt lat="50.95044851" lon="13.79262686">
    <ele>297</ele>
    <extensions>
     <ql:flags>8</ql:flags>
    </extensions>
   </trkpt>
   <trkpt lat="50.95051289" lon="13.79239082">
    <ele>297</ele>
    <extensions>
     <ql:flags>8</ql:flags>
    </extensions>
   </trkpt>
   <trkpt lat="50.95059872" lon="13.79200459">
    <ele>296</ele>
    <extensions>
     <ql:flags>8</ql:flags>
    </extensions>
   </trkpt>
   <trkpt lat="50.95079184" lon="13.79163980">
    <ele>295</ele>
    <extensions>
     <ql:flags>8</ql:flags>
    </extensions>
   </trkpt>
   <trkpt lat="50.95107079" lon="13.79123211">
    <ele>296</ele>
    <extensions>
     <ql:flags>8</ql:flags>
    </extensions>
   </trkpt>
   <trkpt lat="50.95124245" lon="13.79108191">
    <ele>296</ele>
    <extensions>
     <ql:flags>8</ql:flags>
    </extensions>
   </trkpt>
   <trkpt lat="50.95171452" lon="13.79080296">
    <ele>293</ele>
    <extensions>
     <ql:flags>8</ql:flags>
    </extensions>
   </trkpt>
   <trkpt lat="50.95175743" lon="13.79069567">
    <ele>293</ele>
    <extensions>
     <ql:flags>8</ql:flags>
    </extensions>
   </trkpt>
   <trkpt lat="50.95190763" lon="13.79050255">
    <ele>292</ele>
    <extensions>
     <ql:flags>8</ql:flags>
    </extensions>
   </trkpt>
   <trkpt lat="50.95207930" lon="13.79011631">
    <ele>290</ele>
    <extensions>
     <ql:flags>8</ql:flags>
    </extensions>
   </trkpt>
   <trkpt lat="50.95220804" lon="13.79000902">
    <ele>290</ele>
    <extensions>
     <ql:flags>8</ql:flags>
    </extensions>
   </trkpt>
   <trkpt lat="50.95246553" lon="13.78968716">
    <ele>290</ele>
    <extensions>
     <ql:flags>8</ql:flags>
    </extensions>
   </trkpt>
   <trkpt lat="50.95257282" lon="13.78966570">
    <ele>290</ele>
    <extensions>
     <ql:flags>8</ql:flags>
    </extensions>
   </trkpt>
   <trkpt lat="50.95287323" lon="13.78942966">
    <ele>292</ele>
    <extensions>
     <ql:flags>8</ql:flags>
    </extensions>
   </trkpt>
   <trkpt lat="50.95321655" lon="13.78910780">
    <ele>291</ele>
    <extensions>
     <ql:flags>8</ql:flags>
    </extensions>
   </trkpt>
   <trkpt lat="50.95332384" lon="13.78889322">
    <ele>290</ele>
    <extensions>
     <ql:flags>8</ql:flags>
    </extensions>
   </trkpt>
   <trkpt lat="50.95373154" lon="13.78848553">
    <ele>290</ele>
    <extensions>
     <ql:flags>8</ql:flags>
    </extensions>
   </trkpt>
   <trkpt lat="50.95383883" lon="13.78827095">
    <ele>288</ele>
    <extensions>
     <ql:flags>8</ql:flags>
    </extensions>
   </trkpt>
   <trkpt lat="50.95390320" lon="13.78805637">
    <ele>286</ele>
    <extensions>
     <ql:flags>8</ql:flags>
    </extensions>
   </trkpt>
   <trkpt lat="50.95413923" lon="13.78760576">
    <ele>282</ele>
    <extensions>
     <ql:flags>8</ql:flags>
    </extensions>
   </trkpt>
   <trkpt lat="50.95416069" lon="13.78749847">
    <ele>281</ele>
    <extensions>
     <ql:flags>8</ql:flags>
    </extensions>
   </trkpt>
   <trkpt lat="50.95428944" lon="13.78724098">
    <ele>280</ele>
    <extensions>
     <ql:flags>8</ql:flags>
    </extensions>
   </trkpt>
   <trkpt lat="50.95452547" lon="13.78691912">
    <ele>280</ele>
    <extensions>
     <ql:flags>8</ql:flags>
    </extensions>
   </trkpt>
   <trkpt lat="50.95461130" lon="13.78670454">
    <ele>278</ele>
    <extensions>
     <ql:flags>8</ql:flags>
    </extensions>
   </trkpt>
   <trkpt lat="50.95497608" lon="13.78614664">
    <ele>277</ele>
    <extensions>
     <ql:flags>8</ql:flags>
    </extensions>
   </trkpt>
   <trkpt lat="50.95501900" lon="13.78603935">
    <ele>276</ele>
    <extensions>
     <ql:flags>8</ql:flags>
    </extensions>
   </trkpt>
   <trkpt lat="50.95527649" lon="13.78597498">
    <ele>279</ele>
    <extensions>
     <ql:flags>8</ql:flags>
    </extensions>
   </trkpt>
   <trkpt lat="50.95536232" lon="13.78601789">
    <ele>280</ele>
    <extensions>
     <ql:flags>8</ql:flags>
    </extensions>
   </trkpt>
   <trkpt lat="50.95587730" lon="13.78580332">
    <ele>286</ele>
    <extensions>
     <ql:flags>8</ql:flags>
    </extensions>
   </trkpt>
   <trkpt lat="50.95632792" lon="13.78552437">
    <ele>291</ele>
    <extensions>
     <ql:flags>8</ql:flags>
    </extensions>
   </trkpt>
   <trkpt lat="50.95647812" lon="13.78548145">
    <ele>293</ele>
    <extensions>
     <ql:flags>8</ql:flags>
    </extensions>
   </trkpt>
   <trkpt lat="50.95658541" lon="13.78539562">
    <ele>293</ele>
    <extensions>
     <ql:flags>8</ql:flags>
    </extensions>
   </trkpt>
   <trkpt lat="50.95682144" lon="13.78526688">
    <ele>293</ele>
    <extensions>
     <ql:flags>8</ql:flags>
    </extensions>
   </trkpt>
   <trkpt lat="50.95720768" lon="13.78507376">
    <ele>293</ele>
    <extensions>
     <ql:flags>8</ql:flags>
    </extensions>
   </trkpt>
   <trkpt lat="50.95737934" lon="13.78494501">
    <ele>292</ele>
    <extensions>
     <ql:flags>8</ql:flags>
    </extensions>
   </trkpt>
   <trkpt lat="50.95750809" lon="13.78481627">
    <ele>291</ele>
    <extensions>
     <ql:flags>8</ql:flags>
    </extensions>
   </trkpt>
   <trkpt lat="50.95795870" lon="13.78400087">
    <ele>286</ele>
    <extensions>
     <ql:flags>8</ql:flags>
    </extensions>
   </trkpt>
   <trkpt lat="50.95808239" lon="13.78381182">
    <ele>284</ele>
    <extensions>
     <ql:flags>0</ql:flags>
    </extensions>
   </trkpt>
   <trkpt lat="50.95808744" lon="13.78380775">
    <ele>284</ele>
    <extensions>
     <ql:flags>8</ql:flags>
    </extensions>
   </trkpt>
   <trkpt lat="50.95823765" lon="13.78389359">
    <ele>285</ele>
    <extensions>
     <ql:flags>8</ql:flags>
    </extensions>
   </trkpt>
   <trkpt lat="50.95851660" lon="13.78427982">
    <ele>287</ele>
    <extensions>
     <ql:flags>8</ql:flags>
    </extensions>
   </trkpt>
   <trkpt lat="50.95870972" lon="13.78447294">
    <ele>287</ele>
    <extensions>
     <ql:flags>8</ql:flags>
    </extensions>
   </trkpt>
   <trkpt lat="50.95883846" lon="13.78470898">
    <ele>286</ele>
    <extensions>
     <ql:flags>8</ql:flags>
    </extensions>
   </trkpt>
   <trkpt lat="50.95976114" lon="13.78578186">
    <ele>272</ele>
    <extensions>
     <ql:flags>8</ql:flags>
    </extensions>
   </trkpt>
   <trkpt lat="50.96055508" lon="13.78672600">
    <ele>268</ele>
    <extensions>
     <ql:flags>8</ql:flags>
    </extensions>
   </trkpt>
   <trkpt lat="50.96079111" lon="13.78704786">
    <ele>268</ele>
    <extensions>
     <ql:flags>8</ql:flags>
    </extensions>
   </trkpt>
   <trkpt lat="50.96091986" lon="13.78719807">
    <ele>268</ele>
    <extensions>
     <ql:flags>8</ql:flags>
    </extensions>
   </trkpt>
   <trkpt lat="50.96139193" lon="13.78762722">
    <ele>268</ele>
    <extensions>
     <ql:flags>8</ql:flags>
    </extensions>
   </trkpt>
   <trkpt lat="50.96160650" lon="13.78788471">
    <ele>269</ele>
    <extensions>
     <ql:flags>8</ql:flags>
    </extensions>
   </trkpt>
   <trkpt lat="50.96181499" lon="13.78816102">
    <ele>270</ele>
    <extensions>
     <ql:flags>0</ql:flags>
    </extensions>
   </trkpt>
   <trkpt lat="50.96181838" lon="13.78816370">
    <ele>270</ele>
    <extensions>
     <ql:flags>0</ql:flags>
    </extensions>
   </trkpt>
   <trkpt lat="50.96194983" lon="13.78831387">
    <ele>270</ele>
    <extensions>
     <ql:flags>8</ql:flags>
    </extensions>
   </trkpt>
   <trkpt lat="50.96233606" lon="13.78897905">
    <ele>270</ele>
    <extensions>
     <ql:flags>8</ql:flags>
    </extensions>
   </trkpt>
   <trkpt lat="50.96250772" lon="13.78930092">
    <ele>270</ele>
    <extensions>
     <ql:flags>8</ql:flags>
    </extensions>
   </trkpt>
   <trkpt lat="50.96265793" lon="13.78947258">
    <ele>269</ele>
    <extensions>
     <ql:flags>8</ql:flags>
    </extensions>
   </trkpt>
   <trkpt lat="50.96287251" lon="13.78988028">
    <ele>268</ele>
    <extensions>
     <ql:flags>8</ql:flags>
    </extensions>
   </trkpt>
   <trkpt lat="50.96392393" lon="13.79121065">
    <ele>264</ele>
    <extensions>
     <ql:flags>8</ql:flags>
    </extensions>
   </trkpt>
   <trkpt lat="50.96478224" lon="13.79200459">
    <ele>262</ele>
    <extensions>
     <ql:flags>8</ql:flags>
    </extensions>
   </trkpt>
   <trkpt lat="50.96536160" lon="13.79269123">
    <ele>261</ele>
    <extensions>
     <ql:flags>8</ql:flags>
    </extensions>
   </trkpt>
   <trkpt lat="50.96566162" lon="13.79292731">
    <ele>261</ele>
    <extensions>
     <ql:flags>0</ql:flags>
    </extensions>
   </trkpt>
   <trkpt lat="50.96585512" lon="13.79303455">
    <ele>261</ele>
    <extensions>
     <ql:flags>8</ql:flags>
    </extensions>
   </trkpt>
   <trkpt lat="50.96606970" lon="13.79309893">
    <ele>261</ele>
    <extensions>
     <ql:flags>8</ql:flags>
    </extensions>
   </trkpt>
   <trkpt lat="50.96617699" lon="13.79307747">
    <ele>261</ele>
    <extensions>
     <ql:flags>8</ql:flags>
    </extensions>
   </trkpt>
   <trkpt lat="50.96688509" lon="13.79279852">
    <ele>261</ele>
    <extensions>
     <ql:flags>8</ql:flags>
    </extensions>
   </trkpt>
   <trkpt lat="50.96720289" lon="13.79269127">
    <ele>261</ele>
    <extensions>
     <ql:flags>0</ql:flags>
    </extensions>
   </trkpt>
   <trkpt lat="50.96737862" lon="13.79262686">
    <ele>261</ele>
    <extensions>
     <ql:flags>8</ql:flags>
    </extensions>
   </trkpt>
   <trkpt lat="50.96757174" lon="13.79264832">
    <ele>261</ele>
    <extensions>
     <ql:flags>8</ql:flags>
    </extensions>
   </trkpt>
   <trkpt lat="50.96800089" lon="13.79294872">
    <ele>260</ele>
    <extensions>
     <ql:flags>8</ql:flags>
    </extensions>
   </trkpt>
   <trkpt lat="50.96935272" lon="13.79412889">
    <ele>254</ele>
    <extensions>
     <ql:flags>8</ql:flags>
    </extensions>
   </trkpt>
   <trkpt lat="50.96935380" lon="13.79412894">
    <ele>254</ele>
    <extensions>
     <ql:flags>0</ql:flags>
    </extensions>
   </trkpt>
   <trkpt lat="50.96937418" lon="13.79395723">
    <ele>254</ele>
    <extensions>
     <ql:flags>8</ql:flags>
    </extensions>
   </trkpt>
   <trkpt lat="50.96948147" lon="13.79354954">
    <ele>255</ele>
    <extensions>
     <ql:flags>8</ql:flags>
    </extensions>
   </trkpt>
   <trkpt lat="50.96952438" lon="13.79346371">
    <ele>255</ele>
    <extensions>
     <ql:flags>8</ql:flags>
    </extensions>
   </trkpt>
   <trkpt lat="50.96988916" lon="13.79230499">
    <ele>255</ele>
    <extensions>
     <ql:flags>8</ql:flags>
    </extensions>
   </trkpt>
   <trkpt lat="50.97031915" lon="13.79078422">
    <ele>256</ele>
    <extensions>
     <ql:flags>0</ql:flags>
    </extensions>
   </trkpt>
   <trkpt lat="50.97042561" lon="13.79024506">
    <ele>257</ele>
    <extensions>
     <ql:flags>8</ql:flags>
    </extensions>
   </trkpt>
   <trkpt lat="50.97048998" lon="13.78951550">
    <ele>257</ele>
    <extensions>
     <ql:flags>8</ql:flags>
    </extensions>
   </trkpt>
   <trkpt lat="50.97048998" lon="13.78915071">
    <ele>258</ele>
    <extensions>
     <ql:flags>8</ql:flags>
    </extensions>
   </trkpt>
   <trkpt lat="50.97046987" lon="13.78876720">
    <ele>259</ele>
    <extensions>
     <ql:flags>0</ql:flags>
    </extensions>
   </trkpt>
   <trkpt lat="50.97048998" lon="13.78842115">
    <ele>259</ele>
    <extensions>
     <ql:flags>8</ql:flags>
    </extensions>
   </trkpt>
   <trkpt lat="50.97057487" lon="13.78814895">
    <ele>258</ele>
    <extensions>
     <ql:flags>0</ql:flags>
    </extensions>
   </trkpt>
   <trkpt lat="50.97059727" lon="13.78743410">
    <ele>258</ele>
    <extensions>
     <ql:flags>8</ql:flags>
    </extensions>
   </trkpt>
   <trkpt lat="50.97059727" lon="13.78657579">
    <ele>259</ele>
    <extensions>
     <ql:flags>8</ql:flags>
    </extensions>
   </trkpt>
   <trkpt lat="50.97078826" lon="13.78585432">
    <ele>257</ele>
    <extensions>
     <ql:flags>0</ql:flags>
    </extensions>
   </trkpt>
   <trkpt lat="50.97087622" lon="13.78546000">
    <ele>255</ele>
    <extensions>
     <ql:flags>8</ql:flags>
    </extensions>
   </trkpt>
   <trkpt lat="50.97109310" lon="13.78402371">
    <ele>250</ele>
    <extensions>
     <ql:flags>0</ql:flags>
    </extensions>
   </trkpt>
   <trkpt lat="50.97113371" lon="13.78376484">
    <ele>250</ele>
    <extensions>
     <ql:flags>8</ql:flags>
    </extensions>
   </trkpt>
   <trkpt lat="50.97113371" lon="13.78370047">
    <ele>250</ele>
    <extensions>
     <ql:flags>8</ql:flags>
    </extensions>
   </trkpt>
   <trkpt lat="50.97113371" lon="13.78352880">
    <ele>248</ele>
    <extensions>
     <ql:flags>8</ql:flags>
    </extensions>
   </trkpt>
   <trkpt lat="50.97113371" lon="13.78346443">
    <ele>248</ele>
    <extensions>
     <ql:flags>8</ql:flags>
    </extensions>
   </trkpt>
   <trkpt lat="50.97117662" lon="13.78327131">
    <ele>247</ele>
    <extensions>
     <ql:flags>8</ql:flags>
    </extensions>
   </trkpt>
   <trkpt lat="50.97124100" lon="13.78324986">
    <ele>247</ele>
    <extensions>
     <ql:flags>8</ql:flags>
    </extensions>
   </trkpt>
   <trkpt lat="50.97134829" lon="13.78284216">
    <ele>244</ele>
    <extensions>
     <ql:flags>8</ql:flags>
    </extensions>
   </trkpt>
   <trkpt lat="50.97145557" lon="13.78275633">
    <ele>244</ele>
    <extensions>
     <ql:flags>8</ql:flags>
    </extensions>
   </trkpt>
   <trkpt lat="50.97156286" lon="13.78256321">
    <ele>243</ele>
    <extensions>
     <ql:flags>8</ql:flags>
    </extensions>
   </trkpt>
   <trkpt lat="50.97167015" lon="13.78217697">
    <ele>242</ele>
    <extensions>
     <ql:flags>8</ql:flags>
    </extensions>
   </trkpt>
   <trkpt lat="50.97173452" lon="13.78202677">
    <ele>242</ele>
    <extensions>
     <ql:flags>8</ql:flags>
    </extensions>
   </trkpt>
   <trkpt lat="50.97194910" lon="13.78194094">
    <ele>244</ele>
    <extensions>
     <ql:flags>8</ql:flags>
    </extensions>
   </trkpt>
   <trkpt lat="50.97233534" lon="13.78191948">
    <ele>241</ele>
    <extensions>
     <ql:flags>8</ql:flags>
    </extensions>
   </trkpt>
   <trkpt lat="50.97235680" lon="13.78204823">
    <ele>241</ele>
    <extensions>
     <ql:flags>8</ql:flags>
    </extensions>
   </trkpt>
   <trkpt lat="50.97231388" lon="13.78213406">
    <ele>242</ele>
    <extensions>
     <ql:flags>8</ql:flags>
    </extensions>
   </trkpt>
   <trkpt lat="50.97220659" lon="13.78219843">
    <ele>244</ele>
    <extensions>
     <ql:flags>8</ql:flags>
    </extensions>
   </trkpt>
   <trkpt lat="50.97201347" lon="13.78243446">
    <ele>245</ele>
    <extensions>
     <ql:flags>8</ql:flags>
    </extensions>
   </trkpt>
   <trkpt lat="50.97186327" lon="13.78269196">
    <ele>244</ele>
    <extensions>
     <ql:flags>8</ql:flags>
    </extensions>
   </trkpt>
   <trkpt lat="50.97179890" lon="13.78286362">
    <ele>244</ele>
    <extensions>
     <ql:flags>8</ql:flags>
    </extensions>
   </trkpt>
   <trkpt lat="50.97177744" lon="13.78307819">
    <ele>244</ele>
    <extensions>
     <ql:flags>8</ql:flags>
    </extensions>
   </trkpt>
   <trkpt lat="50.97182035" lon="13.78337860">
    <ele>243</ele>
    <extensions>
     <ql:flags>8</ql:flags>
    </extensions>
   </trkpt>
   <trkpt lat="50.97182035" lon="13.78352880">
    <ele>242</ele>
    <extensions>
     <ql:flags>8</ql:flags>
    </extensions>
   </trkpt>
   <trkpt lat="50.97160578" lon="13.78391504">
    <ele>245</ele>
    <extensions>
     <ql:flags>8</ql:flags>
    </extensions>
   </trkpt>
   <trkpt lat="50.97158432" lon="13.78410816">
    <ele>245</ele>
    <extensions>
     <ql:flags>8</ql:flags>
    </extensions>
   </trkpt>
   <trkpt lat="50.97160578" lon="13.78445148">
    <ele>245</ele>
    <extensions>
     <ql:flags>8</ql:flags>
    </extensions>
   </trkpt>
   <trkpt lat="50.97160578" lon="13.78473043">
    <ele>244</ele>
    <extensions>
     <ql:flags>8</ql:flags>
    </extensions>
   </trkpt>
   <trkpt lat="50.97162724" lon="13.78505230">
    <ele>244</ele>
    <extensions>
     <ql:flags>8</ql:flags>
    </extensions>
   </trkpt>
   <trkpt lat="50.97173452" lon="13.78528833">
    <ele>241</ele>
    <extensions>
     <ql:flags>8</ql:flags>
    </extensions>
   </trkpt>
   <trkpt lat="50.97186327" lon="13.78563166">
    <ele>238</ele>
    <extensions>
     <ql:flags>8</ql:flags>
    </extensions>
   </trkpt>
   <trkpt lat="50.97197056" lon="13.78582478">
    <ele>236</ele>
    <extensions>
     <ql:flags>8</ql:flags>
    </extensions>
   </trkpt>
   <trkpt lat="50.97201347" lon="13.78606081">
    <ele>235</ele>
    <extensions>
     <ql:flags>8</ql:flags>
    </extensions>
   </trkpt>
   <trkpt lat="50.97227097" lon="13.78668308">
    <ele>232</ele>
    <extensions>
     <ql:flags>8</ql:flags>
    </extensions>
   </trkpt>
   <trkpt lat="50.97231388" lon="13.78681183">
    <ele>232</ele>
    <extensions>
     <ql:flags>8</ql:flags>
    </extensions>
   </trkpt>
   <trkpt lat="50.97254992" lon="13.78713369">
    <ele>232</ele>
    <extensions>
     <ql:flags>8</ql:flags>
    </extensions>
   </trkpt>
   <trkpt lat="50.97261429" lon="13.78719807">
    <ele>231</ele>
    <extensions>
     <ql:flags>8</ql:flags>
    </extensions>
   </trkpt>
   <trkpt lat="50.97300053" lon="13.78728390">
    <ele>226</ele>
    <extensions>
     <ql:flags>8</ql:flags>
    </extensions>
   </trkpt>
   <trkpt lat="50.97321510" lon="13.78743410">
    <ele>221</ele>
    <extensions>
     <ql:flags>8</ql:flags>
    </extensions>
   </trkpt>
   <trkpt lat="50.97381592" lon="13.78769159">
    <ele>211</ele>
    <extensions>
     <ql:flags>8</ql:flags>
    </extensions>
   </trkpt>
   <trkpt lat="50.97407341" lon="13.78771305">
    <ele>210</ele>
    <extensions>
     <ql:flags>8</ql:flags>
    </extensions>
   </trkpt>
   <trkpt lat="50.97422361" lon="13.78779888">
    <ele>211</ele>
    <extensions>
     <ql:flags>8</ql:flags>
    </extensions>
   </trkpt>
   <trkpt lat="50.97433090" lon="13.78790617">
    <ele>212</ele>
    <extensions>
     <ql:flags>8</ql:flags>
    </extensions>
   </trkpt>
   <trkpt lat="50.97439528" lon="13.78803492">
    <ele>212</ele>
    <extensions>
     <ql:flags>8</ql:flags>
    </extensions>
   </trkpt>
   <trkpt lat="50.97441673" lon="13.78816366">
    <ele>212</ele>
    <extensions>
     <ql:flags>8</ql:flags>
    </extensions>
   </trkpt>
   <trkpt lat="50.97441673" lon="13.78833532">
    <ele>212</ele>
    <extensions>
     <ql:flags>8</ql:flags>
    </extensions>
   </trkpt>
   <trkpt lat="50.97435236" lon="13.78850698">
    <ele>213</ele>
    <extensions>
     <ql:flags>8</ql:flags>
    </extensions>
   </trkpt>
   <trkpt lat="50.97426653" lon="13.78861427">
    <ele>213</ele>
    <extensions>
     <ql:flags>8</ql:flags>
    </extensions>
   </trkpt>
   <trkpt lat="50.97403049" lon="13.78882885">
    <ele>215</ele>
    <extensions>
     <ql:flags>8</ql:flags>
    </extensions>
   </trkpt>
   <trkpt lat="50.97394466" lon="13.78891468">
    <ele>215</ele>
    <extensions>
     <ql:flags>8</ql:flags>
    </extensions>
   </trkpt>
   <trkpt lat="50.97390175" lon="13.78902197">
    <ele>215</ele>
    <extensions>
     <ql:flags>8</ql:flags>
    </extensions>
   </trkpt>
   <trkpt lat="50.97390175" lon="13.78919363">
    <ele>214</ele>
    <extensions>
     <ql:flags>8</ql:flags>
    </extensions>
   </trkpt>
   <trkpt lat="50.97400904" lon="13.78934383">
    <ele>214</ele>
    <extensions>
     <ql:flags>8</ql:flags>
    </extensions>
   </trkpt>
   <trkpt lat="50.97407341" lon="13.78949404">
    <ele>214</ele>
    <extensions>
     <ql:flags>8</ql:flags>
    </extensions>
   </trkpt>
   <trkpt lat="50.97407341" lon="13.78966570">
    <ele>214</ele>
    <extensions>
     <ql:flags>8</ql:flags>
    </extensions>
   </trkpt>
   <trkpt lat="50.97394466" lon="13.79041672">
    <ele>215</ele>
    <extensions>
     <ql:flags>8</ql:flags>
    </extensions>
   </trkpt>
   <trkpt lat="50.97368717" lon="13.79131794">
    <ele>216</ele>
    <extensions>
     <ql:flags>8</ql:flags>
    </extensions>
   </trkpt>
   <trkpt lat="50.97373009" lon="13.79133940">
    <ele>215</ele>
    <extensions>
     <ql:flags>8</ql:flags>
    </extensions>
   </trkpt>
   <trkpt lat="50.97375154" lon="13.79133940">
    <ele>215</ele>
    <extensions>
     <ql:flags>8</ql:flags>
    </extensions>
   </trkpt>
   <trkpt lat="50.97381592" lon="13.79136086">
    <ele>215</ele>
    <extensions>
     <ql:flags>8</ql:flags>
    </extensions>
   </trkpt>
   <trkpt lat="50.97405195" lon="13.79112482">
    <ele>215</ele>
    <extensions>
     <ql:flags>8</ql:flags>
    </extensions>
   </trkpt>
   <trkpt lat="50.97433090" lon="13.79078150">
    <ele>214</ele>
    <extensions>
     <ql:flags>8</ql:flags>
    </extensions>
   </trkpt>
   <trkpt lat="50.97456694" lon="13.79039526">
    <ele>214</ele>
    <extensions>
     <ql:flags>8</ql:flags>
    </extensions>
   </trkpt>
   <trkpt lat="50.97476006" lon="13.79007339">
    <ele>212</ele>
    <extensions>
     <ql:flags>8</ql:flags>
    </extensions>
   </trkpt>
   <trkpt lat="50.97488880" lon="13.78992319">
    <ele>211</ele>
    <extensions>
     <ql:flags>8</ql:flags>
    </extensions>
   </trkpt>
   <trkpt lat="50.97501755" lon="13.78988028">
    <ele>210</ele>
    <extensions>
     <ql:flags>8</ql:flags>
    </extensions>
   </trkpt>
   <trkpt lat="50.97525358" lon="13.79024506">
    <ele>209</ele>
    <extensions>
     <ql:flags>8</ql:flags>
    </extensions>
   </trkpt>
   <trkpt lat="50.97548962" lon="13.79065275">
    <ele>208</ele>
    <extensions>
     <ql:flags>8</ql:flags>
    </extensions>
   </trkpt>
   <trkpt lat="50.97609043" lon="13.79155397">
    <ele>205</ele>
    <extensions>
     <ql:flags>8</ql:flags>
    </extensions>
   </trkpt>
   <trkpt lat="50.97617626" lon="13.79181147">
    <ele>204</ele>
    <extensions>
     <ql:flags>8</ql:flags>
    </extensions>
   </trkpt>
   <trkpt lat="50.97619772" lon="13.79219770">
    <ele>203</ele>
    <extensions>
     <ql:flags>8</ql:flags>
    </extensions>
   </trkpt>
   <trkpt lat="50.97617626" lon="13.79260540">
    <ele>203</ele>
    <extensions>
     <ql:flags>8</ql:flags>
    </extensions>
   </trkpt>
   <trkpt lat="50.97611189" lon="13.79297018">
    <ele>202</ele>
    <extensions>
     <ql:flags>8</ql:flags>
    </extensions>
   </trkpt>
   <trkpt lat="50.97594023" lon="13.79337788">
    <ele>202</ele>
    <extensions>
     <ql:flags>8</ql:flags>
    </extensions>
   </trkpt>
   <trkpt lat="50.97574711" lon="13.79376411">
    <ele>203</ele>
    <extensions>
     <ql:flags>8</ql:flags>
    </extensions>
   </trkpt>
   <trkpt lat="50.97566128" lon="13.79384995">
    <ele>203</ele>
    <extensions>
     <ql:flags>8</ql:flags>
    </extensions>
   </trkpt>
   <trkpt lat="50.97561836" lon="13.79391432">
    <ele>204</ele>
    <extensions>
     <ql:flags>8</ql:flags>
    </extensions>
   </trkpt>
   <trkpt lat="50.97533941" lon="13.79393578">
    <ele>206</ele>
    <extensions>
     <ql:flags>8</ql:flags>
    </extensions>
   </trkpt>
   <trkpt lat="50.97500245" lon="13.79389693">
    <ele>210</ele>
    <extensions>
     <ql:flags>0</ql:flags>
    </extensions>
   </trkpt>
   <trkpt lat="50.97501755" lon="13.79395723">
    <ele>209</ele>
    <extensions>
     <ql:flags>8</ql:flags>
    </extensions>
   </trkpt>
   <trkpt lat="50.97521067" lon="13.79406452">
    <ele>208</ele>
    <extensions>
     <ql:flags>8</ql:flags>
    </extensions>
   </trkpt>
   <trkpt lat="50.97555399" lon="13.79434347">
    <ele>204</ele>
    <extensions>
     <ql:flags>8</ql:flags>
    </extensions>
   </trkpt>
   <trkpt lat="50.97598314" lon="13.79449368">
    <ele>198</ele>
    <extensions>
     <ql:flags>8</ql:flags>
    </extensions>
   </trkpt>
   <trkpt lat="50.97619772" lon="13.79445076">
    <ele>195</ele>
    <extensions>
     <ql:flags>8</ql:flags>
    </extensions>
   </trkpt>
   <trkpt lat="50.97639084" lon="13.79440784">
    <ele>192</ele>
    <extensions>
     <ql:flags>8</ql:flags>
    </extensions>
   </trkpt>
   <trkpt lat="50.97654104" lon="13.79425764">
    <ele>189</ele>
    <extensions>
     <ql:flags>8</ql:flags>
    </extensions>
   </trkpt>
   <trkpt lat="50.97656035" lon="13.79425634">
    <ele>189</ele>
    <extensions>
     <ql:flags>0</ql:flags>
    </extensions>
   </trkpt>
   <trkpt lat="50.97662687" lon="13.79423618">
    <ele>187</ele>
    <extensions>
     <ql:flags>8</ql:flags>
    </extensions>
   </trkpt>
   <trkpt lat="50.97681999" lon="13.79436493">
    <ele>182</ele>
    <extensions>
     <ql:flags>8</ql:flags>
    </extensions>
   </trkpt>
   <trkpt lat="50.97703457" lon="13.79468679">
    <ele>177</ele>
    <extensions>
     <ql:flags>8</ql:flags>
    </extensions>
   </trkpt>
   <trkpt lat="50.97722769" lon="13.79475117">
    <ele>174</ele>
    <extensions>
     <ql:flags>8</ql:flags>
    </extensions>
   </trkpt>
   <trkpt lat="50.97731352" lon="13.79477262">
    <ele>172</ele>
    <extensions>
     <ql:flags>8</ql:flags>
    </extensions>
   </trkpt>
   <trkpt lat="50.97735643" lon="13.79479408">
    <ele>172</ele>
    <extensions>
     <ql:flags>8</ql:flags>
    </extensions>
   </trkpt>
   <trkpt lat="50.97744341" lon="13.79479278">
    <ele>170</ele>
    <extensions>
     <ql:flags>0</ql:flags>
    </extensions>
   </trkpt>
   <trkpt lat="50.97744226" lon="13.79479408">
    <ele>170</ele>
    <extensions>
     <ql:flags>8</ql:flags>
    </extensions>
   </trkpt>
   <trkpt lat="50.97737789" lon="13.79496574">
    <ele>172</ele>
    <extensions>
     <ql:flags>8</ql:flags>
    </extensions>
   </trkpt>
   <trkpt lat="50.97735643" lon="13.79513741">
    <ele>172</ele>
    <extensions>
     <ql:flags>8</ql:flags>
    </extensions>
   </trkpt>
   <trkpt lat="50.97729206" lon="13.79526615">
    <ele>173</ele>
    <extensions>
     <ql:flags>8</ql:flags>
    </extensions>
   </trkpt>
   <trkpt lat="50.97724915" lon="13.79539490">
    <ele>174</ele>
    <extensions>
     <ql:flags>8</ql:flags>
    </extensions>
   </trkpt>
   <trkpt lat="50.97724953" lon="13.79539494">
    <ele>174</ele>
    <extensions>
     <ql:flags>0</ql:flags>
    </extensions>
   </trkpt>
   <trkpt lat="50.97725207" lon="13.79539494">
    <ele>174</ele>
    <extensions>
     <ql:flags>0</ql:flags>
    </extensions>
   </trkpt>
   <trkpt lat="50.97733504" lon="13.79552369">
    <ele>174</ele>
    <extensions>
     <ql:flags>0</ql:flags>
    </extensions>
   </trkpt>
   <trkpt lat="50.97733504" lon="13.79562561">
    <ele>175</ele>
    <extensions>
     <ql:flags>0</ql:flags>
    </extensions>
   </trkpt>
   <trkpt lat="50.97737789" lon="13.79582405">
    <ele>176</ele>
    <extensions>
     <ql:flags>8</ql:flags>
    </extensions>
   </trkpt>
   <trkpt lat="50.97763538" lon="13.79638195">
    <ele>181</ele>
    <extensions>
     <ql:flags>8</ql:flags>
    </extensions>
   </trkpt>
   <trkpt lat="50.97782850" lon="13.79681110">
    <ele>187</ele>
    <extensions>
     <ql:flags>8</ql:flags>
    </extensions>
   </trkpt>
   <trkpt lat="50.97789288" lon="13.79706860">
    <ele>191</ele>
    <extensions>
     <ql:flags>8</ql:flags>
    </extensions>
   </trkpt>
   <trkpt lat="50.97806454" lon="13.79732609">
    <ele>191</ele>
    <extensions>
     <ql:flags>8</ql:flags>
    </extensions>
   </trkpt>
   <trkpt lat="50.97819328" lon="13.79745483">
    <ele>190</ele>
    <extensions>
     <ql:flags>8</ql:flags>
    </extensions>
   </trkpt>
   <trkpt lat="50.97823620" lon="13.79749775">
    <ele>190</ele>
    <extensions>
     <ql:flags>8</ql:flags>
    </extensions>
   </trkpt>
   <trkpt lat="50.97860098" lon="13.79760504">
    <ele>185</ele>
    <extensions>
     <ql:flags>8</ql:flags>
    </extensions>
   </trkpt>
   <trkpt lat="50.97922325" lon="13.79741192">
    <ele>178</ele>
    <extensions>
     <ql:flags>8</ql:flags>
    </extensions>
   </trkpt>
   <trkpt lat="50.97958803" lon="13.79713297">
    <ele>170</ele>
    <extensions>
     <ql:flags>8</ql:flags>
    </extensions>
   </trkpt>
   <trkpt lat="50.97993135" lon="13.79683256">
    <ele>170</ele>
    <extensions>
     <ql:flags>8</ql:flags>
    </extensions>
   </trkpt>
   <trkpt lat="50.98021030" lon="13.79668236">
    <ele>171</ele>
    <extensions>
     <ql:flags>8</ql:flags>
    </extensions>
   </trkpt>
   <trkpt lat="50.98042488" lon="13.79651070">
    <ele>170</ele>
    <extensions>
     <ql:flags>8</ql:flags>
    </extensions>
   </trkpt>
   <trkpt lat="50.98076820" lon="13.79603863">
    <ele>163</ele>
    <extensions>
     <ql:flags>8</ql:flags>
    </extensions>
   </trkpt>
   <trkpt lat="50.98093987" lon="13.79597425">
    <ele>163</ele>
    <extensions>
     <ql:flags>8</ql:flags>
    </extensions>
   </trkpt>
   <trkpt lat="50.98102570" lon="13.79608154">
    <ele>165</ele>
    <extensions>
     <ql:flags>8</ql:flags>
    </extensions>
   </trkpt>
   <trkpt lat="50.98132610" lon="13.79666090">
    <ele>175</ele>
    <extensions>
     <ql:flags>8</ql:flags>
    </extensions>
   </trkpt>
   <trkpt lat="50.98156214" lon="13.79670382">
    <ele>171</ele>
    <extensions>
     <ql:flags>8</ql:flags>
    </extensions>
   </trkpt>
   <trkpt lat="50.98171234" lon="13.79681110">
    <ele>170</ele>
    <extensions>
     <ql:flags>8</ql:flags>
    </extensions>
   </trkpt>
   <trkpt lat="50.98196684" lon="13.79728321">
    <ele>172</ele>
    <extensions>
     <ql:flags>0</ql:flags>
    </extensions>
   </trkpt>
   <trkpt lat="50.98239899" lon="13.79794836">
    <ele>171</ele>
    <extensions>
     <ql:flags>8</ql:flags>
    </extensions>
   </trkpt>
   <trkpt lat="50.98310709" lon="13.79893541">
    <ele>166</ele>
    <extensions>
     <ql:flags>8</ql:flags>
    </extensions>
   </trkpt>
   <trkpt lat="50.98321438" lon="13.79938602">
    <ele>165</ele>
    <extensions>
     <ql:flags>8</ql:flags>
    </extensions>
   </trkpt>
   <trkpt lat="50.98321438" lon="13.79981518">
    <ele>166</ele>
    <extensions>
     <ql:flags>8</ql:flags>
    </extensions>
   </trkpt>
   <trkpt lat="50.98321382" lon="13.80015452">
    <ele>165</ele>
    <extensions>
     <ql:flags>0</ql:flags>
    </extensions>
   </trkpt>
   <trkpt lat="50.98336458" lon="13.80069494">
    <ele>163</ele>
    <extensions>
     <ql:flags>8</ql:flags>
    </extensions>
   </trkpt>
   <trkpt lat="50.98398685" lon="13.80142450">
    <ele>156</ele>
    <extensions>
     <ql:flags>8</ql:flags>
    </extensions>
   </trkpt>
   <trkpt lat="50.98424435" lon="13.80226135">
    <ele>152</ele>
    <extensions>
     <ql:flags>8</ql:flags>
    </extensions>
   </trkpt>
   <trkpt lat="50.98432955" lon="13.80236734">
    <ele>151</ele>
    <extensions>
     <ql:flags>0</ql:flags>
    </extensions>
   </trkpt>
   <trkpt lat="50.98458767" lon="13.80350590">
    <ele>151</ele>
    <extensions>
     <ql:flags>8</ql:flags>
    </extensions>
   </trkpt>
   <trkpt lat="50.98480225" lon="13.80384922">
    <ele>150</ele>
    <extensions>
     <ql:flags>8</ql:flags>
    </extensions>
   </trkpt>
   <trkpt lat="50.98570347" lon="13.80502939">
    <ele>146</ele>
    <extensions>
     <ql:flags>8</ql:flags>
    </extensions>
   </trkpt>
   <trkpt lat="50.98602533" lon="13.80554438">
    <ele>145</ele>
    <extensions>
     <ql:flags>8</ql:flags>
    </extensions>
   </trkpt>
   <trkpt lat="50.98623991" lon="13.80588770">
    <ele>144</ele>
    <extensions>
     <ql:flags>8</ql:flags>
    </extensions>
   </trkpt>
   <trkpt lat="50.98643303" lon="13.80612373">
    <ele>144</ele>
    <extensions>
     <ql:flags>8</ql:flags>
    </extensions>
   </trkpt>
   <trkpt lat="50.98647594" lon="13.80614519">
    <ele>143</ele>
    <extensions>
     <ql:flags>8</ql:flags>
    </extensions>
   </trkpt>
   <trkpt lat="50.98656178" lon="13.80618811">
    <ele>143</ele>
    <extensions>
     <ql:flags>8</ql:flags>
    </extensions>
   </trkpt>
   <trkpt lat="50.98658040" lon="13.80626996">
    <ele>143</ele>
    <extensions>
     <ql:flags>0</ql:flags>
    </extensions>
   </trkpt>
   <trkpt lat="50.98658323" lon="13.80627394">
    <ele>143</ele>
    <extensions>
     <ql:flags>8</ql:flags>
    </extensions>
   </trkpt>
   <trkpt lat="50.98677635" lon="13.80614519">
    <ele>142</ele>
    <extensions>
     <ql:flags>8</ql:flags>
    </extensions>
   </trkpt>
   <trkpt lat="50.98681927" lon="13.80612373">
    <ele>141</ele>
    <extensions>
     <ql:flags>8</ql:flags>
    </extensions>
   </trkpt>
   <trkpt lat="50.98696725" lon="13.80616803">
    <ele>140</ele>
    <extensions>
     <ql:flags>0</ql:flags>
    </extensions>
   </trkpt>
   <trkpt lat="50.98699093" lon="13.80625248">
    <ele>141</ele>
    <extensions>
     <ql:flags>8</ql:flags>
    </extensions>
   </trkpt>
   <trkpt lat="50.98714113" lon="13.80666018">
    <ele>142</ele>
    <extensions>
     <ql:flags>8</ql:flags>
    </extensions>
   </trkpt>
   <trkpt lat="50.98714077" lon="13.80666290">
    <ele>142</ele>
    <extensions>
     <ql:flags>0</ql:flags>
    </extensions>
   </trkpt>
   <trkpt lat="50.98718405" lon="13.80661726">
    <ele>141</ele>
    <extensions>
     <ql:flags>8</ql:flags>
    </extensions>
   </trkpt>
   <trkpt lat="50.98724842" lon="13.80659580">
    <ele>141</ele>
    <extensions>
     <ql:flags>8</ql:flags>
    </extensions>
   </trkpt>
   <trkpt lat="50.98737948" lon="13.80656634">
    <ele>140</ele>
    <extensions>
     <ql:flags>0</ql:flags>
    </extensions>
   </trkpt>
  </trkseg>
 </trk>
 <extensions>
  <ql:key>9c9e8e4acb8a158b30b4e6ce49c54d1b</ql:key>
  <ql:sortingRoadbook>0</ql:sortingRoadbook>
  <ql:sortingFolder>0</ql:sortingFolder>
  <ql:correlation>1</ql:correlation>
 </extensions>
</gpx>
