<?xml version="1.0" encoding="UTF-8" standalone="no" ?>
<gpx version="1.1" xmlns:gpxx="http://www.garmin.com/xmlschemas/GpxExtensions/v3" creator="QMapShack 1.10.0 http://www.qlandkarte.org/" xsi:schemaLocation="http://www.topografix.com/GPX/1/1 http://www.topografix.com/GPX/1/1/gpx.xsd http://www.garmin.com/xmlschemas/GpxExtensions/v3 http://www.garmin.com/xmlschemas/GpxExtensionsv3.xsd http://www.garmin.com/xmlschemas/TrackPointExtension/v1 http://www.garmin.com/xmlschemas/TrackPointExtensionv1.xsd http://www.garmin.com/xmlschemas/WaypointExtension/v1 http://www.garmin.com/xmlschemas/WaypointExtensionv1.xsd http://www.qlandkarte.org/xmlschemas/v1.1 http://www.qlandkarte.org/xmlschemas/v1.1/ql-extensions.xsd http://www.cluetrust.com/XML/GPXDATA/1/0 http://www.cluetrust.com/Schemas/gpxdata10.xsd" xmlns:xsi="http://www.w3.org/2001/XMLSchema-instance" xmlns:tp1="http://www.garmin.com/xmlschemas/TrackPointExtension/v1" xmlns="http://www.topografix.com/GPX/1/1" xmlns:rmc="urn:net:trekbuddy:1.0:nmea:rmc" xmlns:gpxdata="http://www.cluetrust.com/XML/GPXDATA/1/0" xmlns:ql="http://www.qlandkarte.org/xmlschemas/v1.1" xmlns:gpxtpx="http://www.garmin.com/xmlschemas/TrackPointExtension/v1" xmlns:wptx1="http://www.garmin.com/xmlschemas/WaypointExtension/v1">
 <metadata>
  <name>Streifzug 12: Durch den Prießnitzgrund zum Dresdner Heller</name>
  <link href="https://www.dvb.de/de-de/entdecken/wandertipps/dresdner-heller/">
   <text>Webseite</text>
   <type>Linnk</type>
  </link>
  <time>2020-06-24T05:00:44.000Z</time>
 </metadata>
 <wpt lat="51.06991667" lon="13.75628333">
  <ele>121</ele>
  <time>2020-07-28T03:42:01.038Z</time>
  <name>Wegpunkt 1 Voraus</name>
  <sym>Flag, Blue</sym>
  <extensions>
   <ql:key>76c1bdfe403ddf944800839db484aca3</ql:key>
   <ql:flags>3</ql:flags>
   <ql:bubble yoff="-150" xoff="-320" width="300"/>
   <ql:history>
    <ql:event>
     <ql:icon>://icons/48x48/Start.png</ql:icon>
     <ql:time>2020-07-28T03:42:01.039Z</ql:time>
     <ql:comment>Erstversion.</ql:comment>
    </ql:event>
    <ql:event>
     <ql:icon>://icons/48x48/WptEditProx.png</ql:icon>
     <ql:time>2020-07-28T03:42:05.295Z</ql:time>
     <ql:comment>Abstandsalarm geändert</ql:comment>
    </ql:event>
   </ql:history>
   <wptx1:WaypointExtension>
    <wptx1:Proximity>10.00000000</wptx1:Proximity>
   </wptx1:WaypointExtension>
  </extensions>
 </wpt>
 <wpt lat="51.07425000" lon="13.76253333">
  <ele>129</ele>
  <time>2020-07-28T03:42:43.032Z</time>
  <name>Wegpunkt 2 Hier</name>
  <sym>Flag, Blue</sym>
  <extensions>
   <ql:key>0459762cc8423e633066a55c8422a3d0</ql:key>
   <ql:flags>3</ql:flags>
   <ql:bubble yoff="-150" xoff="-320" width="300"/>
   <ql:history>
    <ql:event>
     <ql:icon>://icons/48x48/Start.png</ql:icon>
     <ql:time>2020-07-28T03:42:43.033Z</ql:time>
     <ql:comment>Erstversion.</ql:comment>
    </ql:event>
    <ql:event>
     <ql:icon>://icons/48x48/WptEditProx.png</ql:icon>
     <ql:time>2020-07-28T03:42:45.983Z</ql:time>
     <ql:comment>Abstandsalarm geändert</ql:comment>
    </ql:event>
   </ql:history>
   <wptx1:WaypointExtension>
    <wptx1:Proximity>10.00000000</wptx1:Proximity>
   </wptx1:WaypointExtension>
  </extensions>
 </wpt>
 <wpt lat="51.07471667" lon="13.76265000">
  <ele>131</ele>
  <time>2020-07-28T03:44:16.437Z</time>
  <name>Wegpunkt 3 Rechts</name>
  <sym>Flag, Blue</sym>
  <extensions>
   <ql:key>3056af56b23f33cfd39ff1a12032f529</ql:key>
   <ql:flags>3</ql:flags>
   <ql:bubble yoff="-150" xoff="-320" width="300"/>
   <ql:history>
    <ql:event>
     <ql:icon>://icons/48x48/Start.png</ql:icon>
     <ql:time>2020-07-28T03:44:16.438Z</ql:time>
     <ql:comment>Erstversion.</ql:comment>
    </ql:event>
    <ql:event>
     <ql:icon>://icons/48x48/WptEditProx.png</ql:icon>
     <ql:time>2020-07-28T03:44:21.757Z</ql:time>
     <ql:comment>Abstandsalarm geändert</ql:comment>
    </ql:event>
   </ql:history>
   <wptx1:WaypointExtension>
    <wptx1:Proximity>10.00000000</wptx1:Proximity>
   </wptx1:WaypointExtension>
  </extensions>
 </wpt>
 <wpt lat="51.08093333" lon="13.77010000">
  <ele>139</ele>
  <time>2020-07-28T03:46:49.827Z</time>
  <name>Wegpunkt 4 Rechts, Voraus</name>
  <sym>Flag, Blue</sym>
  <extensions>
   <ql:key>60c87075351b040f88f434b3ae8b9bf6</ql:key>
   <ql:flags>3</ql:flags>
   <ql:bubble yoff="-150" xoff="-320" width="300"/>
   <ql:history>
    <ql:event>
     <ql:icon>://icons/48x48/Start.png</ql:icon>
     <ql:time>2020-07-28T03:46:49.827Z</ql:time>
     <ql:comment>Erstversion.</ql:comment>
    </ql:event>
    <ql:event>
     <ql:icon>://icons/48x48/WptEditProx.png</ql:icon>
     <ql:time>2020-07-28T03:46:55.152Z</ql:time>
     <ql:comment>Abstandsalarm geändert</ql:comment>
    </ql:event>
    <ql:event>
     <ql:icon>://icons/48x48/EditText.png</ql:icon>
     <ql:time>2020-07-28T03:47:10.933Z</ql:time>
     <ql:comment>Name geändert</ql:comment>
    </ql:event>
   </ql:history>
   <wptx1:WaypointExtension>
    <wptx1:Proximity>10.00000000</wptx1:Proximity>
   </wptx1:WaypointExtension>
  </extensions>
 </wpt>
 <wpt lat="51.09461667" lon="13.77603333">
  <ele>147</ele>
  <time>2020-07-28T03:48:15.560Z</time>
  <name>Wegpunkt 5 Rechts, Voraus</name>
  <sym>Flag, Blue</sym>
  <extensions>
   <ql:key>af59dddf3fbebc8714dfc62687d31bcb</ql:key>
   <ql:flags>3</ql:flags>
   <ql:bubble yoff="-150" xoff="-320" width="300"/>
   <ql:history>
    <ql:event>
     <ql:icon>://icons/48x48/Start.png</ql:icon>
     <ql:time>2020-07-28T03:48:15.560Z</ql:time>
     <ql:comment>Erstversion.</ql:comment>
    </ql:event>
    <ql:event>
     <ql:icon>://icons/48x48/WptEditProx.png</ql:icon>
     <ql:time>2020-07-28T03:48:18.520Z</ql:time>
     <ql:comment>Abstandsalarm geändert</ql:comment>
    </ql:event>
   </ql:history>
   <wptx1:WaypointExtension>
    <wptx1:Proximity>10.00000000</wptx1:Proximity>
   </wptx1:WaypointExtension>
  </extensions>
 </wpt>
 <wpt lat="51.09648333" lon="13.77263333">
  <ele>171</ele>
  <time>2020-07-28T03:48:49.033Z</time>
  <name>Wegpunkt 6 Hier</name>
  <sym>Flag, Blue</sym>
  <extensions>
   <ql:key>96a8a6b3b3cab933f8294e0fa68c1120</ql:key>
   <ql:flags>3</ql:flags>
   <ql:bubble yoff="-150" xoff="-320" width="300"/>
   <ql:history>
    <ql:event>
     <ql:icon>://icons/48x48/Start.png</ql:icon>
     <ql:time>2020-07-28T03:48:49.033Z</ql:time>
     <ql:comment>Erstversion.</ql:comment>
    </ql:event>
    <ql:event>
     <ql:icon>://icons/48x48/WptEditProx.png</ql:icon>
     <ql:time>2020-07-28T03:48:52.057Z</ql:time>
     <ql:comment>Abstandsalarm geändert</ql:comment>
    </ql:event>
   </ql:history>
   <wptx1:WaypointExtension>
    <wptx1:Proximity>10.00000000</wptx1:Proximity>
   </wptx1:WaypointExtension>
  </extensions>
 </wpt>
 <wpt lat="51.09953333" lon="13.76863333">
  <ele>176</ele>
  <time>2020-07-28T03:49:33.360Z</time>
  <name>Wegpunkt 7 Links</name>
  <sym>Flag, Blue</sym>
  <extensions>
   <ql:key>ca2987e32fd71930e83088e9401e9f2c</ql:key>
   <ql:flags>3</ql:flags>
   <ql:bubble yoff="-150" xoff="-320" width="300"/>
   <ql:history>
    <ql:event>
     <ql:icon>://icons/48x48/Start.png</ql:icon>
     <ql:time>2020-07-28T03:49:33.361Z</ql:time>
     <ql:comment>Erstversion.</ql:comment>
    </ql:event>
    <ql:event>
     <ql:icon>://icons/48x48/WptEditProx.png</ql:icon>
     <ql:time>2020-07-28T03:49:36.452Z</ql:time>
     <ql:comment>Abstandsalarm geändert</ql:comment>
    </ql:event>
   </ql:history>
   <wptx1:WaypointExtension>
    <wptx1:Proximity>10.00000000</wptx1:Proximity>
   </wptx1:WaypointExtension>
  </extensions>
 </wpt>
 <wpt lat="51.09976667" lon="13.76645000">
  <ele>176</ele>
  <time>2020-07-28T03:51:11.316Z</time>
  <name>Wegpunkt 8 Rechts, Voraus</name>
  <sym>Flag, Blue</sym>
  <extensions>
   <ql:key>39dd59969d663c0a9bc1aecd9110676a</ql:key>
   <ql:flags>3</ql:flags>
   <ql:bubble yoff="-150" xoff="-320" width="300"/>
   <ql:history>
    <ql:event>
     <ql:icon>://icons/48x48/Start.png</ql:icon>
     <ql:time>2020-07-28T03:51:11.317Z</ql:time>
     <ql:comment>Erstversion.</ql:comment>
    </ql:event>
    <ql:event>
     <ql:icon>://icons/48x48/WptEditProx.png</ql:icon>
     <ql:time>2020-07-28T03:51:14.092Z</ql:time>
     <ql:comment>Abstandsalarm geändert</ql:comment>
    </ql:event>
   </ql:history>
   <wptx1:WaypointExtension>
    <wptx1:Proximity>10.00000000</wptx1:Proximity>
   </wptx1:WaypointExtension>
  </extensions>
 </wpt>
 <wpt lat="51.09616667" lon="13.75808333">
  <ele>163</ele>
  <time>2020-07-28T03:52:41.242Z</time>
  <name>Wegpunkt 9 Rechts</name>
  <sym>Flag, Blue</sym>
  <extensions>
   <ql:key>5bee07cf0b1501d8f3e0cecb7a6a8ad7</ql:key>
   <ql:flags>3</ql:flags>
   <ql:bubble yoff="-150" xoff="-320" width="300"/>
   <ql:history>
    <ql:event>
     <ql:icon>://icons/48x48/Start.png</ql:icon>
     <ql:time>2020-07-28T03:52:41.242Z</ql:time>
     <ql:comment>Erstversion.</ql:comment>
    </ql:event>
    <ql:event>
     <ql:icon>://icons/48x48/WptEditProx.png</ql:icon>
     <ql:time>2020-07-28T03:52:43.813Z</ql:time>
     <ql:comment>Abstandsalarm geändert</ql:comment>
    </ql:event>
   </ql:history>
   <wptx1:WaypointExtension>
    <wptx1:Proximity>10.00000000</wptx1:Proximity>
   </wptx1:WaypointExtension>
  </extensions>
 </wpt>
 <wpt lat="51.09121408" lon="13.74823195">
  <ele>157</ele>
  <time>2020-07-29T03:15:05.009Z</time>
  <name>Wegpunkt 10 Hier</name>
  <sym>Flag, Blue</sym>
  <extensions>
   <ql:key>5f95721ab068088873d83d3e7a3c2d0d</ql:key>
   <ql:flags>3</ql:flags>
   <ql:bubble yoff="-150" xoff="-320" width="300"/>
   <ql:history>
    <ql:event>
     <ql:icon>://icons/48x48/Start.png</ql:icon>
     <ql:time>2020-07-29T03:15:05.010Z</ql:time>
     <ql:comment>Erstversion.</ql:comment>
    </ql:event>
    <ql:event>
     <ql:icon>://icons/48x48/WptEditProx.png</ql:icon>
     <ql:time>2020-07-29T03:15:08.535Z</ql:time>
     <ql:comment>Abstandsalarm geändert</ql:comment>
    </ql:event>
    <ql:event>
     <ql:icon>://icons/48x48/WptMove.png</ql:icon>
     <ql:time>2020-07-29T03:15:40.212Z</ql:time>
     <ql:comment>Position geändert</ql:comment>
    </ql:event>
   </ql:history>
   <wptx1:WaypointExtension>
    <wptx1:Proximity>10.00000000</wptx1:Proximity>
   </wptx1:WaypointExtension>
  </extensions>
 </wpt>
 <wpt lat="51.09285000" lon="13.75045000">
  <ele>191</ele>
  <time>2020-07-29T03:16:39.211Z</time>
  <name>Wegpunkt 11 Hier</name>
  <sym>Flag, Blue</sym>
  <extensions>
   <ql:key>59faf69b919220223c7acbb0f33006b3</ql:key>
   <ql:flags>3</ql:flags>
   <ql:bubble yoff="-150" xoff="-320" width="300"/>
   <ql:history>
    <ql:event>
     <ql:icon>://icons/48x48/Start.png</ql:icon>
     <ql:time>2020-07-29T03:16:39.212Z</ql:time>
     <ql:comment>Erstversion.</ql:comment>
    </ql:event>
    <ql:event>
     <ql:icon>://icons/48x48/WptEditProx.png</ql:icon>
     <ql:time>2020-07-29T03:16:43.378Z</ql:time>
     <ql:comment>Abstandsalarm geändert</ql:comment>
    </ql:event>
   </ql:history>
   <wptx1:WaypointExtension>
    <wptx1:Proximity>10.00000000</wptx1:Proximity>
   </wptx1:WaypointExtension>
  </extensions>
 </wpt>
 <wpt lat="51.08970000" lon="13.74933333">
  <ele>151</ele>
  <time>2020-07-29T03:18:27.658Z</time>
  <name>Wegpunkt 12 Links</name>
  <sym>Flag, Blue</sym>
  <extensions>
   <ql:key>0985ce342c8c231f9e6b488d18302e74</ql:key>
   <ql:flags>3</ql:flags>
   <ql:bubble yoff="-150" xoff="-320" width="300"/>
   <ql:history>
    <ql:event>
     <ql:icon>://icons/48x48/Start.png</ql:icon>
     <ql:time>2020-07-29T03:18:27.658Z</ql:time>
     <ql:comment>Erstversion.</ql:comment>
    </ql:event>
    <ql:event>
     <ql:icon>://icons/48x48/WptEditProx.png</ql:icon>
     <ql:time>2020-07-29T03:18:31.322Z</ql:time>
     <ql:comment>Abstandsalarm geändert</ql:comment>
    </ql:event>
   </ql:history>
   <wptx1:WaypointExtension>
    <wptx1:Proximity>10.00000000</wptx1:Proximity>
   </wptx1:WaypointExtension>
  </extensions>
 </wpt>
 <wpt lat="51.08540000" lon="13.75423333">
  <ele>155</ele>
  <time>2020-07-29T03:19:41.230Z</time>
  <name>Wegpunkt 13 Hier</name>
  <sym>Flag, Blue</sym>
  <extensions>
   <ql:key>5f8a457536497e2040686a4c197746e9</ql:key>
   <ql:flags>3</ql:flags>
   <ql:bubble yoff="-150" xoff="-320" width="300"/>
   <ql:history>
    <ql:event>
     <ql:icon>://icons/48x48/Start.png</ql:icon>
     <ql:time>2020-07-29T03:19:41.231Z</ql:time>
     <ql:comment>Erstversion.</ql:comment>
    </ql:event>
    <ql:event>
     <ql:icon>://icons/48x48/WptEditProx.png</ql:icon>
     <ql:time>2020-07-29T03:19:43.692Z</ql:time>
     <ql:comment>Abstandsalarm geändert</ql:comment>
    </ql:event>
   </ql:history>
   <wptx1:WaypointExtension>
    <wptx1:Proximity>10.00000000</wptx1:Proximity>
   </wptx1:WaypointExtension>
  </extensions>
 </wpt>
 <wpt lat="51.08328333" lon="13.75548333">
  <ele>152</ele>
  <time>2020-07-29T03:21:28.693Z</time>
  <name>Wegpunkt 14 Links</name>
  <sym>Flag, Blue</sym>
  <extensions>
   <ql:key>049f708b0d971e4d27b42a1010bc2465</ql:key>
   <ql:flags>3</ql:flags>
   <ql:bubble yoff="-150" xoff="-320" width="300"/>
   <ql:history>
    <ql:event>
     <ql:icon>://icons/48x48/Start.png</ql:icon>
     <ql:time>2020-07-29T03:21:28.693Z</ql:time>
     <ql:comment>Erstversion.</ql:comment>
    </ql:event>
    <ql:event>
     <ql:icon>://icons/48x48/EditText.png</ql:icon>
     <ql:time>2020-07-29T03:21:33.871Z</ql:time>
     <ql:comment>Name geändert</ql:comment>
    </ql:event>
   </ql:history>
   <wptx1:WaypointExtension/>
  </extensions>
 </wpt>
 <wpt lat="51.08258333" lon="13.75465000">
  <ele>148</ele>
  <time>2020-07-29T03:28:23.790Z</time>
  <name>Wegpunkt 15 Rechts</name>
  <sym>Flag, Blue</sym>
  <extensions>
   <ql:key>5baf912c1b23db3b70bac89a06b09e06</ql:key>
   <ql:flags>3</ql:flags>
   <ql:bubble yoff="-150" xoff="-320" width="300"/>
   <ql:history>
    <ql:event>
     <ql:icon>://icons/48x48/Start.png</ql:icon>
     <ql:time>2020-07-29T03:28:23.790Z</ql:time>
     <ql:comment>Erstversion.</ql:comment>
    </ql:event>
    <ql:event>
     <ql:icon>://icons/48x48/WptEditProx.png</ql:icon>
     <ql:time>2020-07-29T03:28:27.896Z</ql:time>
     <ql:comment>Abstandsalarm geändert</ql:comment>
    </ql:event>
   </ql:history>
   <wptx1:WaypointExtension>
    <wptx1:Proximity>10.00000000</wptx1:Proximity>
   </wptx1:WaypointExtension>
  </extensions>
 </wpt>
 <wpt lat="51.08171667" lon="13.76000000">
  <ele>145</ele>
  <time>2020-07-29T03:29:07.287Z</time>
  <name>Wegpunkt 16 Hier</name>
  <sym>Flag, Blue</sym>
  <extensions>
   <ql:key>9ca973f81c7ad50a11eea50d54056699</ql:key>
   <ql:flags>3</ql:flags>
   <ql:bubble yoff="-150" xoff="-320" width="300"/>
   <ql:history>
    <ql:event>
     <ql:icon>://icons/48x48/Start.png</ql:icon>
     <ql:time>2020-07-29T03:29:07.287Z</ql:time>
     <ql:comment>Erstversion.</ql:comment>
    </ql:event>
    <ql:event>
     <ql:icon>://icons/48x48/WptEditProx.png</ql:icon>
     <ql:time>2020-07-29T03:29:10.281Z</ql:time>
     <ql:comment>Abstandsalarm geändert</ql:comment>
    </ql:event>
   </ql:history>
   <wptx1:WaypointExtension>
    <wptx1:Proximity>10.00000000</wptx1:Proximity>
   </wptx1:WaypointExtension>
  </extensions>
 </wpt>
 <trk>
  <name>Track</name>
  <extensions>
   <ql:key>5fb6325997dded65bce4636b99b430cb</ql:key>
   <ql:flags>5</ql:flags>
   <ql:history>
    <ql:event>
     <ql:icon>://icons/48x48/Start.png</ql:icon>
     <ql:time>2020-06-24T16:19:35.099Z</ql:time>
     <ql:comment>Erstversion.</ql:comment>
    </ql:event>
    <ql:event>
     <ql:icon>://icons/48x48/ActFoot.png</ql:icon>
     <ql:time>2020-06-30T16:41:22.966Z</ql:time>
     <ql:comment>Die Aktivität wurde für den gesamten Track auf 'Fußgänger' geändert.</ql:comment>
    </ql:event>
   </ql:history>
   <gpxx:TrackExtension>
    <gpxx:DisplayColor>DarkBlue</gpxx:DisplayColor>
   </gpxx:TrackExtension>
  </extensions>
  <trkseg>
   <trkpt lat="51.06994874" lon="13.75547965">
    <ele>122</ele>
    <extensions>
     <ql:flags>2147483648</ql:flags>
    </extensions>
   </trkpt>
   <trkpt lat="51.06994629" lon="13.75548363">
    <ele>122</ele>
    <extensions>
     <ql:flags>2147483656</ql:flags>
    </extensions>
   </trkpt>
   <trkpt lat="51.06975440" lon="13.75614752">
    <ele>122</ele>
    <extensions>
     <ql:flags>2147483648</ql:flags>
    </extensions>
   </trkpt>
   <trkpt lat="51.06981754" lon="13.75619173">
    <ele>122</ele>
    <extensions>
     <ql:flags>2147483656</ql:flags>
    </extensions>
   </trkpt>
   <trkpt lat="51.06988192" lon="13.75627756">
    <ele>121</ele>
    <extensions>
     <ql:flags>2147483656</ql:flags>
    </extensions>
   </trkpt>
   <trkpt lat="51.06992423" lon="13.75629906">
    <ele>121</ele>
    <extensions>
     <ql:flags>2147483648</ql:flags>
    </extensions>
   </trkpt>
   <trkpt lat="51.06990337" lon="13.75634193">
    <ele>121</ele>
    <extensions>
     <ql:flags>2147483656</ql:flags>
    </extensions>
   </trkpt>
   <trkpt lat="51.06988192" lon="13.75638485">
    <ele>121</ele>
    <extensions>
     <ql:flags>2147483656</ql:flags>
    </extensions>
   </trkpt>
   <trkpt lat="51.06981754" lon="13.75664234">
    <ele>122</ele>
    <extensions>
     <ql:flags>2147483656</ql:flags>
    </extensions>
   </trkpt>
   <trkpt lat="51.06977299" lon="13.75689853">
    <ele>122</ele>
    <extensions>
     <ql:flags>2147483648</ql:flags>
    </extensions>
   </trkpt>
   <trkpt lat="51.07003212" lon="13.75827312">
    <ele>122</ele>
    <extensions>
     <ql:flags>2147483656</ql:flags>
    </extensions>
   </trkpt>
   <trkpt lat="51.07013941" lon="13.75934601">
    <ele>123</ele>
    <extensions>
     <ql:flags>2147483656</ql:flags>
    </extensions>
   </trkpt>
   <trkpt lat="51.07022524" lon="13.75986099">
    <ele>123</ele>
    <extensions>
     <ql:flags>2147483656</ql:flags>
    </extensions>
   </trkpt>
   <trkpt lat="51.07024670" lon="13.75992537">
    <ele>123</ele>
    <extensions>
     <ql:flags>2147483656</ql:flags>
    </extensions>
   </trkpt>
   <trkpt lat="51.07020138" lon="13.76000990">
    <ele>123</ele>
    <extensions>
     <ql:flags>2147483648</ql:flags>
    </extensions>
   </trkpt>
   <trkpt lat="51.07026813" lon="13.76007561">
    <ele>123</ele>
    <extensions>
     <ql:flags>2147483648</ql:flags>
    </extensions>
   </trkpt>
   <trkpt lat="51.07076073" lon="13.76037602">
    <ele>122</ele>
    <extensions>
     <ql:flags>2147483648</ql:flags>
    </extensions>
   </trkpt>
   <trkpt lat="51.07104063" lon="13.76037598">
    <ele>121</ele>
    <extensions>
     <ql:flags>2147483656</ql:flags>
    </extensions>
   </trkpt>
   <trkpt lat="51.07116938" lon="13.76037598">
    <ele>121</ele>
    <extensions>
     <ql:flags>2147483656</ql:flags>
    </extensions>
   </trkpt>
   <trkpt lat="51.07127666" lon="13.76041889">
    <ele>121</ele>
    <extensions>
     <ql:flags>2147483656</ql:flags>
    </extensions>
   </trkpt>
   <trkpt lat="51.07146978" lon="13.76054764">
    <ele>121</ele>
    <extensions>
     <ql:flags>2147483656</ql:flags>
    </extensions>
   </trkpt>
   <trkpt lat="51.07151270" lon="13.76059055">
    <ele>121</ele>
    <extensions>
     <ql:flags>2147483656</ql:flags>
    </extensions>
   </trkpt>
   <trkpt lat="51.07157707" lon="13.76065493">
    <ele>121</ele>
    <extensions>
     <ql:flags>2147483656</ql:flags>
    </extensions>
   </trkpt>
   <trkpt lat="51.07226132" lon="13.76140330">
    <ele>118</ele>
    <extensions>
     <ql:flags>2147483648</ql:flags>
    </extensions>
   </trkpt>
   <trkpt lat="51.07247829" lon="13.76162052">
    <ele>119</ele>
    <extensions>
     <ql:flags>2147483656</ql:flags>
    </extensions>
   </trkpt>
   <trkpt lat="51.07286453" lon="13.76196384">
    <ele>118</ele>
    <extensions>
     <ql:flags>2147483656</ql:flags>
    </extensions>
   </trkpt>
   <trkpt lat="51.07303619" lon="13.76202822">
    <ele>118</ele>
    <extensions>
     <ql:flags>2147483656</ql:flags>
    </extensions>
   </trkpt>
   <trkpt lat="51.07340097" lon="13.76209259">
    <ele>121</ele>
    <extensions>
     <ql:flags>2147483656</ql:flags>
    </extensions>
   </trkpt>
   <trkpt lat="51.07370138" lon="13.76222134">
    <ele>124</ele>
    <extensions>
     <ql:flags>2147483656</ql:flags>
    </extensions>
   </trkpt>
   <trkpt lat="51.07402123" lon="13.76236890">
    <ele>127</ele>
    <extensions>
     <ql:flags>2147483648</ql:flags>
    </extensions>
   </trkpt>
   <trkpt lat="51.07447386" lon="13.76265049">
    <ele>131</ele>
    <extensions>
     <ql:flags>2147483656</ql:flags>
    </extensions>
   </trkpt>
   <trkpt lat="51.07453823" lon="13.76267195">
    <ele>131</ele>
    <extensions>
     <ql:flags>2147483656</ql:flags>
    </extensions>
   </trkpt>
   <trkpt lat="51.07462406" lon="13.76267195">
    <ele>131</ele>
    <extensions>
     <ql:flags>2147483656</ql:flags>
    </extensions>
   </trkpt>
   <trkpt lat="51.07468843" lon="13.76265049">
    <ele>131</ele>
    <extensions>
     <ql:flags>2147483656</ql:flags>
    </extensions>
   </trkpt>
   <trkpt lat="51.07477427" lon="13.76258612">
    <ele>131</ele>
    <extensions>
     <ql:flags>2147483656</ql:flags>
    </extensions>
   </trkpt>
   <trkpt lat="51.07490301" lon="13.76247883">
    <ele>130</ele>
    <extensions>
     <ql:flags>2147483656</ql:flags>
    </extensions>
   </trkpt>
   <trkpt lat="51.07496738" lon="13.76232862">
    <ele>130</ele>
    <extensions>
     <ql:flags>2147483656</ql:flags>
    </extensions>
   </trkpt>
   <trkpt lat="51.07503176" lon="13.76213551">
    <ele>129</ele>
    <extensions>
     <ql:flags>2147483656</ql:flags>
    </extensions>
   </trkpt>
   <trkpt lat="51.07509613" lon="13.76207113">
    <ele>129</ele>
    <extensions>
     <ql:flags>2147483656</ql:flags>
    </extensions>
   </trkpt>
   <trkpt lat="51.07518196" lon="13.76200676">
    <ele>129</ele>
    <extensions>
     <ql:flags>2147483656</ql:flags>
    </extensions>
   </trkpt>
   <trkpt lat="51.07541780" lon="13.76194377">
    <ele>129</ele>
    <extensions>
     <ql:flags>2147483648</ql:flags>
    </extensions>
   </trkpt>
   <trkpt lat="51.07563257" lon="13.76192093">
    <ele>128</ele>
    <extensions>
     <ql:flags>2147483656</ql:flags>
    </extensions>
   </trkpt>
   <trkpt lat="51.07573986" lon="13.76183510">
    <ele>128</ele>
    <extensions>
     <ql:flags>2147483656</ql:flags>
    </extensions>
   </trkpt>
   <trkpt lat="51.07586861" lon="13.76149178">
    <ele>130</ele>
    <extensions>
     <ql:flags>2147483656</ql:flags>
    </extensions>
   </trkpt>
   <trkpt lat="51.07606173" lon="13.76123428">
    <ele>131</ele>
    <extensions>
     <ql:flags>2147483656</ql:flags>
    </extensions>
   </trkpt>
   <trkpt lat="51.07621193" lon="13.76116991">
    <ele>131</ele>
    <extensions>
     <ql:flags>2147483656</ql:flags>
    </extensions>
   </trkpt>
   <trkpt lat="51.07644796" lon="13.76116991">
    <ele>131</ele>
    <extensions>
     <ql:flags>2147483656</ql:flags>
    </extensions>
   </trkpt>
   <trkpt lat="51.07655525" lon="13.76119137">
    <ele>131</ele>
    <extensions>
     <ql:flags>2147483656</ql:flags>
    </extensions>
   </trkpt>
   <trkpt lat="51.07668400" lon="13.76125574">
    <ele>131</ele>
    <extensions>
     <ql:flags>2147483656</ql:flags>
    </extensions>
   </trkpt>
   <trkpt lat="51.07685566" lon="13.76151323">
    <ele>130</ele>
    <extensions>
     <ql:flags>2147483656</ql:flags>
    </extensions>
   </trkpt>
   <trkpt lat="51.07702732" lon="13.76187801">
    <ele>130</ele>
    <extensions>
     <ql:flags>2147483656</ql:flags>
    </extensions>
   </trkpt>
   <trkpt lat="51.07734919" lon="13.76239300">
    <ele>130</ele>
    <extensions>
     <ql:flags>2147483656</ql:flags>
    </extensions>
   </trkpt>
   <trkpt lat="51.07756376" lon="13.76262903">
    <ele>130</ele>
    <extensions>
     <ql:flags>2147483656</ql:flags>
    </extensions>
   </trkpt>
   <trkpt lat="51.07773542" lon="13.76275778">
    <ele>130</ele>
    <extensions>
     <ql:flags>2147483656</ql:flags>
    </extensions>
   </trkpt>
   <trkpt lat="51.07786417" lon="13.76282215">
    <ele>129</ele>
    <extensions>
     <ql:flags>2147483656</ql:flags>
    </extensions>
   </trkpt>
   <trkpt lat="51.07795000" lon="13.76297235">
    <ele>129</ele>
    <extensions>
     <ql:flags>2147483656</ql:flags>
    </extensions>
   </trkpt>
   <trkpt lat="51.07805729" lon="13.76322985">
    <ele>130</ele>
    <extensions>
     <ql:flags>2147483656</ql:flags>
    </extensions>
   </trkpt>
   <trkpt lat="51.07812166" lon="13.76346588">
    <ele>130</ele>
    <extensions>
     <ql:flags>2147483656</ql:flags>
    </extensions>
   </trkpt>
   <trkpt lat="51.07831478" lon="13.76398087">
    <ele>132</ele>
    <extensions>
     <ql:flags>2147483656</ql:flags>
    </extensions>
   </trkpt>
   <trkpt lat="51.07837915" lon="13.76436710">
    <ele>134</ele>
    <extensions>
     <ql:flags>2147483656</ql:flags>
    </extensions>
   </trkpt>
   <trkpt lat="51.07846498" lon="13.76464605">
    <ele>135</ele>
    <extensions>
     <ql:flags>2147483656</ql:flags>
    </extensions>
   </trkpt>
   <trkpt lat="51.07850790" lon="13.76483917">
    <ele>135</ele>
    <extensions>
     <ql:flags>2147483656</ql:flags>
    </extensions>
   </trkpt>
   <trkpt lat="51.07895851" lon="13.76571894">
    <ele>138</ele>
    <extensions>
     <ql:flags>2147483656</ql:flags>
    </extensions>
   </trkpt>
   <trkpt lat="51.07902288" lon="13.76589060">
    <ele>138</ele>
    <extensions>
     <ql:flags>2147483656</ql:flags>
    </extensions>
   </trkpt>
   <trkpt lat="51.07902288" lon="13.76636267">
    <ele>140</ele>
    <extensions>
     <ql:flags>2147483656</ql:flags>
    </extensions>
   </trkpt>
   <trkpt lat="51.07904434" lon="13.76651287">
    <ele>141</ele>
    <extensions>
     <ql:flags>2147483656</ql:flags>
    </extensions>
   </trkpt>
   <trkpt lat="51.07910872" lon="13.76672745">
    <ele>142</ele>
    <extensions>
     <ql:flags>2147483656</ql:flags>
    </extensions>
   </trkpt>
   <trkpt lat="51.07921600" lon="13.76687765">
    <ele>142</ele>
    <extensions>
     <ql:flags>2147483656</ql:flags>
    </extensions>
   </trkpt>
   <trkpt lat="51.07943058" lon="13.76709223">
    <ele>141</ele>
    <extensions>
     <ql:flags>2147483656</ql:flags>
    </extensions>
   </trkpt>
   <trkpt lat="51.07981682" lon="13.76722097">
    <ele>139</ele>
    <extensions>
     <ql:flags>2147483656</ql:flags>
    </extensions>
   </trkpt>
   <trkpt lat="51.08000994" lon="13.76739264">
    <ele>137</ele>
    <extensions>
     <ql:flags>2147483656</ql:flags>
    </extensions>
   </trkpt>
   <trkpt lat="51.08031034" lon="13.76807928">
    <ele>136</ele>
    <extensions>
     <ql:flags>2147483656</ql:flags>
    </extensions>
   </trkpt>
   <trkpt lat="51.08052492" lon="13.76889467">
    <ele>136</ele>
    <extensions>
     <ql:flags>2147483656</ql:flags>
    </extensions>
   </trkpt>
   <trkpt lat="51.08071804" lon="13.76928091">
    <ele>137</ele>
    <extensions>
     <ql:flags>2147483656</ql:flags>
    </extensions>
   </trkpt>
   <trkpt lat="51.08103991" lon="13.77037525">
    <ele>138</ele>
    <extensions>
     <ql:flags>2147483656</ql:flags>
    </extensions>
   </trkpt>
   <trkpt lat="51.08116865" lon="13.77089024">
    <ele>139</ele>
    <extensions>
     <ql:flags>2147483656</ql:flags>
    </extensions>
   </trkpt>
   <trkpt lat="51.08127594" lon="13.77127647">
    <ele>139</ele>
    <extensions>
     <ql:flags>2147483656</ql:flags>
    </extensions>
   </trkpt>
   <trkpt lat="51.08138323" lon="13.77161980">
    <ele>141</ele>
    <extensions>
     <ql:flags>2147483656</ql:flags>
    </extensions>
   </trkpt>
   <trkpt lat="51.08151197" lon="13.77189875">
    <ele>141</ele>
    <extensions>
     <ql:flags>2147483656</ql:flags>
    </extensions>
   </trkpt>
   <trkpt lat="51.08170509" lon="13.77204895">
    <ele>139</ele>
    <extensions>
     <ql:flags>2147483656</ql:flags>
    </extensions>
   </trkpt>
   <trkpt lat="51.08187675" lon="13.77217770">
    <ele>137</ele>
    <extensions>
     <ql:flags>2147483656</ql:flags>
    </extensions>
   </trkpt>
   <trkpt lat="51.08269215" lon="13.77288580">
    <ele>138</ele>
    <extensions>
     <ql:flags>2147483656</ql:flags>
    </extensions>
   </trkpt>
   <trkpt lat="51.08325005" lon="13.77286434">
    <ele>138</ele>
    <extensions>
     <ql:flags>2147483656</ql:flags>
    </extensions>
   </trkpt>
   <trkpt lat="51.08340025" lon="13.77279997">
    <ele>138</ele>
    <extensions>
     <ql:flags>2147483656</ql:flags>
    </extensions>
   </trkpt>
   <trkpt lat="51.08389378" lon="13.77245665">
    <ele>140</ele>
    <extensions>
     <ql:flags>2147483656</ql:flags>
    </extensions>
   </trkpt>
   <trkpt lat="51.08483791" lon="13.77243519">
    <ele>140</ele>
    <extensions>
     <ql:flags>2147483656</ql:flags>
    </extensions>
   </trkpt>
   <trkpt lat="51.08496666" lon="13.77224207">
    <ele>139</ele>
    <extensions>
     <ql:flags>2147483656</ql:flags>
    </extensions>
   </trkpt>
   <trkpt lat="51.08509541" lon="13.77213478">
    <ele>138</ele>
    <extensions>
     <ql:flags>2147483656</ql:flags>
    </extensions>
   </trkpt>
   <trkpt lat="51.08543873" lon="13.77211332">
    <ele>138</ele>
    <extensions>
     <ql:flags>2147483656</ql:flags>
    </extensions>
   </trkpt>
   <trkpt lat="51.08597517" lon="13.77213478">
    <ele>137</ele>
    <extensions>
     <ql:flags>2147483656</ql:flags>
    </extensions>
   </trkpt>
   <trkpt lat="51.08616829" lon="13.77215624">
    <ele>137</ele>
    <extensions>
     <ql:flags>2147483656</ql:flags>
    </extensions>
   </trkpt>
   <trkpt lat="51.08636141" lon="13.77224207">
    <ele>138</ele>
    <extensions>
     <ql:flags>2147483656</ql:flags>
    </extensions>
   </trkpt>
   <trkpt lat="51.08659744" lon="13.77241373">
    <ele>140</ele>
    <extensions>
     <ql:flags>2147483656</ql:flags>
    </extensions>
   </trkpt>
   <trkpt lat="51.08679056" lon="13.77262831">
    <ele>140</ele>
    <extensions>
     <ql:flags>2147483656</ql:flags>
    </extensions>
   </trkpt>
   <trkpt lat="51.08713388" lon="13.77322912">
    <ele>141</ele>
    <extensions>
     <ql:flags>2147483656</ql:flags>
    </extensions>
   </trkpt>
   <trkpt lat="51.08728409" lon="13.77367973">
    <ele>143</ele>
    <extensions>
     <ql:flags>2147483656</ql:flags>
    </extensions>
   </trkpt>
   <trkpt lat="51.08743429" lon="13.77387285">
    <ele>144</ele>
    <extensions>
     <ql:flags>2147483656</ql:flags>
    </extensions>
   </trkpt>
   <trkpt lat="51.08775616" lon="13.77415180">
    <ele>144</ele>
    <extensions>
     <ql:flags>2147483656</ql:flags>
    </extensions>
   </trkpt>
   <trkpt lat="51.08797073" lon="13.77436638">
    <ele>144</ele>
    <extensions>
     <ql:flags>2147483656</ql:flags>
    </extensions>
   </trkpt>
   <trkpt lat="51.08807802" lon="13.77440929">
    <ele>144</ele>
    <extensions>
     <ql:flags>2147483656</ql:flags>
    </extensions>
   </trkpt>
   <trkpt lat="51.08837843" lon="13.77438784">
    <ele>142</ele>
    <extensions>
     <ql:flags>2147483656</ql:flags>
    </extensions>
   </trkpt>
   <trkpt lat="51.08867884" lon="13.77430201">
    <ele>141</ele>
    <extensions>
     <ql:flags>2147483656</ql:flags>
    </extensions>
   </trkpt>
   <trkpt lat="51.08917236" lon="13.77398014">
    <ele>141</ele>
    <extensions>
     <ql:flags>2147483656</ql:flags>
    </extensions>
   </trkpt>
   <trkpt lat="51.08955860" lon="13.77327204">
    <ele>141</ele>
    <extensions>
     <ql:flags>2147483656</ql:flags>
    </extensions>
   </trkpt>
   <trkpt lat="51.08968735" lon="13.77312183">
    <ele>142</ele>
    <extensions>
     <ql:flags>2147483656</ql:flags>
    </extensions>
   </trkpt>
   <trkpt lat="51.08981609" lon="13.77305746">
    <ele>142</ele>
    <extensions>
     <ql:flags>2147483656</ql:flags>
    </extensions>
   </trkpt>
   <trkpt lat="51.09003067" lon="13.77303600">
    <ele>142</ele>
    <extensions>
     <ql:flags>2147483656</ql:flags>
    </extensions>
   </trkpt>
   <trkpt lat="51.09015942" lon="13.77312183">
    <ele>142</ele>
    <extensions>
     <ql:flags>2147483656</ql:flags>
    </extensions>
   </trkpt>
   <trkpt lat="51.09048128" lon="13.77329350">
    <ele>143</ele>
    <extensions>
     <ql:flags>2147483656</ql:flags>
    </extensions>
   </trkpt>
   <trkpt lat="51.09061003" lon="13.77329350">
    <ele>143</ele>
    <extensions>
     <ql:flags>2147483656</ql:flags>
    </extensions>
   </trkpt>
   <trkpt lat="51.09082460" lon="13.77322912">
    <ele>144</ele>
    <extensions>
     <ql:flags>2147483656</ql:flags>
    </extensions>
   </trkpt>
   <trkpt lat="51.09112501" lon="13.77310038">
    <ele>144</ele>
    <extensions>
     <ql:flags>2147483656</ql:flags>
    </extensions>
   </trkpt>
   <trkpt lat="51.09155416" lon="13.77279997">
    <ele>144</ele>
    <extensions>
     <ql:flags>2147483656</ql:flags>
    </extensions>
   </trkpt>
   <trkpt lat="51.09170437" lon="13.77279997">
    <ele>144</ele>
    <extensions>
     <ql:flags>2147483656</ql:flags>
    </extensions>
   </trkpt>
   <trkpt lat="51.09324932" lon="13.77335787">
    <ele>144</ele>
    <extensions>
     <ql:flags>2147483656</ql:flags>
    </extensions>
   </trkpt>
   <trkpt lat="51.09339952" lon="13.77348661">
    <ele>143</ele>
    <extensions>
     <ql:flags>2147483656</ql:flags>
    </extensions>
   </trkpt>
   <trkpt lat="51.09352827" lon="13.77374411">
    <ele>142</ele>
    <extensions>
     <ql:flags>2147483656</ql:flags>
    </extensions>
   </trkpt>
   <trkpt lat="51.09363556" lon="13.77415180">
    <ele>143</ele>
    <extensions>
     <ql:flags>2147483656</ql:flags>
    </extensions>
   </trkpt>
   <trkpt lat="51.09363556" lon="13.77428055">
    <ele>143</ele>
    <extensions>
     <ql:flags>2147483656</ql:flags>
    </extensions>
   </trkpt>
   <trkpt lat="51.09378576" lon="13.77475262">
    <ele>146</ele>
    <extensions>
     <ql:flags>2147483656</ql:flags>
    </extensions>
   </trkpt>
   <trkpt lat="51.09391451" lon="13.77492428">
    <ele>148</ele>
    <extensions>
     <ql:flags>2147483656</ql:flags>
    </extensions>
   </trkpt>
   <trkpt lat="51.09397888" lon="13.77498865">
    <ele>148</ele>
    <extensions>
     <ql:flags>2147483656</ql:flags>
    </extensions>
   </trkpt>
   <trkpt lat="51.09402180" lon="13.77501011">
    <ele>148</ele>
    <extensions>
     <ql:flags>2147483656</ql:flags>
    </extensions>
   </trkpt>
   <trkpt lat="51.09423637" lon="13.77505302">
    <ele>147</ele>
    <extensions>
     <ql:flags>2147483656</ql:flags>
    </extensions>
   </trkpt>
   <trkpt lat="51.09432220" lon="13.77507448">
    <ele>146</ele>
    <extensions>
     <ql:flags>2147483656</ql:flags>
    </extensions>
   </trkpt>
   <trkpt lat="51.09438658" lon="13.77511740">
    <ele>146</ele>
    <extensions>
     <ql:flags>2147483656</ql:flags>
    </extensions>
   </trkpt>
   <trkpt lat="51.09442949" lon="13.77520323">
    <ele>145</ele>
    <extensions>
     <ql:flags>2147483656</ql:flags>
    </extensions>
   </trkpt>
   <trkpt lat="51.09449387" lon="13.77548218">
    <ele>145</ele>
    <extensions>
     <ql:flags>2147483656</ql:flags>
    </extensions>
   </trkpt>
   <trkpt lat="51.09451532" lon="13.77563238">
    <ele>145</ele>
    <extensions>
     <ql:flags>2147483656</ql:flags>
    </extensions>
   </trkpt>
   <trkpt lat="51.09453678" lon="13.77576113">
    <ele>146</ele>
    <extensions>
     <ql:flags>2147483656</ql:flags>
    </extensions>
   </trkpt>
   <trkpt lat="51.09462322" lon="13.77601732">
    <ele>147</ele>
    <extensions>
     <ql:flags>2147483648</ql:flags>
    </extensions>
   </trkpt>
   <trkpt lat="51.09472990" lon="13.77597570">
    <ele>146</ele>
    <extensions>
     <ql:flags>2147483656</ql:flags>
    </extensions>
   </trkpt>
   <trkpt lat="51.09479427" lon="13.77591133">
    <ele>146</ele>
    <extensions>
     <ql:flags>2147483656</ql:flags>
    </extensions>
   </trkpt>
   <trkpt lat="51.09502858" lon="13.77573971">
    <ele>146</ele>
    <extensions>
     <ql:flags>2147483648</ql:flags>
    </extensions>
   </trkpt>
   <trkpt lat="51.09522343" lon="13.77552509">
    <ele>147</ele>
    <extensions>
     <ql:flags>2147483656</ql:flags>
    </extensions>
   </trkpt>
   <trkpt lat="51.09545946" lon="13.77509594">
    <ele>154</ele>
    <extensions>
     <ql:flags>2147483656</ql:flags>
    </extensions>
   </trkpt>
   <trkpt lat="51.09556675" lon="13.77481699">
    <ele>160</ele>
    <extensions>
     <ql:flags>2147483656</ql:flags>
    </extensions>
   </trkpt>
   <trkpt lat="51.09560966" lon="13.77462387">
    <ele>163</ele>
    <extensions>
     <ql:flags>2147483656</ql:flags>
    </extensions>
   </trkpt>
   <trkpt lat="51.09586716" lon="13.77359390">
    <ele>171</ele>
    <extensions>
     <ql:flags>2147483656</ql:flags>
    </extensions>
   </trkpt>
   <trkpt lat="51.09603882" lon="13.77299309">
    <ele>172</ele>
    <extensions>
     <ql:flags>2147483656</ql:flags>
    </extensions>
   </trkpt>
   <trkpt lat="51.09610319" lon="13.77290726">
    <ele>172</ele>
    <extensions>
     <ql:flags>2147483656</ql:flags>
    </extensions>
   </trkpt>
   <trkpt lat="51.09627335" lon="13.77280135">
    <ele>171</ele>
    <extensions>
     <ql:flags>2147483648</ql:flags>
    </extensions>
   </trkpt>
   <trkpt lat="51.09631777" lon="13.77275705">
    <ele>171</ele>
    <extensions>
     <ql:flags>2147483656</ql:flags>
    </extensions>
   </trkpt>
   <trkpt lat="51.09633923" lon="13.77275705">
    <ele>171</ele>
    <extensions>
     <ql:flags>2147483656</ql:flags>
    </extensions>
   </trkpt>
   <trkpt lat="51.09668255" lon="13.77241373">
    <ele>170</ele>
    <extensions>
     <ql:flags>2147483656</ql:flags>
    </extensions>
   </trkpt>
   <trkpt lat="51.09678984" lon="13.77237082">
    <ele>170</ele>
    <extensions>
     <ql:flags>2147483656</ql:flags>
    </extensions>
   </trkpt>
   <trkpt lat="51.09689713" lon="13.77230644">
    <ele>170</ele>
    <extensions>
     <ql:flags>2147483656</ql:flags>
    </extensions>
   </trkpt>
   <trkpt lat="51.09726191" lon="13.77187729">
    <ele>170</ele>
    <extensions>
     <ql:flags>2147483656</ql:flags>
    </extensions>
   </trkpt>
   <trkpt lat="51.09749794" lon="13.77142668">
    <ele>171</ele>
    <extensions>
     <ql:flags>2147483656</ql:flags>
    </extensions>
   </trkpt>
   <trkpt lat="51.09760253" lon="13.77119471">
    <ele>171</ele>
    <extensions>
     <ql:flags>2147483648</ql:flags>
    </extensions>
   </trkpt>
   <trkpt lat="51.09760523" lon="13.77119064">
    <ele>171</ele>
    <extensions>
     <ql:flags>2147483656</ql:flags>
    </extensions>
   </trkpt>
   <trkpt lat="51.09783306" lon="13.77086077">
    <ele>170</ele>
    <extensions>
     <ql:flags>2147483648</ql:flags>
    </extensions>
   </trkpt>
   <trkpt lat="51.09837772" lon="13.77018352">
    <ele>172</ele>
    <extensions>
     <ql:flags>2147483648</ql:flags>
    </extensions>
   </trkpt>
  </trkseg>
  <trkseg>
   <trkpt lat="51.09838194" lon="13.77017949">
    <ele>172</ele>
    <extensions>
     <ql:flags>2147483648</ql:flags>
    </extensions>
   </trkpt>
   <trkpt lat="51.09842585" lon="13.77010171">
    <ele>172</ele>
    <extensions>
     <ql:flags>2147483648</ql:flags>
    </extensions>
   </trkpt>
   <trkpt lat="51.09850645" lon="13.77001047">
    <ele>172</ele>
    <extensions>
     <ql:flags>2147483656</ql:flags>
    </extensions>
   </trkpt>
   <trkpt lat="51.09852791" lon="13.76998901">
    <ele>172</ele>
    <extensions>
     <ql:flags>2147483656</ql:flags>
    </extensions>
   </trkpt>
   <trkpt lat="51.09861374" lon="13.76990318">
    <ele>172</ele>
    <extensions>
     <ql:flags>2147483656</ql:flags>
    </extensions>
   </trkpt>
   <trkpt lat="51.09872103" lon="13.76977444">
    <ele>172</ele>
    <extensions>
     <ql:flags>2147483656</ql:flags>
    </extensions>
   </trkpt>
   <trkpt lat="51.09906435" lon="13.76940966">
    <ele>173</ele>
    <extensions>
     <ql:flags>2147483656</ql:flags>
    </extensions>
   </trkpt>
   <trkpt lat="51.09914952" lon="13.76930643">
    <ele>174</ele>
    <extensions>
     <ql:flags>2147483648</ql:flags>
    </extensions>
   </trkpt>
   <trkpt lat="51.09921455" lon="13.76925945">
    <ele>174</ele>
    <extensions>
     <ql:flags>2147483656</ql:flags>
    </extensions>
   </trkpt>
   <trkpt lat="51.09929983" lon="13.76915355">
    <ele>174</ele>
    <extensions>
     <ql:flags>2147483648</ql:flags>
    </extensions>
   </trkpt>
   <trkpt lat="51.09930038" lon="13.76902342">
    <ele>174</ele>
    <extensions>
     <ql:flags>2147483656</ql:flags>
    </extensions>
   </trkpt>
   <trkpt lat="51.09934330" lon="13.76889467">
    <ele>175</ele>
    <extensions>
     <ql:flags>2147483656</ql:flags>
    </extensions>
   </trkpt>
   <trkpt lat="51.09945059" lon="13.76874447">
    <ele>175</ele>
    <extensions>
     <ql:flags>2147483656</ql:flags>
    </extensions>
   </trkpt>
   <trkpt lat="51.09960079" lon="13.76857281">
    <ele>176</ele>
    <extensions>
     <ql:flags>2147483656</ql:flags>
    </extensions>
   </trkpt>
   <trkpt lat="51.09994411" lon="13.76814365">
    <ele>178</ele>
    <extensions>
     <ql:flags>2147483656</ql:flags>
    </extensions>
   </trkpt>
   <trkpt lat="51.10013723" lon="13.76790762">
    <ele>178</ele>
    <extensions>
     <ql:flags>2147483656</ql:flags>
    </extensions>
   </trkpt>
   <trkpt lat="51.10037138" lon="13.76771722">
    <ele>179</ele>
    <extensions>
     <ql:flags>2147483648</ql:flags>
    </extensions>
   </trkpt>
   <trkpt lat="51.10037327" lon="13.76771450">
    <ele>179</ele>
    <extensions>
     <ql:flags>2147483656</ql:flags>
    </extensions>
   </trkpt>
   <trkpt lat="51.10002995" lon="13.76709223">
    <ele>178</ele>
    <extensions>
     <ql:flags>2147483656</ql:flags>
    </extensions>
   </trkpt>
   <trkpt lat="51.09983940" lon="13.76668726">
    <ele>177</ele>
    <extensions>
     <ql:flags>2147483648</ql:flags>
    </extensions>
   </trkpt>
   <trkpt lat="51.09850945" lon="13.76363893">
    <ele>172</ele>
    <extensions>
     <ql:flags>2147483648</ql:flags>
    </extensions>
   </trkpt>
  </trkseg>
  <trkseg>
   <trkpt lat="51.09850691" lon="13.76363490">
    <ele>172</ele>
    <extensions>
     <ql:flags>2147483648</ql:flags>
    </extensions>
   </trkpt>
   <trkpt lat="51.09833479" lon="13.76338005">
    <ele>171</ele>
    <extensions>
     <ql:flags>2147483656</ql:flags>
    </extensions>
   </trkpt>
   <trkpt lat="51.09805584" lon="13.76327276">
    <ele>170</ele>
    <extensions>
     <ql:flags>2147483656</ql:flags>
    </extensions>
   </trkpt>
   <trkpt lat="51.09764814" lon="13.76297235">
    <ele>170</ele>
    <extensions>
     <ql:flags>2147483656</ql:flags>
    </extensions>
   </trkpt>
   <trkpt lat="51.09730482" lon="13.76260757">
    <ele>170</ele>
    <extensions>
     <ql:flags>2147483656</ql:flags>
    </extensions>
   </trkpt>
   <trkpt lat="51.09719753" lon="13.76230717">
    <ele>171</ele>
    <extensions>
     <ql:flags>2147483656</ql:flags>
    </extensions>
   </trkpt>
   <trkpt lat="51.09715462" lon="13.76185656">
    <ele>170</ele>
    <extensions>
     <ql:flags>2147483656</ql:flags>
    </extensions>
   </trkpt>
   <trkpt lat="51.09709024" lon="13.76153469">
    <ele>168</ele>
    <extensions>
     <ql:flags>2147483656</ql:flags>
    </extensions>
   </trkpt>
   <trkpt lat="51.09694004" lon="13.76104116">
    <ele>167</ele>
    <extensions>
     <ql:flags>2147483656</ql:flags>
    </extensions>
   </trkpt>
   <trkpt lat="51.09685421" lon="13.76074076">
    <ele>166</ele>
    <extensions>
     <ql:flags>2147483656</ql:flags>
    </extensions>
   </trkpt>
   <trkpt lat="51.09683275" lon="13.76063347">
    <ele>166</ele>
    <extensions>
     <ql:flags>2147483656</ql:flags>
    </extensions>
   </trkpt>
   <trkpt lat="51.09681129" lon="13.76013994">
    <ele>166</ele>
    <extensions>
     <ql:flags>2147483656</ql:flags>
    </extensions>
   </trkpt>
   <trkpt lat="51.09674692" lon="13.75962496">
    <ele>166</ele>
    <extensions>
     <ql:flags>2147483656</ql:flags>
    </extensions>
   </trkpt>
   <trkpt lat="51.09653234" lon="13.75902414">
    <ele>164</ele>
    <extensions>
     <ql:flags>2147483656</ql:flags>
    </extensions>
   </trkpt>
   <trkpt lat="51.09617032" lon="13.75814844">
    <ele>163</ele>
    <extensions>
     <ql:flags>2147483648</ql:flags>
    </extensions>
   </trkpt>
   <trkpt lat="51.09606391" lon="13.75795532">
    <ele>163</ele>
    <extensions>
     <ql:flags>2147483648</ql:flags>
    </extensions>
   </trkpt>
   <trkpt lat="51.09606028" lon="13.75795126">
    <ele>163</ele>
    <extensions>
     <ql:flags>2147483656</ql:flags>
    </extensions>
   </trkpt>
   <trkpt lat="51.09599590" lon="13.75771523">
    <ele>162</ele>
    <extensions>
     <ql:flags>2147483656</ql:flags>
    </extensions>
   </trkpt>
   <trkpt lat="51.09586716" lon="13.75743628">
    <ele>161</ele>
    <extensions>
     <ql:flags>2147483656</ql:flags>
    </extensions>
   </trkpt>
   <trkpt lat="51.09554529" lon="13.75666380">
    <ele>159</ele>
    <extensions>
     <ql:flags>2147483656</ql:flags>
    </extensions>
   </trkpt>
   <trkpt lat="51.09526634" lon="13.75591278">
    <ele>159</ele>
    <extensions>
     <ql:flags>2147483656</ql:flags>
    </extensions>
   </trkpt>
   <trkpt lat="51.09494448" lon="13.75518322">
    <ele>160</ele>
    <extensions>
     <ql:flags>2147483656</ql:flags>
    </extensions>
   </trkpt>
   <trkpt lat="51.09492470" lon="13.75493113">
    <ele>160</ele>
    <extensions>
     <ql:flags>2147483648</ql:flags>
    </extensions>
   </trkpt>
   <trkpt lat="51.09490156" lon="13.75475407">
    <ele>160</ele>
    <extensions>
     <ql:flags>2147483656</ql:flags>
    </extensions>
   </trkpt>
   <trkpt lat="51.09440804" lon="13.75353098">
    <ele>162</ele>
    <extensions>
     <ql:flags>2147483656</ql:flags>
    </extensions>
   </trkpt>
   <trkpt lat="51.09440804" lon="13.75314474">
    <ele>164</ele>
    <extensions>
     <ql:flags>2147483656</ql:flags>
    </extensions>
   </trkpt>
   <trkpt lat="51.09447241" lon="13.75280142">
    <ele>166</ele>
    <extensions>
     <ql:flags>2147483656</ql:flags>
    </extensions>
   </trkpt>
   <trkpt lat="51.09464407" lon="13.75226498">
    <ele>169</ele>
    <extensions>
     <ql:flags>2147483656</ql:flags>
    </extensions>
   </trkpt>
   <trkpt lat="51.09488010" lon="13.75151396">
    <ele>170</ele>
    <extensions>
     <ql:flags>2147483656</ql:flags>
    </extensions>
   </trkpt>
   <trkpt lat="51.09496593" lon="13.75099897">
    <ele>170</ele>
    <extensions>
     <ql:flags>2147483656</ql:flags>
    </extensions>
   </trkpt>
   <trkpt lat="51.09498739" lon="13.75052691">
    <ele>170</ele>
    <extensions>
     <ql:flags>2147483656</ql:flags>
    </extensions>
   </trkpt>
   <trkpt lat="51.09494448" lon="13.75018358">
    <ele>171</ele>
    <extensions>
     <ql:flags>2147483656</ql:flags>
    </extensions>
   </trkpt>
   <trkpt lat="51.09469077" lon="13.74914024">
    <ele>173</ele>
    <extensions>
     <ql:flags>2147483648</ql:flags>
    </extensions>
   </trkpt>
   <trkpt lat="51.09468699" lon="13.74913216">
    <ele>173</ele>
    <extensions>
     <ql:flags>2147483656</ql:flags>
    </extensions>
   </trkpt>
   <trkpt lat="51.09466553" lon="13.74913216">
    <ele>174</ele>
    <extensions>
     <ql:flags>2147483656</ql:flags>
    </extensions>
   </trkpt>
   <trkpt lat="51.09457970" lon="13.74893904">
    <ele>174</ele>
    <extensions>
     <ql:flags>2147483656</ql:flags>
    </extensions>
   </trkpt>
   <trkpt lat="51.09425783" lon="13.74848843">
    <ele>175</ele>
    <extensions>
     <ql:flags>2147483656</ql:flags>
    </extensions>
   </trkpt>
   <trkpt lat="51.09363514" lon="13.74758859">
    <ele>170</ele>
    <extensions>
     <ql:flags>2147483648</ql:flags>
    </extensions>
   </trkpt>
  </trkseg>
  <trkseg>
   <trkpt lat="51.09363598" lon="13.74758456">
    <ele>170</ele>
    <extensions>
     <ql:flags>2147483648</ql:flags>
    </extensions>
   </trkpt>
   <trkpt lat="51.09348536" lon="13.74735117">
    <ele>167</ele>
    <extensions>
     <ql:flags>2147483656</ql:flags>
    </extensions>
   </trkpt>
   <trkpt lat="51.09344244" lon="13.74726534">
    <ele>166</ele>
    <extensions>
     <ql:flags>2147483656</ql:flags>
    </extensions>
   </trkpt>
   <trkpt lat="51.09339952" lon="13.74711514">
    <ele>163</ele>
    <extensions>
     <ql:flags>2147483656</ql:flags>
    </extensions>
   </trkpt>
   <trkpt lat="51.09335898" lon="13.74705617">
    <ele>163</ele>
    <extensions>
     <ql:flags>2147483648</ql:flags>
    </extensions>
   </trkpt>
   <trkpt lat="51.09335661" lon="13.74705076">
    <ele>163</ele>
    <extensions>
     <ql:flags>2147483656</ql:flags>
    </extensions>
   </trkpt>
   <trkpt lat="51.09320641" lon="13.74690056">
    <ele>162</ele>
    <extensions>
     <ql:flags>2147483656</ql:flags>
    </extensions>
   </trkpt>
   <trkpt lat="51.09307766" lon="13.74681473">
    <ele>162</ele>
    <extensions>
     <ql:flags>2147483656</ql:flags>
    </extensions>
   </trkpt>
   <trkpt lat="51.09264851" lon="13.74672890">
    <ele>159</ele>
    <extensions>
     <ql:flags>2147483656</ql:flags>
    </extensions>
   </trkpt>
   <trkpt lat="51.09245539" lon="13.74664307">
    <ele>158</ele>
    <extensions>
     <ql:flags>2147483656</ql:flags>
    </extensions>
   </trkpt>
   <trkpt lat="51.09236956" lon="13.74662161">
    <ele>157</ele>
    <extensions>
     <ql:flags>2147483656</ql:flags>
    </extensions>
   </trkpt>
   <trkpt lat="51.09196186" lon="13.74664307">
    <ele>155</ele>
    <extensions>
     <ql:flags>2147483656</ql:flags>
    </extensions>
   </trkpt>
   <trkpt lat="51.09176956" lon="13.74659751">
    <ele>154</ele>
    <extensions>
     <ql:flags>2147483648</ql:flags>
    </extensions>
   </trkpt>
   <trkpt lat="51.09157562" lon="13.74653578">
    <ele>153</ele>
    <extensions>
     <ql:flags>2147483656</ql:flags>
    </extensions>
   </trkpt>
   <trkpt lat="51.09145031" lon="13.74644999">
    <ele>152</ele>
    <extensions>
     <ql:flags>2147483648</ql:flags>
    </extensions>
   </trkpt>
   <trkpt lat="51.09144688" lon="13.74670744">
    <ele>154</ele>
    <extensions>
     <ql:flags>2147483656</ql:flags>
    </extensions>
   </trkpt>
   <trkpt lat="51.09142542" lon="13.74690056">
    <ele>154</ele>
    <extensions>
     <ql:flags>2147483656</ql:flags>
    </extensions>
   </trkpt>
   <trkpt lat="51.09140396" lon="13.74700785">
    <ele>155</ele>
    <extensions>
     <ql:flags>2147483656</ql:flags>
    </extensions>
   </trkpt>
   <trkpt lat="51.09140302" lon="13.74700789">
    <ele>155</ele>
    <extensions>
     <ql:flags>2147483648</ql:flags>
    </extensions>
   </trkpt>
   <trkpt lat="51.09144688" lon="13.74713659">
    <ele>156</ele>
    <extensions>
     <ql:flags>2147483656</ql:flags>
    </extensions>
   </trkpt>
   <trkpt lat="51.09144688" lon="13.74724388">
    <ele>156</ele>
    <extensions>
     <ql:flags>2147483656</ql:flags>
    </extensions>
   </trkpt>
   <trkpt lat="51.09144947" lon="13.74743704">
    <ele>157</ele>
    <extensions>
     <ql:flags>2147483648</ql:flags>
    </extensions>
   </trkpt>
   <trkpt lat="51.09136105" lon="13.74754429">
    <ele>157</ele>
    <extensions>
     <ql:flags>2147483656</ql:flags>
    </extensions>
   </trkpt>
   <trkpt lat="51.09127522" lon="13.74780178">
    <ele>157</ele>
    <extensions>
     <ql:flags>2147483656</ql:flags>
    </extensions>
   </trkpt>
   <trkpt lat="51.09118938" lon="13.74814510">
    <ele>157</ele>
    <extensions>
     <ql:flags>2147483656</ql:flags>
    </extensions>
   </trkpt>
   <trkpt lat="51.09114647" lon="13.74833822">
    <ele>157</ele>
    <extensions>
     <ql:flags>2147483656</ql:flags>
    </extensions>
   </trkpt>
   <trkpt lat="51.09112501" lon="13.74861717">
    <ele>157</ele>
    <extensions>
     <ql:flags>2147483656</ql:flags>
    </extensions>
   </trkpt>
   <trkpt lat="51.09112501" lon="13.74891758">
    <ele>158</ele>
    <extensions>
     <ql:flags>2147483656</ql:flags>
    </extensions>
   </trkpt>
   <trkpt lat="51.09114647" lon="13.74934673">
    <ele>158</ele>
    <extensions>
     <ql:flags>2147483656</ql:flags>
    </extensions>
   </trkpt>
   <trkpt lat="51.09125376" lon="13.74990463">
    <ele>159</ele>
    <extensions>
     <ql:flags>2147483656</ql:flags>
    </extensions>
   </trkpt>
   <trkpt lat="51.09127522" lon="13.75009775">
    <ele>159</ele>
    <extensions>
     <ql:flags>2147483656</ql:flags>
    </extensions>
   </trkpt>
   <trkpt lat="51.09127522" lon="13.75048399">
    <ele>159</ele>
    <extensions>
     <ql:flags>2147483656</ql:flags>
    </extensions>
   </trkpt>
   <trkpt lat="51.09123230" lon="13.75091314">
    <ele>158</ele>
    <extensions>
     <ql:flags>2147483656</ql:flags>
    </extensions>
   </trkpt>
   <trkpt lat="51.09123230" lon="13.75134230">
    <ele>158</ele>
    <extensions>
     <ql:flags>2147483656</ql:flags>
    </extensions>
   </trkpt>
   <trkpt lat="51.09127522" lon="13.75151396">
    <ele>159</ele>
    <extensions>
     <ql:flags>2147483656</ql:flags>
    </extensions>
   </trkpt>
   <trkpt lat="51.09136105" lon="13.75168562">
    <ele>160</ele>
    <extensions>
     <ql:flags>2147483656</ql:flags>
    </extensions>
   </trkpt>
   <trkpt lat="51.09142542" lon="13.75177145">
    <ele>161</ele>
    <extensions>
     <ql:flags>2147483656</ql:flags>
    </extensions>
   </trkpt>
   <trkpt lat="51.09174728" lon="13.75207186">
    <ele>164</ele>
    <extensions>
     <ql:flags>2147483656</ql:flags>
    </extensions>
   </trkpt>
   <trkpt lat="51.09194040" lon="13.75224352">
    <ele>166</ele>
    <extensions>
     <ql:flags>2147483656</ql:flags>
    </extensions>
   </trkpt>
   <trkpt lat="51.09249830" lon="13.75254393">
    <ele>170</ele>
    <extensions>
     <ql:flags>2147483656</ql:flags>
    </extensions>
   </trkpt>
   <trkpt lat="51.09316349" lon="13.75284433">
    <ele>172</ele>
    <extensions>
     <ql:flags>2147483656</ql:flags>
    </extensions>
   </trkpt>
   <trkpt lat="51.09324932" lon="13.75286579">
    <ele>172</ele>
    <extensions>
     <ql:flags>2147483656</ql:flags>
    </extensions>
   </trkpt>
   <trkpt lat="51.09331369" lon="13.75284433">
    <ele>172</ele>
    <extensions>
     <ql:flags>2147483656</ql:flags>
    </extensions>
   </trkpt>
   <trkpt lat="51.09335661" lon="13.75277996">
    <ele>173</ele>
    <extensions>
     <ql:flags>2147483656</ql:flags>
    </extensions>
   </trkpt>
   <trkpt lat="51.09337807" lon="13.75267267">
    <ele>175</ele>
    <extensions>
     <ql:flags>2147483656</ql:flags>
    </extensions>
   </trkpt>
   <trkpt lat="51.09337807" lon="13.75256538">
    <ele>176</ele>
    <extensions>
     <ql:flags>2147483656</ql:flags>
    </extensions>
   </trkpt>
   <trkpt lat="51.09327078" lon="13.75202894">
    <ele>183</ele>
    <extensions>
     <ql:flags>2147483656</ql:flags>
    </extensions>
   </trkpt>
   <trkpt lat="51.09322892" lon="13.75162397">
    <ele>186</ele>
    <extensions>
     <ql:flags>2147483648</ql:flags>
    </extensions>
   </trkpt>
   <trkpt lat="51.09316349" lon="13.75151396">
    <ele>186</ele>
    <extensions>
     <ql:flags>2147483656</ql:flags>
    </extensions>
   </trkpt>
   <trkpt lat="51.09299183" lon="13.75119209">
    <ele>189</ele>
    <extensions>
     <ql:flags>2147483656</ql:flags>
    </extensions>
   </trkpt>
   <trkpt lat="51.09288454" lon="13.75063419">
    <ele>191</ele>
    <extensions>
     <ql:flags>2147483656</ql:flags>
    </extensions>
   </trkpt>
   <trkpt lat="51.09249830" lon="13.74938965">
    <ele>184</ele>
    <extensions>
     <ql:flags>2147483656</ql:flags>
    </extensions>
   </trkpt>
   <trkpt lat="51.09236956" lon="13.74923944">
    <ele>181</ele>
    <extensions>
     <ql:flags>2147483656</ql:flags>
    </extensions>
   </trkpt>
   <trkpt lat="51.09234810" lon="13.74919653">
    <ele>181</ele>
    <extensions>
     <ql:flags>2147483656</ql:flags>
    </extensions>
   </trkpt>
   <trkpt lat="51.09234810" lon="13.74904633">
    <ele>180</ele>
    <extensions>
     <ql:flags>2147483656</ql:flags>
    </extensions>
   </trkpt>
   <trkpt lat="51.09243393" lon="13.74885321">
    <ele>181</ele>
    <extensions>
     <ql:flags>2147483656</ql:flags>
    </extensions>
   </trkpt>
   <trkpt lat="51.09243168" lon="13.74885057">
    <ele>180</ele>
    <extensions>
     <ql:flags>2147483648</ql:flags>
    </extensions>
   </trkpt>
   <trkpt lat="51.09249830" lon="13.74891758">
    <ele>182</ele>
    <extensions>
     <ql:flags>2147483656</ql:flags>
    </extensions>
   </trkpt>
   <trkpt lat="51.09251976" lon="13.74898195">
    <ele>182</ele>
    <extensions>
     <ql:flags>2147483656</ql:flags>
    </extensions>
   </trkpt>
   <trkpt lat="51.09260559" lon="13.74906778">
    <ele>184</ele>
    <extensions>
     <ql:flags>2147483656</ql:flags>
    </extensions>
   </trkpt>
   <trkpt lat="51.09264851" lon="13.74915361">
    <ele>185</ele>
    <extensions>
     <ql:flags>2147483656</ql:flags>
    </extensions>
   </trkpt>
   <trkpt lat="51.09273434" lon="13.74923944">
    <ele>187</ele>
    <extensions>
     <ql:flags>2147483656</ql:flags>
    </extensions>
   </trkpt>
   <trkpt lat="51.09279871" lon="13.74936819">
    <ele>188</ele>
    <extensions>
     <ql:flags>2147483656</ql:flags>
    </extensions>
   </trkpt>
   <trkpt lat="51.09297037" lon="13.74975443">
    <ele>191</ele>
    <extensions>
     <ql:flags>2147483656</ql:flags>
    </extensions>
   </trkpt>
   <trkpt lat="51.09303474" lon="13.74999046">
    <ele>191</ele>
    <extensions>
     <ql:flags>2147483656</ql:flags>
    </extensions>
   </trkpt>
   <trkpt lat="51.09307766" lon="13.75018358">
    <ele>191</ele>
    <extensions>
     <ql:flags>2147483656</ql:flags>
    </extensions>
   </trkpt>
   <trkpt lat="51.09320641" lon="13.75056982">
    <ele>190</ele>
    <extensions>
     <ql:flags>2147483656</ql:flags>
    </extensions>
   </trkpt>
   <trkpt lat="51.09324932" lon="13.75093460">
    <ele>189</ele>
    <extensions>
     <ql:flags>2147483656</ql:flags>
    </extensions>
   </trkpt>
   <trkpt lat="51.09327078" lon="13.75119209">
    <ele>188</ele>
    <extensions>
     <ql:flags>2147483656</ql:flags>
    </extensions>
   </trkpt>
   <trkpt lat="51.09322892" lon="13.75161190">
    <ele>186</ele>
    <extensions>
     <ql:flags>2147483648</ql:flags>
    </extensions>
   </trkpt>
   <trkpt lat="51.09327078" lon="13.75202894">
    <ele>183</ele>
    <extensions>
     <ql:flags>2147483656</ql:flags>
    </extensions>
   </trkpt>
   <trkpt lat="51.09337807" lon="13.75256538">
    <ele>176</ele>
    <extensions>
     <ql:flags>2147483656</ql:flags>
    </extensions>
   </trkpt>
   <trkpt lat="51.09337807" lon="13.75267267">
    <ele>175</ele>
    <extensions>
     <ql:flags>2147483656</ql:flags>
    </extensions>
   </trkpt>
   <trkpt lat="51.09335661" lon="13.75277996">
    <ele>173</ele>
    <extensions>
     <ql:flags>2147483656</ql:flags>
    </extensions>
   </trkpt>
   <trkpt lat="51.09331369" lon="13.75284433">
    <ele>172</ele>
    <extensions>
     <ql:flags>2147483656</ql:flags>
    </extensions>
   </trkpt>
   <trkpt lat="51.09324932" lon="13.75286579">
    <ele>172</ele>
    <extensions>
     <ql:flags>2147483656</ql:flags>
    </extensions>
   </trkpt>
   <trkpt lat="51.09316349" lon="13.75284433">
    <ele>172</ele>
    <extensions>
     <ql:flags>2147483656</ql:flags>
    </extensions>
   </trkpt>
   <trkpt lat="51.09249830" lon="13.75254393">
    <ele>170</ele>
    <extensions>
     <ql:flags>2147483656</ql:flags>
    </extensions>
   </trkpt>
   <trkpt lat="51.09194040" lon="13.75224352">
    <ele>166</ele>
    <extensions>
     <ql:flags>2147483656</ql:flags>
    </extensions>
   </trkpt>
   <trkpt lat="51.09174728" lon="13.75207186">
    <ele>164</ele>
    <extensions>
     <ql:flags>2147483656</ql:flags>
    </extensions>
   </trkpt>
   <trkpt lat="51.09142542" lon="13.75177145">
    <ele>161</ele>
    <extensions>
     <ql:flags>2147483656</ql:flags>
    </extensions>
   </trkpt>
   <trkpt lat="51.09136105" lon="13.75168562">
    <ele>160</ele>
    <extensions>
     <ql:flags>2147483656</ql:flags>
    </extensions>
   </trkpt>
   <trkpt lat="51.09127522" lon="13.75151396">
    <ele>159</ele>
    <extensions>
     <ql:flags>2147483656</ql:flags>
    </extensions>
   </trkpt>
   <trkpt lat="51.09123230" lon="13.75134230">
    <ele>158</ele>
    <extensions>
     <ql:flags>2147483656</ql:flags>
    </extensions>
   </trkpt>
   <trkpt lat="51.09123230" lon="13.75091314">
    <ele>158</ele>
    <extensions>
     <ql:flags>2147483656</ql:flags>
    </extensions>
   </trkpt>
   <trkpt lat="51.09127522" lon="13.75048399">
    <ele>159</ele>
    <extensions>
     <ql:flags>2147483656</ql:flags>
    </extensions>
   </trkpt>
   <trkpt lat="51.09127522" lon="13.75009775">
    <ele>159</ele>
    <extensions>
     <ql:flags>2147483656</ql:flags>
    </extensions>
   </trkpt>
   <trkpt lat="51.09125376" lon="13.74990463">
    <ele>159</ele>
    <extensions>
     <ql:flags>2147483656</ql:flags>
    </extensions>
   </trkpt>
   <trkpt lat="51.09114647" lon="13.74934673">
    <ele>158</ele>
    <extensions>
     <ql:flags>2147483656</ql:flags>
    </extensions>
   </trkpt>
   <trkpt lat="51.09112501" lon="13.74891758">
    <ele>158</ele>
    <extensions>
     <ql:flags>2147483656</ql:flags>
    </extensions>
   </trkpt>
   <trkpt lat="51.09112501" lon="13.74861717">
    <ele>157</ele>
    <extensions>
     <ql:flags>2147483656</ql:flags>
    </extensions>
   </trkpt>
   <trkpt lat="51.09114647" lon="13.74833822">
    <ele>157</ele>
    <extensions>
     <ql:flags>2147483656</ql:flags>
    </extensions>
   </trkpt>
   <trkpt lat="51.09118934" lon="13.74814649">
    <ele>157</ele>
    <extensions>
     <ql:flags>2147483648</ql:flags>
    </extensions>
   </trkpt>
   <trkpt lat="51.09118938" lon="13.74814510">
    <ele>157</ele>
    <extensions>
     <ql:flags>2147483656</ql:flags>
    </extensions>
   </trkpt>
   <trkpt lat="51.09108377" lon="13.74806334">
    <ele>156</ele>
    <extensions>
     <ql:flags>2147483648</ql:flags>
    </extensions>
   </trkpt>
   <trkpt lat="51.09099627" lon="13.74803782">
    <ele>155</ele>
    <extensions>
     <ql:flags>2147483656</ql:flags>
    </extensions>
   </trkpt>
   <trkpt lat="51.09071732" lon="13.74823093">
    <ele>154</ele>
    <extensions>
     <ql:flags>2147483656</ql:flags>
    </extensions>
   </trkpt>
   <trkpt lat="51.09048128" lon="13.74842405">
    <ele>153</ele>
    <extensions>
     <ql:flags>2147483656</ql:flags>
    </extensions>
   </trkpt>
   <trkpt lat="51.09013796" lon="13.74874592">
    <ele>152</ele>
    <extensions>
     <ql:flags>2147483656</ql:flags>
    </extensions>
   </trkpt>
   <trkpt lat="51.08992338" lon="13.74898195">
    <ele>152</ele>
    <extensions>
     <ql:flags>2147483656</ql:flags>
    </extensions>
   </trkpt>
   <trkpt lat="51.08958006" lon="13.74960423">
    <ele>151</ele>
    <extensions>
     <ql:flags>2147483656</ql:flags>
    </extensions>
   </trkpt>
   <trkpt lat="51.08919382" lon="13.75033379">
    <ele>154</ele>
    <extensions>
     <ql:flags>2147483656</ql:flags>
    </extensions>
   </trkpt>
   <trkpt lat="51.08880758" lon="13.75078440">
    <ele>155</ele>
    <extensions>
     <ql:flags>2147483656</ql:flags>
    </extensions>
   </trkpt>
   <trkpt lat="51.08846426" lon="13.75104189">
    <ele>154</ele>
    <extensions>
     <ql:flags>2147483656</ql:flags>
    </extensions>
   </trkpt>
   <trkpt lat="51.08788490" lon="13.75129938">
    <ele>152</ele>
    <extensions>
     <ql:flags>2147483656</ql:flags>
    </extensions>
   </trkpt>
   <trkpt lat="51.08784199" lon="13.75132084">
    <ele>153</ele>
    <extensions>
     <ql:flags>2147483656</ql:flags>
    </extensions>
   </trkpt>
   <trkpt lat="51.08732700" lon="13.75153542">
    <ele>154</ele>
    <extensions>
     <ql:flags>2147483656</ql:flags>
    </extensions>
   </trkpt>
   <trkpt lat="51.08717917" lon="13.75153412">
    <ele>155</ele>
    <extensions>
     <ql:flags>2147483648</ql:flags>
    </extensions>
   </trkpt>
  </trkseg>
  <trkseg>
   <trkpt lat="51.08717580" lon="13.75153680">
    <ele>155</ele>
    <extensions>
     <ql:flags>2147483648</ql:flags>
    </extensions>
   </trkpt>
   <trkpt lat="51.08709097" lon="13.75164270">
    <ele>155</ele>
    <extensions>
     <ql:flags>2147483656</ql:flags>
    </extensions>
   </trkpt>
   <trkpt lat="51.08700514" lon="13.75181437">
    <ele>155</ele>
    <extensions>
     <ql:flags>2147483656</ql:flags>
    </extensions>
   </trkpt>
   <trkpt lat="51.08696222" lon="13.75198603">
    <ele>155</ele>
    <extensions>
     <ql:flags>2147483656</ql:flags>
    </extensions>
   </trkpt>
   <trkpt lat="51.08694077" lon="13.75232935">
    <ele>156</ele>
    <extensions>
     <ql:flags>2147483656</ql:flags>
    </extensions>
   </trkpt>
   <trkpt lat="51.08696222" lon="13.75265121">
    <ele>157</ele>
    <extensions>
     <ql:flags>2147483656</ql:flags>
    </extensions>
   </trkpt>
   <trkpt lat="51.08696295" lon="13.75284303">
    <ele>158</ele>
    <extensions>
     <ql:flags>2147483648</ql:flags>
    </extensions>
   </trkpt>
   <trkpt lat="51.08694077" lon="13.75288725">
    <ele>158</ele>
    <extensions>
     <ql:flags>2147483656</ql:flags>
    </extensions>
   </trkpt>
   <trkpt lat="51.08694099" lon="13.75295166">
    <ele>158</ele>
    <extensions>
     <ql:flags>2147483648</ql:flags>
    </extensions>
   </trkpt>
   <trkpt lat="51.08649015" lon="13.75335932">
    <ele>158</ele>
    <extensions>
     <ql:flags>2147483656</ql:flags>
    </extensions>
   </trkpt>
   <trkpt lat="51.08541727" lon="13.75423908">
    <ele>155</ele>
    <extensions>
     <ql:flags>2147483656</ql:flags>
    </extensions>
   </trkpt>
   <trkpt lat="51.08402350" lon="13.75541661">
    <ele>152</ele>
    <extensions>
     <ql:flags>2147483648</ql:flags>
    </extensions>
   </trkpt>
   <trkpt lat="51.08402252" lon="13.75541925">
    <ele>152</ele>
    <extensions>
     <ql:flags>2147483656</ql:flags>
    </extensions>
   </trkpt>
   <trkpt lat="51.08363628" lon="13.75576258">
    <ele>151</ele>
    <extensions>
     <ql:flags>2147483656</ql:flags>
    </extensions>
   </trkpt>
   <trkpt lat="51.08344316" lon="13.75586987">
    <ele>150</ele>
    <extensions>
     <ql:flags>2147483656</ql:flags>
    </extensions>
   </trkpt>
   <trkpt lat="51.08333588" lon="13.75580549">
    <ele>150</ele>
    <extensions>
     <ql:flags>2147483656</ql:flags>
    </extensions>
   </trkpt>
   <trkpt lat="51.08329296" lon="13.75563383">
    <ele>151</ele>
    <extensions>
     <ql:flags>2147483656</ql:flags>
    </extensions>
   </trkpt>
   <trkpt lat="51.08329199" lon="13.75546623">
    <ele>152</ele>
    <extensions>
     <ql:flags>2147483648</ql:flags>
    </extensions>
   </trkpt>
   <trkpt lat="51.08297438" lon="13.75512291">
    <ele>151</ele>
    <extensions>
     <ql:flags>2147483648</ql:flags>
    </extensions>
   </trkpt>
   <trkpt lat="51.08282089" lon="13.75509739">
    <ele>150</ele>
    <extensions>
     <ql:flags>2147483656</ql:flags>
    </extensions>
   </trkpt>
   <trkpt lat="51.08262777" lon="13.75511885">
    <ele>149</ele>
    <extensions>
     <ql:flags>2147483656</ql:flags>
    </extensions>
   </trkpt>
   <trkpt lat="51.08262551" lon="13.75511755">
    <ele>149</ele>
    <extensions>
     <ql:flags>2147483648</ql:flags>
    </extensions>
   </trkpt>
   <trkpt lat="51.08258486" lon="13.75499010">
    <ele>148</ele>
    <extensions>
     <ql:flags>2147483656</ql:flags>
    </extensions>
   </trkpt>
   <trkpt lat="51.08260632" lon="13.75488281">
    <ele>148</ele>
    <extensions>
     <ql:flags>2147483656</ql:flags>
    </extensions>
   </trkpt>
   <trkpt lat="51.08260632" lon="13.75473261">
    <ele>148</ele>
    <extensions>
     <ql:flags>2147483656</ql:flags>
    </extensions>
   </trkpt>
   <trkpt lat="51.08258496" lon="13.75466962">
    <ele>148</ele>
    <extensions>
     <ql:flags>2147483648</ql:flags>
    </extensions>
   </trkpt>
  </trkseg>
  <trkseg>
   <trkpt lat="51.08258665" lon="13.75466560">
    <ele>148</ele>
    <extensions>
     <ql:flags>2147483648</ql:flags>
    </extensions>
   </trkpt>
   <trkpt lat="51.08222008" lon="13.75464678">
    <ele>145</ele>
    <extensions>
     <ql:flags>2147483656</ql:flags>
    </extensions>
   </trkpt>
   <trkpt lat="51.08187675" lon="13.75481844">
    <ele>144</ele>
    <extensions>
     <ql:flags>2147483656</ql:flags>
    </extensions>
   </trkpt>
   <trkpt lat="51.08175205" lon="13.75479836">
    <ele>143</ele>
    <extensions>
     <ql:flags>2147483648</ql:flags>
    </extensions>
   </trkpt>
   <trkpt lat="51.08174801" lon="13.75479698">
    <ele>143</ele>
    <extensions>
     <ql:flags>2147483656</ql:flags>
    </extensions>
   </trkpt>
   <trkpt lat="51.08172925" lon="13.75481714">
    <ele>143</ele>
    <extensions>
     <ql:flags>2147483648</ql:flags>
    </extensions>
   </trkpt>
   <trkpt lat="51.08140469" lon="13.75524759">
    <ele>142</ele>
    <extensions>
     <ql:flags>2147483656</ql:flags>
    </extensions>
   </trkpt>
   <trkpt lat="51.08119011" lon="13.75554800">
    <ele>142</ele>
    <extensions>
     <ql:flags>2147483656</ql:flags>
    </extensions>
   </trkpt>
   <trkpt lat="51.08099699" lon="13.75589132">
    <ele>141</ele>
    <extensions>
     <ql:flags>2147483656</ql:flags>
    </extensions>
   </trkpt>
   <trkpt lat="51.08093262" lon="13.75604153">
    <ele>141</ele>
    <extensions>
     <ql:flags>2147483656</ql:flags>
    </extensions>
   </trkpt>
   <trkpt lat="51.08091238" lon="13.75616763">
    <ele>141</ele>
    <extensions>
     <ql:flags>2147483648</ql:flags>
    </extensions>
   </trkpt>
   <trkpt lat="51.08078241" lon="13.75649214">
    <ele>140</ele>
    <extensions>
     <ql:flags>2147483656</ql:flags>
    </extensions>
   </trkpt>
   <trkpt lat="51.08069612" lon="13.75670542">
    <ele>140</ele>
    <extensions>
     <ql:flags>2147483648</ql:flags>
    </extensions>
   </trkpt>
   <trkpt lat="51.08063221" lon="13.75692129">
    <ele>140</ele>
    <extensions>
     <ql:flags>2147483656</ql:flags>
    </extensions>
   </trkpt>
   <trkpt lat="51.08048201" lon="13.75735044">
    <ele>140</ele>
    <extensions>
     <ql:flags>2147483656</ql:flags>
    </extensions>
   </trkpt>
   <trkpt lat="51.08028889" lon="13.75801563">
    <ele>140</ele>
    <extensions>
     <ql:flags>2147483656</ql:flags>
    </extensions>
   </trkpt>
   <trkpt lat="51.08007691" lon="13.75867550">
    <ele>143</ele>
    <extensions>
     <ql:flags>2147483648</ql:flags>
    </extensions>
   </trkpt>
   <trkpt lat="51.08016014" lon="13.75872374">
    <ele>143</ele>
    <extensions>
     <ql:flags>2147483656</ql:flags>
    </extensions>
   </trkpt>
   <trkpt lat="51.08018160" lon="13.75880957">
    <ele>143</ele>
    <extensions>
     <ql:flags>2147483656</ql:flags>
    </extensions>
   </trkpt>
   <trkpt lat="51.08024597" lon="13.75887394">
    <ele>143</ele>
    <extensions>
     <ql:flags>2147483656</ql:flags>
    </extensions>
   </trkpt>
   <trkpt lat="51.08033180" lon="13.75893831">
    <ele>143</ele>
    <extensions>
     <ql:flags>2147483656</ql:flags>
    </extensions>
   </trkpt>
   <trkpt lat="51.08056784" lon="13.75902414">
    <ele>143</ele>
    <extensions>
     <ql:flags>2147483656</ql:flags>
    </extensions>
   </trkpt>
   <trkpt lat="51.08119011" lon="13.75949621">
    <ele>143</ele>
    <extensions>
     <ql:flags>2147483656</ql:flags>
    </extensions>
   </trkpt>
   <trkpt lat="51.08129740" lon="13.75962496">
    <ele>143</ele>
    <extensions>
     <ql:flags>2147483656</ql:flags>
    </extensions>
   </trkpt>
   <trkpt lat="51.08171995" lon="13.75991334">
    <ele>145</ele>
    <extensions>
     <ql:flags>2147483648</ql:flags>
    </extensions>
   </trkpt>
  </trkseg>
  <trkseg>
   <trkpt lat="51.08007353" lon="13.75867684">
    <ele>143</ele>
    <extensions>
     <ql:flags>2147483648</ql:flags>
    </extensions>
   </trkpt>
   <trkpt lat="51.07983828" lon="13.75853062">
    <ele>142</ele>
    <extensions>
     <ql:flags>2147483656</ql:flags>
    </extensions>
   </trkpt>
   <trkpt lat="51.07934475" lon="13.75818729">
    <ele>142</ele>
    <extensions>
     <ql:flags>2147483656</ql:flags>
    </extensions>
   </trkpt>
   <trkpt lat="51.07923746" lon="13.75818729">
    <ele>142</ele>
    <extensions>
     <ql:flags>2147483656</ql:flags>
    </extensions>
   </trkpt>
   <trkpt lat="51.07910872" lon="13.75810146">
    <ele>141</ele>
    <extensions>
     <ql:flags>2147483656</ql:flags>
    </extensions>
   </trkpt>
   <trkpt lat="51.07893705" lon="13.75801563">
    <ele>141</ele>
    <extensions>
     <ql:flags>2147483656</ql:flags>
    </extensions>
   </trkpt>
   <trkpt lat="51.07880831" lon="13.75792980">
    <ele>141</ele>
    <extensions>
     <ql:flags>2147483656</ql:flags>
    </extensions>
   </trkpt>
   <trkpt lat="51.07840061" lon="13.75752211">
    <ele>140</ele>
    <extensions>
     <ql:flags>2147483656</ql:flags>
    </extensions>
   </trkpt>
   <trkpt lat="51.07822895" lon="13.75730753">
    <ele>140</ele>
    <extensions>
     <ql:flags>2147483656</ql:flags>
    </extensions>
   </trkpt>
   <trkpt lat="51.07790709" lon="13.75692129">
    <ele>139</ele>
    <extensions>
     <ql:flags>2147483656</ql:flags>
    </extensions>
   </trkpt>
   <trkpt lat="51.07775688" lon="13.75670671">
    <ele>138</ele>
    <extensions>
     <ql:flags>2147483656</ql:flags>
    </extensions>
   </trkpt>
   <trkpt lat="51.07763208" lon="13.75653912">
    <ele>136</ele>
    <extensions>
     <ql:flags>2147483648</ql:flags>
    </extensions>
   </trkpt>
  </trkseg>
 </trk>
 <extensions>
  <ql:key>860a21991fbebbabbe7d86f334f88c02</ql:key>
  <ql:sortingRoadbook>0</ql:sortingRoadbook>
  <ql:sortingFolder>0</ql:sortingFolder>
  <ql:correlation>1</ql:correlation>
 </extensions>
</gpx>
