<?xml version="1.0" encoding="UTF-8" standalone="no" ?>
<gpx version="1.1" xmlns="http://www.topografix.com/GPX/1/1" xmlns:wptx1="http://www.garmin.com/xmlschemas/WaypointExtension/v1" xmlns:tp1="http://www.garmin.com/xmlschemas/TrackPointExtension/v1" xmlns:gpxdata="http://www.cluetrust.com/XML/GPXDATA/1/0" xmlns:rmc="urn:net:trekbuddy:1.0:nmea:rmc" xsi:schemaLocation="http://www.topografix.com/GPX/1/1 http://www.topografix.com/GPX/1/1/gpx.xsd http://www.garmin.com/xmlschemas/GpxExtensions/v3 http://www.garmin.com/xmlschemas/GpxExtensionsv3.xsd http://www.garmin.com/xmlschemas/TrackPointExtension/v1 http://www.garmin.com/xmlschemas/TrackPointExtensionv1.xsd http://www.garmin.com/xmlschemas/WaypointExtension/v1 http://www.garmin.com/xmlschemas/WaypointExtensionv1.xsd http://www.qlandkarte.org/xmlschemas/v1.1 http://www.qlandkarte.org/xmlschemas/v1.1/ql-extensions.xsd http://www.cluetrust.com/XML/GPXDATA/1/0 http://www.cluetrust.com/Schemas/gpxdata10.xsd" xmlns:gpxtpx="http://www.garmin.com/xmlschemas/TrackPointExtension/v1" creator="QMapShack 1.10.0 http://www.qlandkarte.org/" xmlns:xsi="http://www.w3.org/2001/XMLSchema-instance" xmlns:gpxx="http://www.garmin.com/xmlschemas/GpxExtensions/v3" xmlns:ql="http://www.qlandkarte.org/xmlschemas/v1.1">
 <metadata>
  <name>Streifzug 15 (Temp): An der Elbe entlang ─ Vom Wasserwerk bis zum Putjatinhaus</name>
  <time>2020-08-24T03:45:22.000Z</time>
 </metadata>
 <wpt lon="13.82300000" lat="51.03406667">
  <ele>116</ele>
  <time>2020-07-29T15:41:45.496Z</time>
  <name>Wegpunkt 1 Hier</name>
  <sym>Flag, Blue</sym>
  <extensions>
   <ql:key>a69277dd84ac3edb244a2b37eccf1a64</ql:key>
   <ql:flags>3</ql:flags>
   <ql:bubble width="300" xoff="-320" yoff="-150"/>
   <ql:history>
    <ql:event>
     <ql:icon>://icons/48x48/Start.png</ql:icon>
     <ql:time>2020-07-29T15:41:45.499Z</ql:time>
     <ql:comment>Erstversion.</ql:comment>
    </ql:event>
    <ql:event>
     <ql:icon>://icons/48x48/WptEditProx.png</ql:icon>
     <ql:time>2020-07-29T15:41:48.068Z</ql:time>
     <ql:comment>Abstandsalarm geändert</ql:comment>
    </ql:event>
   </ql:history>
   <wptx1:WaypointExtension>
    <wptx1:Proximity>10.00000000</wptx1:Proximity>
   </wptx1:WaypointExtension>
  </extensions>
 </wpt>
 <wpt lon="13.82735000" lat="51.03451667">
  <ele>112</ele>
  <time>2020-07-29T15:43:03.655Z</time>
  <name>Wegpunkt 2 Links</name>
  <sym>Flag, Blue</sym>
  <extensions>
   <ql:key>b54da2eb5ff18cb7bb4b796695c26b61</ql:key>
   <ql:flags>3</ql:flags>
   <ql:bubble width="300" xoff="-320" yoff="-150"/>
   <ql:history>
    <ql:event>
     <ql:icon>://icons/48x48/Start.png</ql:icon>
     <ql:time>2020-07-29T15:43:03.656Z</ql:time>
     <ql:comment>Erstversion.</ql:comment>
    </ql:event>
    <ql:event>
     <ql:icon>://icons/48x48/WptEditProx.png</ql:icon>
     <ql:time>2020-07-29T15:43:06.993Z</ql:time>
     <ql:comment>Abstandsalarm geändert</ql:comment>
    </ql:event>
   </ql:history>
   <wptx1:WaypointExtension>
    <wptx1:Proximity>10.00000000</wptx1:Proximity>
   </wptx1:WaypointExtension>
  </extensions>
 </wpt>
 <wpt lon="13.83041667" lat="51.03330000">
  <ele>113</ele>
  <time>2020-07-29T15:43:50.217Z</time>
  <name>Wegpunkt 3 Hier</name>
  <sym>Flag, Blue</sym>
  <extensions>
   <ql:key>098e316185f0ac59ac40550d1493cdcd</ql:key>
   <ql:flags>3</ql:flags>
   <ql:bubble width="300" xoff="-320" yoff="-150"/>
   <ql:history>
    <ql:event>
     <ql:icon>://icons/48x48/Start.png</ql:icon>
     <ql:time>2020-07-29T15:43:50.218Z</ql:time>
     <ql:comment>Erstversion.</ql:comment>
    </ql:event>
    <ql:event>
     <ql:icon>://icons/48x48/WptEditProx.png</ql:icon>
     <ql:time>2020-07-29T15:43:55.455Z</ql:time>
     <ql:comment>Abstandsalarm geändert</ql:comment>
    </ql:event>
   </ql:history>
   <wptx1:WaypointExtension>
    <wptx1:Proximity>10.00000000</wptx1:Proximity>
   </wptx1:WaypointExtension>
  </extensions>
 </wpt>
 <wpt lon="13.84194399" lat="51.02190289">
  <ele>113</ele>
  <time>2020-07-29T15:46:45.138Z</time>
  <name>Wegpunkt 4 Rechts</name>
  <sym>Flag, Blue</sym>
  <extensions>
   <ql:key>ea05e892d4bed43601c6a7fd2226b35c</ql:key>
   <ql:flags>3</ql:flags>
   <ql:bubble width="300" xoff="-320" yoff="-150"/>
   <ql:history>
    <ql:event>
     <ql:icon>://icons/48x48/Start.png</ql:icon>
     <ql:time>2020-07-29T15:46:45.138Z</ql:time>
     <ql:comment>Erstversion.</ql:comment>
    </ql:event>
    <ql:event>
     <ql:icon>://icons/48x48/WptEditProx.png</ql:icon>
     <ql:time>2020-07-29T15:46:47.459Z</ql:time>
     <ql:comment>Abstandsalarm geändert</ql:comment>
    </ql:event>
    <ql:event>
     <ql:icon>://icons/48x48/WptMove.png</ql:icon>
     <ql:time>2020-07-29T15:46:58.150Z</ql:time>
     <ql:comment>Position geändert</ql:comment>
    </ql:event>
   </ql:history>
   <wptx1:WaypointExtension>
    <wptx1:Proximity>10.00000000</wptx1:Proximity>
   </wptx1:WaypointExtension>
  </extensions>
 </wpt>
 <wpt lon="13.84020000" lat="51.02453333">
  <ele>116</ele>
  <time>2020-07-29T15:52:38.000Z</time>
  <name>Wegpunkt 5 Rechts</name>
  <sym>Flag, Blue</sym>
  <extensions>
   <ql:key>e225eb39153fda0d6811447632f48260</ql:key>
   <ql:flags>3</ql:flags>
   <ql:bubble width="300" xoff="-320" yoff="-150"/>
   <ql:history>
    <ql:event>
     <ql:icon>://icons/48x48/Start.png</ql:icon>
     <ql:time>2020-07-29T15:52:38.001Z</ql:time>
     <ql:comment>Erstversion.</ql:comment>
    </ql:event>
    <ql:event>
     <ql:icon>://icons/48x48/WptEditProx.png</ql:icon>
     <ql:time>2020-07-29T15:52:40.432Z</ql:time>
     <ql:comment>Abstandsalarm geändert</ql:comment>
    </ql:event>
   </ql:history>
   <wptx1:WaypointExtension>
    <wptx1:Proximity>10.00000000</wptx1:Proximity>
   </wptx1:WaypointExtension>
  </extensions>
 </wpt>
 <wpt lon="13.84211667" lat="51.01920000">
  <ele>116</ele>
  <time>2020-07-29T15:54:40.374Z</time>
  <name>Wegpunkt 6 Links</name>
  <sym>Flag, Blue</sym>
  <extensions>
   <ql:key>71be190201955fbc9df83772842f7041</ql:key>
   <ql:flags>3</ql:flags>
   <ql:bubble width="300" xoff="-320" yoff="-150"/>
   <ql:history>
    <ql:event>
     <ql:icon>://icons/48x48/Start.png</ql:icon>
     <ql:time>2020-07-29T15:54:40.375Z</ql:time>
     <ql:comment>Erstversion.</ql:comment>
    </ql:event>
    <ql:event>
     <ql:icon>://icons/48x48/WptEditProx.png</ql:icon>
     <ql:time>2020-07-29T15:54:43.796Z</ql:time>
     <ql:comment>Abstandsalarm geändert</ql:comment>
    </ql:event>
   </ql:history>
   <wptx1:WaypointExtension>
    <wptx1:Proximity>10.00000000</wptx1:Proximity>
   </wptx1:WaypointExtension>
  </extensions>
 </wpt>
 <wpt lon="13.84738333" lat="51.01686667">
  <ele>114</ele>
  <time>2020-07-29T15:55:25.772Z</time>
  <name>Wegpunkt 7 Hier</name>
  <sym>Flag, Blue</sym>
  <extensions>
   <ql:key>d9e53fef2c7ca2f86de4d921906077a1</ql:key>
   <ql:flags>3</ql:flags>
   <ql:bubble width="300" xoff="-320" yoff="-150"/>
   <ql:history>
    <ql:event>
     <ql:icon>://icons/48x48/Start.png</ql:icon>
     <ql:time>2020-07-29T15:55:25.773Z</ql:time>
     <ql:comment>Erstversion.</ql:comment>
    </ql:event>
    <ql:event>
     <ql:icon>://icons/48x48/WptEditProx.png</ql:icon>
     <ql:time>2020-07-29T15:55:28.005Z</ql:time>
     <ql:comment>Abstandsalarm geändert</ql:comment>
    </ql:event>
   </ql:history>
   <wptx1:WaypointExtension>
    <wptx1:Proximity>10.00000000</wptx1:Proximity>
   </wptx1:WaypointExtension>
  </extensions>
 </wpt>
 <wpt lon="13.85055000" lat="51.01498333">
  <ele>117</ele>
  <time>2020-07-29T15:58:29.238Z</time>
  <name>Wegpunkt 8 Links</name>
  <sym>Flag, Blue</sym>
  <extensions>
   <ql:key>f05959ab6f48afad4dd7bbeaf1798cfe</ql:key>
   <ql:flags>3</ql:flags>
   <ql:bubble width="300" xoff="-320" yoff="-150"/>
   <ql:history>
    <ql:event>
     <ql:icon>://icons/48x48/Start.png</ql:icon>
     <ql:time>2020-07-29T15:58:29.238Z</ql:time>
     <ql:comment>Erstversion.</ql:comment>
    </ql:event>
    <ql:event>
     <ql:icon>://icons/48x48/WptEditProx.png</ql:icon>
     <ql:time>2020-07-29T15:58:34.495Z</ql:time>
     <ql:comment>Abstandsalarm geändert</ql:comment>
    </ql:event>
   </ql:history>
   <wptx1:WaypointExtension>
    <wptx1:Proximity>10.00000000</wptx1:Proximity>
   </wptx1:WaypointExtension>
  </extensions>
 </wpt>
 <wpt lon="13.85390000" lat="51.01301667">
  <ele>113</ele>
  <time>2020-07-30T03:13:02.233Z</time>
  <name>Wegpunkt 9 Links</name>
  <sym>Flag, Blue</sym>
  <extensions>
   <ql:key>5268db4e2f7669a3d6583bf3b8604e8e</ql:key>
   <ql:flags>3</ql:flags>
   <ql:bubble width="300" xoff="-320" yoff="-150"/>
   <ql:history>
    <ql:event>
     <ql:icon>://icons/48x48/Start.png</ql:icon>
     <ql:time>2020-07-30T03:13:02.233Z</ql:time>
     <ql:comment>Erstversion.</ql:comment>
    </ql:event>
    <ql:event>
     <ql:icon>://icons/48x48/WptEditProx.png</ql:icon>
     <ql:time>2020-07-30T03:13:06.178Z</ql:time>
     <ql:comment>Abstandsalarm geändert</ql:comment>
    </ql:event>
   </ql:history>
   <wptx1:WaypointExtension>
    <wptx1:Proximity>10.00000000</wptx1:Proximity>
   </wptx1:WaypointExtension>
  </extensions>
 </wpt>
 <wpt lon="13.86518333" lat="51.00778333">
  <ele>111</ele>
  <time>2020-07-30T03:14:11.887Z</time>
  <name>Wegpunkt 10 Links</name>
  <sym>Flag, Blue</sym>
  <extensions>
   <ql:key>20372d6d6318896ba75892e1fb3d6394</ql:key>
   <ql:flags>3</ql:flags>
   <ql:bubble width="300" xoff="-320" yoff="-150"/>
   <ql:history>
    <ql:event>
     <ql:icon>://icons/48x48/Start.png</ql:icon>
     <ql:time>2020-07-30T03:14:11.887Z</ql:time>
     <ql:comment>Erstversion.</ql:comment>
    </ql:event>
    <ql:event>
     <ql:icon>://icons/48x48/WptEditProx.png</ql:icon>
     <ql:time>2020-07-30T03:14:16.714Z</ql:time>
     <ql:comment>Abstandsalarm geändert</ql:comment>
    </ql:event>
    <ql:event>
     <ql:icon>://icons/48x48/EditText.png</ql:icon>
     <ql:time>2020-07-30T03:17:05.938Z</ql:time>
     <ql:comment>Name geändert</ql:comment>
    </ql:event>
   </ql:history>
   <wptx1:WaypointExtension>
    <wptx1:Proximity>10.00000000</wptx1:Proximity>
   </wptx1:WaypointExtension>
  </extensions>
 </wpt>
 <wpt lon="13.86868333" lat="51.00383333">
  <ele>112</ele>
  <time>2020-07-30T03:15:18.228Z</time>
  <name>Wegpunkt 11 Links</name>
  <sym>Flag, Blue</sym>
  <extensions>
   <ql:key>f1e0cadb7aa3c96543752e177508beb3</ql:key>
   <ql:flags>3</ql:flags>
   <ql:bubble width="300" xoff="-320" yoff="-150"/>
   <ql:history>
    <ql:event>
     <ql:icon>://icons/48x48/Start.png</ql:icon>
     <ql:time>2020-07-30T03:15:18.228Z</ql:time>
     <ql:comment>Erstversion.</ql:comment>
    </ql:event>
    <ql:event>
     <ql:icon>://icons/48x48/WptEditProx.png</ql:icon>
     <ql:time>2020-07-30T03:15:22.509Z</ql:time>
     <ql:comment>Abstandsalarm geändert</ql:comment>
    </ql:event>
    <ql:event>
     <ql:icon>://icons/48x48/EditText.png</ql:icon>
     <ql:time>2020-07-30T03:17:16.985Z</ql:time>
     <ql:comment>Name geändert</ql:comment>
    </ql:event>
   </ql:history>
   <wptx1:WaypointExtension>
    <wptx1:Proximity>10.00000000</wptx1:Proximity>
   </wptx1:WaypointExtension>
  </extensions>
 </wpt>
 <wpt lon="13.87033333" lat="50.99851667">
  <ele>113</ele>
  <time>2020-07-30T03:16:26.385Z</time>
  <name>Wegpunkt 12 Rechts</name>
  <sym>Flag, Blue</sym>
  <extensions>
   <ql:key>de81448beda9afb74b7135a81152e002</ql:key>
   <ql:flags>3</ql:flags>
   <ql:bubble width="300" xoff="-320" yoff="-150"/>
   <ql:history>
    <ql:event>
     <ql:icon>://icons/48x48/Start.png</ql:icon>
     <ql:time>2020-07-30T03:16:26.385Z</ql:time>
     <ql:comment>Erstversion.</ql:comment>
    </ql:event>
    <ql:event>
     <ql:icon>://icons/48x48/WptEditProx.png</ql:icon>
     <ql:time>2020-07-30T03:16:30.922Z</ql:time>
     <ql:comment>Abstandsalarm geändert</ql:comment>
    </ql:event>
   </ql:history>
   <wptx1:WaypointExtension>
    <wptx1:Proximity>10.00000000</wptx1:Proximity>
   </wptx1:WaypointExtension>
  </extensions>
 </wpt>
 <wpt lon="13.85031667" lat="51.00466667">
  <ele>117</ele>
  <time>2020-07-30T03:20:41.767Z</time>
  <name>Wegpunkt 12 Rechts</name>
  <sym>Flag, Blue</sym>
  <extensions>
   <ql:key>d29a9fa8e7647c2f9cabaa4ebf1d74cf</ql:key>
   <ql:flags>3</ql:flags>
   <ql:bubble width="300" xoff="-320" yoff="-150"/>
   <ql:history>
    <ql:event>
     <ql:icon>://icons/48x48/Start.png</ql:icon>
     <ql:time>2020-07-30T03:20:41.768Z</ql:time>
     <ql:comment>Erstversion.</ql:comment>
    </ql:event>
    <ql:event>
     <ql:icon>://icons/48x48/WptEditProx.png</ql:icon>
     <ql:time>2020-07-30T03:20:46.002Z</ql:time>
     <ql:comment>Abstandsalarm geändert</ql:comment>
    </ql:event>
   </ql:history>
   <wptx1:WaypointExtension>
    <wptx1:Proximity>10.00000000</wptx1:Proximity>
   </wptx1:WaypointExtension>
  </extensions>
 </wpt>
 <wpt lon="13.84865000" lat="51.00520000">
  <ele>118</ele>
  <time>2020-07-30T03:21:40.820Z</time>
  <name>Wegpunkt 13 Links</name>
  <sym>Flag, Blue</sym>
  <extensions>
   <ql:key>70c0ea2e28247bae0f4584a286237f93</ql:key>
   <ql:flags>3</ql:flags>
   <ql:bubble width="300" xoff="-320" yoff="-150"/>
   <ql:history>
    <ql:event>
     <ql:icon>://icons/48x48/Start.png</ql:icon>
     <ql:time>2020-07-30T03:21:40.820Z</ql:time>
     <ql:comment>Erstversion.</ql:comment>
    </ql:event>
    <ql:event>
     <ql:icon>://icons/48x48/WptEditProx.png</ql:icon>
     <ql:time>2020-07-30T03:21:45.111Z</ql:time>
     <ql:comment>Abstandsalarm geändert</ql:comment>
    </ql:event>
   </ql:history>
   <wptx1:WaypointExtension>
    <wptx1:Proximity>10.00000000</wptx1:Proximity>
   </wptx1:WaypointExtension>
  </extensions>
 </wpt>
 <trk>
  <name>Track</name>
  <extensions>
   <ql:key>3390e14480e0382a4fd0f7aea60e424f</ql:key>
   <ql:flags>5</ql:flags>
   <ql:history>
    <ql:event>
     <ql:icon>://icons/48x48/Start.png</ql:icon>
     <ql:time>2020-06-28T13:21:16.206Z</ql:time>
     <ql:comment>Erstversion.</ql:comment>
    </ql:event>
    <ql:event>
     <ql:icon>://icons/48x48/ActFoot.png</ql:icon>
     <ql:time>2020-06-30T16:42:05.937Z</ql:time>
     <ql:comment>Die Aktivität wurde für den gesamten Track auf 'Fußgänger' geändert.</ql:comment>
    </ql:event>
   </ql:history>
   <gpxx:TrackExtension>
    <gpxx:DisplayColor>DarkBlue</gpxx:DisplayColor>
   </gpxx:TrackExtension>
  </extensions>
  <trkseg>
   <trkpt lon="13.82281114" lat="51.03407399">
    <ele>116</ele>
    <extensions>
     <ql:flags>2147483648</ql:flags>
    </extensions>
   </trkpt>
   <trkpt lon="13.82318258" lat="51.03398323">
    <ele>115</ele>
    <extensions>
     <ql:flags>2147483656</ql:flags>
    </extensions>
   </trkpt>
   <trkpt lon="13.82356618" lat="51.03391924">
    <ele>115</ele>
    <extensions>
     <ql:flags>2147483648</ql:flags>
    </extensions>
   </trkpt>
   <trkpt lon="13.82388134" lat="51.03385582">
    <ele>115</ele>
    <extensions>
     <ql:flags>2147483648</ql:flags>
    </extensions>
   </trkpt>
   <trkpt lon="13.82408381" lat="51.03381157">
    <ele>115</ele>
    <extensions>
     <ql:flags>2147483656</ql:flags>
    </extensions>
   </trkpt>
   <trkpt lon="13.82407714" lat="51.03381185">
    <ele>115</ele>
    <extensions>
     <ql:flags>2147483648</ql:flags>
    </extensions>
   </trkpt>
   <trkpt lon="13.82408381" lat="51.03381157">
    <ele>115</ele>
    <extensions>
     <ql:flags>2147483656</ql:flags>
    </extensions>
   </trkpt>
   <trkpt lon="13.82412542" lat="51.03389894">
    <ele>115</ele>
    <extensions>
     <ql:flags>2147483648</ql:flags>
    </extensions>
   </trkpt>
   <trkpt lon="13.82412672" lat="51.03389740">
    <ele>115</ele>
    <extensions>
     <ql:flags>2147483656</ql:flags>
    </extensions>
   </trkpt>
   <trkpt lon="13.82461492" lat="51.03381354">
    <ele>116</ele>
    <extensions>
     <ql:flags>2147483648</ql:flags>
    </extensions>
   </trkpt>
   <trkpt lon="13.82522106" lat="51.03432655">
    <ele>114</ele>
    <extensions>
     <ql:flags>2147483656</ql:flags>
    </extensions>
   </trkpt>
   <trkpt lon="13.82558584" lat="51.03471279">
    <ele>113</ele>
    <extensions>
     <ql:flags>2147483656</ql:flags>
    </extensions>
   </trkpt>
   <trkpt lon="13.82569313" lat="51.03494883">
    <ele>114</ele>
    <extensions>
     <ql:flags>2147483656</ql:flags>
    </extensions>
   </trkpt>
   <trkpt lon="13.82575486" lat="51.03505319">
    <ele>114</ele>
    <extensions>
     <ql:flags>2147483648</ql:flags>
    </extensions>
   </trkpt>
   <trkpt lon="13.82575750" lat="51.03505611">
    <ele>114</ele>
    <extensions>
     <ql:flags>2147483656</ql:flags>
    </extensions>
   </trkpt>
   <trkpt lon="13.82942677" lat="51.03376865">
    <ele>110</ele>
    <extensions>
     <ql:flags>2147483656</ql:flags>
    </extensions>
   </trkpt>
   <trkpt lon="13.82970572" lat="51.03361845">
    <ele>111</ele>
    <extensions>
     <ql:flags>2147483656</ql:flags>
    </extensions>
   </trkpt>
   <trkpt lon="13.82987608" lat="51.03351080">
    <ele>111</ele>
    <extensions>
     <ql:flags>2147483648</ql:flags>
    </extensions>
   </trkpt>
   <trkpt lon="13.82987738" lat="51.03351116">
    <ele>111</ele>
    <extensions>
     <ql:flags>2147483656</ql:flags>
    </extensions>
   </trkpt>
   <trkpt lon="13.83000612" lat="51.03346825">
    <ele>112</ele>
    <extensions>
     <ql:flags>2147483656</ql:flags>
    </extensions>
   </trkpt>
   <trkpt lon="13.83034412" lat="51.03332054">
    <ele>113</ele>
    <extensions>
     <ql:flags>2147483648</ql:flags>
    </extensions>
   </trkpt>
   <trkpt lon="13.83052249" lat="51.03323259">
    <ele>113</ele>
    <extensions>
     <ql:flags>2147483648</ql:flags>
    </extensions>
   </trkpt>
   <trkpt lon="13.83067131" lat="51.03316784">
    <ele>113</ele>
    <extensions>
     <ql:flags>2147483656</ql:flags>
    </extensions>
   </trkpt>
   <trkpt lon="13.83122921" lat="51.03282452">
    <ele>111</ele>
    <extensions>
     <ql:flags>2147483656</ql:flags>
    </extensions>
   </trkpt>
   <trkpt lon="13.83157253" lat="51.03263140">
    <ele>111</ele>
    <extensions>
     <ql:flags>2147483656</ql:flags>
    </extensions>
   </trkpt>
   <trkpt lon="13.83305311" lat="51.03192329">
    <ele>110</ele>
    <extensions>
     <ql:flags>2147483656</ql:flags>
    </extensions>
   </trkpt>
   <trkpt lon="13.83365393" lat="51.03166580">
    <ele>112</ele>
    <extensions>
     <ql:flags>2147483656</ql:flags>
    </extensions>
   </trkpt>
   <trkpt lon="13.83470535" lat="51.03132248">
    <ele>114</ele>
    <extensions>
     <ql:flags>2147483656</ql:flags>
    </extensions>
   </trkpt>
   <trkpt lon="13.83491993" lat="51.03121519">
    <ele>114</ele>
    <extensions>
     <ql:flags>2147483656</ql:flags>
    </extensions>
   </trkpt>
   <trkpt lon="13.83537054" lat="51.03093624">
    <ele>113</ele>
    <extensions>
     <ql:flags>2147483656</ql:flags>
    </extensions>
   </trkpt>
   <trkpt lon="13.83562803" lat="51.03076458">
    <ele>113</ele>
    <extensions>
     <ql:flags>2147483656</ql:flags>
    </extensions>
   </trkpt>
   <trkpt lon="13.83633614" lat="51.03035688">
    <ele>114</ele>
    <extensions>
     <ql:flags>2147483656</ql:flags>
    </extensions>
   </trkpt>
   <trkpt lon="13.83674383" lat="51.03007793">
    <ele>115</ele>
    <extensions>
     <ql:flags>2147483656</ql:flags>
    </extensions>
   </trkpt>
   <trkpt lon="13.83678675" lat="51.03005648">
    <ele>115</ele>
    <extensions>
     <ql:flags>2147483656</ql:flags>
    </extensions>
   </trkpt>
   <trkpt lon="13.83743048" lat="51.02964878">
    <ele>115</ele>
    <extensions>
     <ql:flags>2147483656</ql:flags>
    </extensions>
   </trkpt>
   <trkpt lon="13.83817751" lat="51.02900849">
    <ele>114</ele>
    <extensions>
     <ql:flags>2147483648</ql:flags>
    </extensions>
   </trkpt>
   <trkpt lon="13.83818150" lat="51.02900505">
    <ele>114</ele>
    <extensions>
     <ql:flags>2147483656</ql:flags>
    </extensions>
   </trkpt>
   <trkpt lon="13.83839607" lat="51.02855444">
    <ele>114</ele>
    <extensions>
     <ql:flags>2147483656</ql:flags>
    </extensions>
   </trkpt>
   <trkpt lon="13.83850336" lat="51.02836132">
    <ele>114</ele>
    <extensions>
     <ql:flags>2147483656</ql:flags>
    </extensions>
   </trkpt>
   <trkpt lon="13.83873940" lat="51.02808237">
    <ele>113</ele>
    <extensions>
     <ql:flags>2147483656</ql:flags>
    </extensions>
   </trkpt>
   <trkpt lon="13.83880377" lat="51.02795362">
    <ele>113</ele>
    <extensions>
     <ql:flags>2147483656</ql:flags>
    </extensions>
   </trkpt>
   <trkpt lon="13.83914709" lat="51.02720261">
    <ele>111</ele>
    <extensions>
     <ql:flags>2147483656</ql:flags>
    </extensions>
   </trkpt>
   <trkpt lon="13.83972645" lat="51.02589369">
    <ele>112</ele>
    <extensions>
     <ql:flags>2147483656</ql:flags>
    </extensions>
   </trkpt>
   <trkpt lon="13.83976672" lat="51.02577101">
    <ele>113</ele>
    <extensions>
     <ql:flags>2147483648</ql:flags>
    </extensions>
   </trkpt>
   <trkpt lon="13.83994643" lat="51.02544201">
    <ele>114</ele>
    <extensions>
     <ql:flags>2147483648</ql:flags>
    </extensions>
   </trkpt>
   <trkpt lon="13.84002686" lat="51.02531433">
    <ele>114</ele>
    <extensions>
     <ql:flags>2147483656</ql:flags>
    </extensions>
   </trkpt>
   <trkpt lon="13.84002824" lat="51.02519166">
    <ele>114</ele>
    <extensions>
     <ql:flags>2147483648</ql:flags>
    </extensions>
   </trkpt>
   <trkpt lon="13.84021997" lat="51.02460623">
    <ele>116</ele>
    <extensions>
     <ql:flags>2147483656</ql:flags>
    </extensions>
   </trkpt>
   <trkpt lon="13.84024143" lat="51.02443457">
    <ele>116</ele>
    <extensions>
     <ql:flags>2147483656</ql:flags>
    </extensions>
   </trkpt>
   <trkpt lon="13.84028435" lat="51.02437019">
    <ele>116</ele>
    <extensions>
     <ql:flags>2147483656</ql:flags>
    </extensions>
   </trkpt>
   <trkpt lon="13.84047747" lat="51.02411270">
    <ele>114</ele>
    <extensions>
     <ql:flags>2147483656</ql:flags>
    </extensions>
   </trkpt>
   <trkpt lon="13.84071350" lat="51.02364063">
    <ele>113</ele>
    <extensions>
     <ql:flags>2147483656</ql:flags>
    </extensions>
   </trkpt>
   <trkpt lon="13.84088516" lat="51.02338314">
    <ele>113</ele>
    <extensions>
     <ql:flags>2147483656</ql:flags>
    </extensions>
   </trkpt>
   <trkpt lon="13.84133577" lat="51.02273941">
    <ele>114</ele>
    <extensions>
     <ql:flags>2147483656</ql:flags>
    </extensions>
   </trkpt>
   <trkpt lon="13.84161472" lat="51.02233171">
    <ele>113</ele>
    <extensions>
     <ql:flags>2147483656</ql:flags>
    </extensions>
   </trkpt>
   <trkpt lon="13.84245157" lat="51.02132320">
    <ele>111</ele>
    <extensions>
     <ql:flags>2147483656</ql:flags>
    </extensions>
   </trkpt>
   <trkpt lon="13.84266615" lat="51.02110863">
    <ele>111</ele>
    <extensions>
     <ql:flags>2147483656</ql:flags>
    </extensions>
   </trkpt>
   <trkpt lon="13.84275198" lat="51.02093697">
    <ele>111</ele>
    <extensions>
     <ql:flags>2147483656</ql:flags>
    </extensions>
   </trkpt>
   <trkpt lon="13.84306986" lat="51.02055489">
    <ele>112</ele>
    <extensions>
     <ql:flags>2147483648</ql:flags>
    </extensions>
   </trkpt>
   <trkpt lon="13.84327103" lat="51.02035696">
    <ele>112</ele>
    <extensions>
     <ql:flags>2147483648</ql:flags>
    </extensions>
   </trkpt>
   <trkpt lon="13.84178638" lat="51.01973534">
    <ele>115</ele>
    <extensions>
     <ql:flags>2147483656</ql:flags>
    </extensions>
   </trkpt>
   <trkpt lon="13.84178509" lat="51.01973608">
    <ele>115</ele>
    <extensions>
     <ql:flags>2147483648</ql:flags>
    </extensions>
   </trkpt>
  </trkseg>
  <trkseg>
   <trkpt lon="13.84178643" lat="51.01973270">
    <ele>115</ele>
    <extensions>
     <ql:flags>2147483648</ql:flags>
    </extensions>
   </trkpt>
   <trkpt lon="13.84195805" lat="51.01939201">
    <ele>115</ele>
    <extensions>
     <ql:flags>2147483656</ql:flags>
    </extensions>
   </trkpt>
   <trkpt lon="13.84206533" lat="51.01922035">
    <ele>116</ele>
    <extensions>
     <ql:flags>2147483656</ql:flags>
    </extensions>
   </trkpt>
   <trkpt lon="13.84230137" lat="51.01896286">
    <ele>117</ele>
    <extensions>
     <ql:flags>2147483656</ql:flags>
    </extensions>
   </trkpt>
   <trkpt lon="13.84247303" lat="51.01876974">
    <ele>117</ele>
    <extensions>
     <ql:flags>2147483656</ql:flags>
    </extensions>
   </trkpt>
   <trkpt lon="13.84298801" lat="51.01829767">
    <ele>118</ele>
    <extensions>
     <ql:flags>2147483656</ql:flags>
    </extensions>
   </trkpt>
   <trkpt lon="13.84346008" lat="51.01788998">
    <ele>118</ele>
    <extensions>
     <ql:flags>2147483656</ql:flags>
    </extensions>
   </trkpt>
   <trkpt lon="13.84350300" lat="51.01786852">
    <ele>118</ele>
    <extensions>
     <ql:flags>2147483656</ql:flags>
    </extensions>
   </trkpt>
   <trkpt lon="13.84391069" lat="51.01767540">
    <ele>117</ele>
    <extensions>
     <ql:flags>2147483656</ql:flags>
    </extensions>
   </trkpt>
   <trkpt lon="13.84397507" lat="51.01765394">
    <ele>117</ele>
    <extensions>
     <ql:flags>2147483656</ql:flags>
    </extensions>
   </trkpt>
   <trkpt lon="13.84431839" lat="51.01758957">
    <ele>117</ele>
    <extensions>
     <ql:flags>2147483656</ql:flags>
    </extensions>
   </trkpt>
   <trkpt lon="13.84472609" lat="51.01754665">
    <ele>116</ele>
    <extensions>
     <ql:flags>2147483656</ql:flags>
    </extensions>
   </trkpt>
   <trkpt lon="13.84485483" lat="51.01754665">
    <ele>116</ele>
    <extensions>
     <ql:flags>2147483656</ql:flags>
    </extensions>
   </trkpt>
   <trkpt lon="13.84601355" lat="51.01754665">
    <ele>115</ele>
    <extensions>
     <ql:flags>2147483656</ql:flags>
    </extensions>
   </trkpt>
   <trkpt lon="13.84612083" lat="51.01752520">
    <ele>115</ele>
    <extensions>
     <ql:flags>2147483656</ql:flags>
    </extensions>
   </trkpt>
   <trkpt lon="13.84635687" lat="51.01743937">
    <ele>115</ele>
    <extensions>
     <ql:flags>2147483656</ql:flags>
    </extensions>
   </trkpt>
   <trkpt lon="13.84702206" lat="51.01709604">
    <ele>113</ele>
    <extensions>
     <ql:flags>2147483656</ql:flags>
    </extensions>
   </trkpt>
   <trkpt lon="13.84727825" lat="51.01692600">
    <ele>114</ele>
    <extensions>
     <ql:flags>2147483648</ql:flags>
    </extensions>
   </trkpt>
   <trkpt lon="13.84751558" lat="51.01675272">
    <ele>114</ele>
    <extensions>
     <ql:flags>2147483656</ql:flags>
    </extensions>
   </trkpt>
   <trkpt lon="13.84815931" lat="51.01630211">
    <ele>116</ele>
    <extensions>
     <ql:flags>2147483656</ql:flags>
    </extensions>
   </trkpt>
   <trkpt lon="13.84830952" lat="51.01617336">
    <ele>116</ele>
    <extensions>
     <ql:flags>2147483656</ql:flags>
    </extensions>
   </trkpt>
   <trkpt lon="13.84830956" lat="51.01617227">
    <ele>116</ele>
    <extensions>
     <ql:flags>2147483648</ql:flags>
    </extensions>
   </trkpt>
   <trkpt lon="13.84839535" lat="51.01615191">
    <ele>116</ele>
    <extensions>
     <ql:flags>2147483656</ql:flags>
    </extensions>
   </trkpt>
   <trkpt lon="13.84858449" lat="51.01606906">
    <ele>115</ele>
    <extensions>
     <ql:flags>2147483648</ql:flags>
    </extensions>
   </trkpt>
  </trkseg>
  <trkseg>
   <trkpt lon="13.84858717" lat="51.01606822">
    <ele>115</ele>
    <extensions>
     <ql:flags>2147483648</ql:flags>
    </extensions>
   </trkpt>
   <trkpt lon="13.84878159" lat="51.01595879">
    <ele>115</ele>
    <extensions>
     <ql:flags>2147483656</ql:flags>
    </extensions>
   </trkpt>
   <trkpt lon="13.84895325" lat="51.01587296">
    <ele>115</ele>
    <extensions>
     <ql:flags>2147483656</ql:flags>
    </extensions>
   </trkpt>
   <trkpt lon="13.85006905" lat="51.01520777">
    <ele>117</ele>
    <extensions>
     <ql:flags>2147483656</ql:flags>
    </extensions>
   </trkpt>
   <trkpt lon="13.85019779" lat="51.01512194">
    <ele>117</ele>
    <extensions>
     <ql:flags>2147483656</ql:flags>
    </extensions>
   </trkpt>
   <trkpt lon="13.85049820" lat="51.01499319">
    <ele>117</ele>
    <extensions>
     <ql:flags>2147483656</ql:flags>
    </extensions>
   </trkpt>
   <trkpt lon="13.85077715" lat="51.01477861">
    <ele>117</ele>
    <extensions>
     <ql:flags>2147483656</ql:flags>
    </extensions>
   </trkpt>
   <trkpt lon="13.85094881" lat="51.01469278">
    <ele>117</ele>
    <extensions>
     <ql:flags>2147483656</ql:flags>
    </extensions>
   </trkpt>
   <trkpt lon="13.85107756" lat="51.01456404">
    <ele>117</ele>
    <extensions>
     <ql:flags>2147483656</ql:flags>
    </extensions>
   </trkpt>
   <trkpt lon="13.85129213" lat="51.01441383">
    <ele>116</ele>
    <extensions>
     <ql:flags>2147483656</ql:flags>
    </extensions>
   </trkpt>
   <trkpt lon="13.85137796" lat="51.01439238">
    <ele>116</ele>
    <extensions>
     <ql:flags>2147483656</ql:flags>
    </extensions>
   </trkpt>
   <trkpt lon="13.85144234" lat="51.01437092">
    <ele>116</ele>
    <extensions>
     <ql:flags>2147483656</ql:flags>
    </extensions>
   </trkpt>
   <trkpt lon="13.85161400" lat="51.01422071">
    <ele>116</ele>
    <extensions>
     <ql:flags>2147483656</ql:flags>
    </extensions>
   </trkpt>
   <trkpt lon="13.85189295" lat="51.01402760">
    <ele>116</ele>
    <extensions>
     <ql:flags>2147483656</ql:flags>
    </extensions>
   </trkpt>
   <trkpt lon="13.85215044" lat="51.01387739">
    <ele>116</ele>
    <extensions>
     <ql:flags>2147483656</ql:flags>
    </extensions>
   </trkpt>
   <trkpt lon="13.85245085" lat="51.01368427">
    <ele>116</ele>
    <extensions>
     <ql:flags>2147483656</ql:flags>
    </extensions>
   </trkpt>
   <trkpt lon="13.85335207" lat="51.01323366">
    <ele>115</ele>
    <extensions>
     <ql:flags>2147483656</ql:flags>
    </extensions>
   </trkpt>
   <trkpt lon="13.85352373" lat="51.01319075">
    <ele>114</ele>
    <extensions>
     <ql:flags>2147483656</ql:flags>
    </extensions>
   </trkpt>
   <trkpt lon="13.85367393" lat="51.01312637">
    <ele>113</ele>
    <extensions>
     <ql:flags>2147483656</ql:flags>
    </extensions>
   </trkpt>
   <trkpt lon="13.85390997" lat="51.01299763">
    <ele>113</ele>
    <extensions>
     <ql:flags>2147483656</ql:flags>
    </extensions>
   </trkpt>
   <trkpt lon="13.85436058" lat="51.01276159">
    <ele>114</ele>
    <extensions>
     <ql:flags>2147483656</ql:flags>
    </extensions>
   </trkpt>
   <trkpt lon="13.85472138" lat="51.01259296">
    <ele>114</ele>
    <extensions>
     <ql:flags>2147483648</ql:flags>
    </extensions>
   </trkpt>
   <trkpt lon="13.85476295" lat="51.01257180">
    <ele>114</ele>
    <extensions>
     <ql:flags>2147483648</ql:flags>
    </extensions>
   </trkpt>
   <trkpt lon="13.85489702" lat="51.01250410">
    <ele>114</ele>
    <extensions>
     <ql:flags>2147483656</ql:flags>
    </extensions>
   </trkpt>
   <trkpt lon="13.85573387" lat="51.01216078">
    <ele>114</ele>
    <extensions>
     <ql:flags>2147483656</ql:flags>
    </extensions>
   </trkpt>
   <trkpt lon="13.85723591" lat="51.01158142">
    <ele>112</ele>
    <extensions>
     <ql:flags>2147483656</ql:flags>
    </extensions>
   </trkpt>
   <trkpt lon="13.85858774" lat="51.01100206">
    <ele>110</ele>
    <extensions>
     <ql:flags>2147483656</ql:flags>
    </extensions>
   </trkpt>
   <trkpt lon="13.86043310" lat="51.01016521">
    <ele>112</ele>
    <extensions>
     <ql:flags>2147483656</ql:flags>
    </extensions>
   </trkpt>
   <trkpt lon="13.86163477" lat="51.00960646">
    <ele>114</ele>
    <extensions>
     <ql:flags>2147483648</ql:flags>
    </extensions>
   </trkpt>
   <trkpt lon="13.86165489" lat="51.00958953">
    <ele>114</ele>
    <extensions>
     <ql:flags>2147483648</ql:flags>
    </extensions>
   </trkpt>
   <trkpt lon="13.86169910" lat="51.00956440">
    <ele>114</ele>
    <extensions>
     <ql:flags>2147483656</ql:flags>
    </extensions>
   </trkpt>
   <trkpt lon="13.86176218" lat="51.00960561">
    <ele>114</ele>
    <extensions>
     <ql:flags>2147483648</ql:flags>
    </extensions>
   </trkpt>
   <trkpt lon="13.86187077" lat="51.00954294">
    <ele>114</ele>
    <extensions>
     <ql:flags>2147483656</ql:flags>
    </extensions>
   </trkpt>
   <trkpt lon="13.86186813" lat="51.00954215">
    <ele>114</ele>
    <extensions>
     <ql:flags>2147483648</ql:flags>
    </extensions>
   </trkpt>
   <trkpt lon="13.86287928" lat="51.00898504">
    <ele>114</ele>
    <extensions>
     <ql:flags>2147483656</ql:flags>
    </extensions>
   </trkpt>
   <trkpt lon="13.86380196" lat="51.00844860">
    <ele>113</ele>
    <extensions>
     <ql:flags>2147483656</ql:flags>
    </extensions>
   </trkpt>
   <trkpt lon="13.86453152" lat="51.00814819">
    <ele>113</ele>
    <extensions>
     <ql:flags>2147483656</ql:flags>
    </extensions>
   </trkpt>
   <trkpt lon="13.86579752" lat="51.00737572">
    <ele>111</ele>
    <extensions>
     <ql:flags>2147483656</ql:flags>
    </extensions>
   </trkpt>
   <trkpt lon="13.86616230" lat="51.00716114">
    <ele>111</ele>
    <extensions>
     <ql:flags>2147483656</ql:flags>
    </extensions>
   </trkpt>
   <trkpt lon="13.86749268" lat="51.00572348">
    <ele>113</ele>
    <extensions>
     <ql:flags>2147483656</ql:flags>
    </extensions>
   </trkpt>
   <trkpt lon="13.86770725" lat="51.00544453">
    <ele>112</ele>
    <extensions>
     <ql:flags>2147483656</ql:flags>
    </extensions>
   </trkpt>
   <trkpt lon="13.86783600" lat="51.00527287">
    <ele>112</ele>
    <extensions>
     <ql:flags>2147483656</ql:flags>
    </extensions>
   </trkpt>
   <trkpt lon="13.86785746" lat="51.00512266">
    <ele>112</ele>
    <extensions>
     <ql:flags>2147483656</ql:flags>
    </extensions>
   </trkpt>
   <trkpt lon="13.86794329" lat="51.00486517">
    <ele>113</ele>
    <extensions>
     <ql:flags>2147483656</ql:flags>
    </extensions>
   </trkpt>
   <trkpt lon="13.86807203" lat="51.00458622">
    <ele>114</ele>
    <extensions>
     <ql:flags>2147483656</ql:flags>
    </extensions>
   </trkpt>
   <trkpt lon="13.86839390" lat="51.00415707">
    <ele>113</ele>
    <extensions>
     <ql:flags>2147483656</ql:flags>
    </extensions>
   </trkpt>
   <trkpt lon="13.86882305" lat="51.00362062">
    <ele>112</ele>
    <extensions>
     <ql:flags>2147483656</ql:flags>
    </extensions>
   </trkpt>
   <trkpt lon="13.86938095" lat="51.00301981">
    <ele>112</ele>
    <extensions>
     <ql:flags>2147483656</ql:flags>
    </extensions>
   </trkpt>
   <trkpt lon="13.87032509" lat="51.00201130">
    <ele>112</ele>
    <extensions>
     <ql:flags>2147483656</ql:flags>
    </extensions>
   </trkpt>
   <trkpt lon="13.87073278" lat="51.00164652">
    <ele>113</ele>
    <extensions>
     <ql:flags>2147483656</ql:flags>
    </extensions>
   </trkpt>
   <trkpt lon="13.87131214" lat="51.00117445">
    <ele>112</ele>
    <extensions>
     <ql:flags>2147483656</ql:flags>
    </extensions>
   </trkpt>
   <trkpt lon="13.87195587" lat="51.00076675">
    <ele>112</ele>
    <extensions>
     <ql:flags>2147483656</ql:flags>
    </extensions>
   </trkpt>
   <trkpt lon="13.87244940" lat="51.00044489">
    <ele>113</ele>
    <extensions>
     <ql:flags>2147483656</ql:flags>
    </extensions>
   </trkpt>
   <trkpt lon="13.87270689" lat="51.00023031">
    <ele>113</ele>
    <extensions>
     <ql:flags>2147483656</ql:flags>
    </extensions>
   </trkpt>
   <trkpt lon="13.87335062" lat="50.99977970">
    <ele>112</ele>
    <extensions>
     <ql:flags>2147483656</ql:flags>
    </extensions>
   </trkpt>
   <trkpt lon="13.87345661" lat="50.99973864">
    <ele>111</ele>
    <extensions>
     <ql:flags>2147483648</ql:flags>
    </extensions>
   </trkpt>
   <trkpt lon="13.87345791" lat="50.99973679">
    <ele>111</ele>
    <extensions>
     <ql:flags>2147483656</ql:flags>
    </extensions>
   </trkpt>
   <trkpt lon="13.87326479" lat="50.99965096">
    <ele>112</ele>
    <extensions>
     <ql:flags>2147483656</ql:flags>
    </extensions>
   </trkpt>
   <trkpt lon="13.87292821" lat="50.99958885">
    <ele>112</ele>
    <extensions>
     <ql:flags>2147483648</ql:flags>
    </extensions>
   </trkpt>
   <trkpt lon="13.87270689" lat="50.99939346">
    <ele>112</ele>
    <extensions>
     <ql:flags>2147483656</ql:flags>
    </extensions>
   </trkpt>
   <trkpt lon="13.87255669" lat="50.99922180">
    <ele>111</ele>
    <extensions>
     <ql:flags>2147483656</ql:flags>
    </extensions>
   </trkpt>
   <trkpt lon="13.87221336" lat="50.99905014">
    <ele>111</ele>
    <extensions>
     <ql:flags>2147483656</ql:flags>
    </extensions>
   </trkpt>
   <trkpt lon="13.87120485" lat="50.99877119">
    <ele>112</ele>
    <extensions>
     <ql:flags>2147483656</ql:flags>
    </extensions>
   </trkpt>
   <trkpt lon="13.86976719" lat="50.99832058">
    <ele>113</ele>
    <extensions>
     <ql:flags>2147483656</ql:flags>
    </extensions>
   </trkpt>
   <trkpt lon="13.86926029" lat="50.99832116">
    <ele>114</ele>
    <extensions>
     <ql:flags>2147483648</ql:flags>
    </extensions>
   </trkpt>
   <trkpt lon="13.86912484" lat="50.99832031">
    <ele>115</ele>
    <extensions>
     <ql:flags>2147483648</ql:flags>
    </extensions>
   </trkpt>
   <trkpt lon="13.86715074" lat="50.99780662">
    <ele>116</ele>
    <extensions>
     <ql:flags>2147483648</ql:flags>
    </extensions>
   </trkpt>
   <trkpt lon="13.86706352" lat="50.99799871">
    <ele>116</ele>
    <extensions>
     <ql:flags>2147483656</ql:flags>
    </extensions>
   </trkpt>
   <trkpt lon="13.86680603" lat="50.99840641">
    <ele>116</ele>
    <extensions>
     <ql:flags>2147483656</ql:flags>
    </extensions>
   </trkpt>
   <trkpt lon="13.86601210" lat="50.99947929">
    <ele>116</ele>
    <extensions>
     <ql:flags>2147483656</ql:flags>
    </extensions>
   </trkpt>
   <trkpt lon="13.86575460" lat="50.99980116">
    <ele>116</ele>
    <extensions>
     <ql:flags>2147483656</ql:flags>
    </extensions>
   </trkpt>
   <trkpt lon="13.86575599" lat="50.99980041">
    <ele>116</ele>
    <extensions>
     <ql:flags>2147483648</ql:flags>
    </extensions>
   </trkpt>
   <trkpt lon="13.86554003" lat="50.99956512">
    <ele>116</ele>
    <extensions>
     <ql:flags>2147483656</ql:flags>
    </extensions>
   </trkpt>
   <trkpt lon="13.86547565" lat="50.99935055">
    <ele>116</ele>
    <extensions>
     <ql:flags>2147483656</ql:flags>
    </extensions>
   </trkpt>
   <trkpt lon="13.86538982" lat="50.99928617">
    <ele>116</ele>
    <extensions>
     <ql:flags>2147483656</ql:flags>
    </extensions>
   </trkpt>
   <trkpt lon="13.86523962" lat="50.99924326">
    <ele>116</ele>
    <extensions>
     <ql:flags>2147483656</ql:flags>
    </extensions>
   </trkpt>
   <trkpt lon="13.86444569" lat="50.99917889">
    <ele>115</ele>
    <extensions>
     <ql:flags>2147483656</ql:flags>
    </extensions>
   </trkpt>
   <trkpt lon="13.86425257" lat="50.99917889">
    <ele>115</ele>
    <extensions>
     <ql:flags>2147483656</ql:flags>
    </extensions>
   </trkpt>
   <trkpt lon="13.86414528" lat="50.99920034">
    <ele>115</ele>
    <extensions>
     <ql:flags>2147483656</ql:flags>
    </extensions>
   </trkpt>
   <trkpt lon="13.86373758" lat="50.99915743">
    <ele>115</ele>
    <extensions>
     <ql:flags>2147483656</ql:flags>
    </extensions>
   </trkpt>
   <trkpt lon="13.86356592" lat="50.99911451">
    <ele>115</ele>
    <extensions>
     <ql:flags>2147483656</ql:flags>
    </extensions>
   </trkpt>
   <trkpt lon="13.86335135" lat="50.99902868">
    <ele>114</ele>
    <extensions>
     <ql:flags>2147483656</ql:flags>
    </extensions>
   </trkpt>
   <trkpt lon="13.86302948" lat="50.99887848">
    <ele>113</ele>
    <extensions>
     <ql:flags>2147483656</ql:flags>
    </extensions>
   </trkpt>
   <trkpt lon="13.86294365" lat="50.99883556">
    <ele>113</ele>
    <extensions>
     <ql:flags>2147483656</ql:flags>
    </extensions>
   </trkpt>
   <trkpt lon="13.86292219" lat="50.99874973">
    <ele>113</ele>
    <extensions>
     <ql:flags>2147483656</ql:flags>
    </extensions>
   </trkpt>
   <trkpt lon="13.86287928" lat="50.99868536">
    <ele>113</ele>
    <extensions>
     <ql:flags>2147483656</ql:flags>
    </extensions>
   </trkpt>
   <trkpt lon="13.86270761" lat="50.99857807">
    <ele>113</ele>
    <extensions>
     <ql:flags>2147483656</ql:flags>
    </extensions>
   </trkpt>
   <trkpt lon="13.86206388" lat="50.99834204">
    <ele>115</ele>
    <extensions>
     <ql:flags>2147483656</ql:flags>
    </extensions>
   </trkpt>
   <trkpt lon="13.86178493" lat="50.99836349">
    <ele>115</ele>
    <extensions>
     <ql:flags>2147483656</ql:flags>
    </extensions>
   </trkpt>
   <trkpt lon="13.86150599" lat="50.99838495">
    <ele>115</ele>
    <extensions>
     <ql:flags>2147483656</ql:flags>
    </extensions>
   </trkpt>
   <trkpt lon="13.86099100" lat="50.99806309">
    <ele>116</ele>
    <extensions>
     <ql:flags>2147483656</ql:flags>
    </extensions>
   </trkpt>
   <trkpt lon="13.86017561" lat="50.99748373">
    <ele>117</ele>
    <extensions>
     <ql:flags>2147483656</ql:flags>
    </extensions>
   </trkpt>
   <trkpt lon="13.86005227" lat="50.99742241">
    <ele>117</ele>
    <extensions>
     <ql:flags>2147483648</ql:flags>
    </extensions>
   </trkpt>
  </trkseg>
  <trkseg>
   <trkpt lon="13.86004556" lat="50.99742326">
    <ele>117</ele>
    <extensions>
     <ql:flags>2147483648</ql:flags>
    </extensions>
   </trkpt>
   <trkpt lon="13.85981083" lat="50.99752665">
    <ele>116</ele>
    <extensions>
     <ql:flags>2147483656</ql:flags>
    </extensions>
   </trkpt>
   <trkpt lon="13.85968208" lat="50.99754810">
    <ele>116</ele>
    <extensions>
     <ql:flags>2147483656</ql:flags>
    </extensions>
   </trkpt>
   <trkpt lon="13.85961771" lat="50.99754810">
    <ele>116</ele>
    <extensions>
     <ql:flags>2147483656</ql:flags>
    </extensions>
   </trkpt>
   <trkpt lon="13.85916710" lat="50.99748373">
    <ele>117</ele>
    <extensions>
     <ql:flags>2147483656</ql:flags>
    </extensions>
   </trkpt>
   <trkpt lon="13.85899544" lat="50.99748373">
    <ele>117</ele>
    <extensions>
     <ql:flags>2147483656</ql:flags>
    </extensions>
   </trkpt>
   <trkpt lon="13.85882784" lat="50.99756966">
    <ele>116</ele>
    <extensions>
     <ql:flags>2147483648</ql:flags>
    </extensions>
   </trkpt>
   <trkpt lon="13.85852337" lat="50.99769831">
    <ele>116</ele>
    <extensions>
     <ql:flags>2147483656</ql:flags>
    </extensions>
   </trkpt>
   <trkpt lon="13.85848318" lat="50.99771861">
    <ele>116</ele>
    <extensions>
     <ql:flags>2147483648</ql:flags>
    </extensions>
   </trkpt>
   <trkpt lon="13.85796547" lat="50.99799871">
    <ele>116</ele>
    <extensions>
     <ql:flags>2147483656</ql:flags>
    </extensions>
   </trkpt>
   <trkpt lon="13.85794539" lat="50.99806220">
    <ele>116</ele>
    <extensions>
     <ql:flags>2147483648</ql:flags>
    </extensions>
   </trkpt>
   <trkpt lon="13.85768652" lat="50.99821329">
    <ele>117</ele>
    <extensions>
     <ql:flags>2147483656</ql:flags>
    </extensions>
   </trkpt>
   <trkpt lon="13.85757923" lat="50.99825621">
    <ele>117</ele>
    <extensions>
     <ql:flags>2147483656</ql:flags>
    </extensions>
   </trkpt>
   <trkpt lon="13.85693550" lat="50.99864244">
    <ele>118</ele>
    <extensions>
     <ql:flags>2147483656</ql:flags>
    </extensions>
   </trkpt>
   <trkpt lon="13.85620594" lat="50.99900723">
    <ele>118</ele>
    <extensions>
     <ql:flags>2147483656</ql:flags>
    </extensions>
   </trkpt>
   <trkpt lon="13.85491848" lat="50.99952221">
    <ele>117</ele>
    <extensions>
     <ql:flags>2147483656</ql:flags>
    </extensions>
   </trkpt>
   <trkpt lon="13.85423183" lat="50.99975824">
    <ele>117</ele>
    <extensions>
     <ql:flags>2147483656</ql:flags>
    </extensions>
   </trkpt>
   <trkpt lon="13.85401596" lat="50.99988588">
    <ele>117</ele>
    <extensions>
     <ql:flags>2147483648</ql:flags>
    </extensions>
   </trkpt>
   <trkpt lon="13.85427475" lat="51.00014448">
    <ele>118</ele>
    <extensions>
     <ql:flags>2147483656</ql:flags>
    </extensions>
   </trkpt>
   <trkpt lon="13.85436058" lat="51.00025177">
    <ele>118</ele>
    <extensions>
     <ql:flags>2147483656</ql:flags>
    </extensions>
   </trkpt>
   <trkpt lon="13.85436058" lat="51.00033760">
    <ele>118</ele>
    <extensions>
     <ql:flags>2147483656</ql:flags>
    </extensions>
   </trkpt>
   <trkpt lon="13.85431767" lat="51.00046635">
    <ele>118</ele>
    <extensions>
     <ql:flags>2147483656</ql:flags>
    </extensions>
   </trkpt>
   <trkpt lon="13.85412455" lat="51.00083113">
    <ele>117</ele>
    <extensions>
     <ql:flags>2147483656</ql:flags>
    </extensions>
   </trkpt>
   <trkpt lon="13.85406017" lat="51.00093842">
    <ele>117</ele>
    <extensions>
     <ql:flags>2147483656</ql:flags>
    </extensions>
   </trkpt>
   <trkpt lon="13.85363102" lat="51.00173235">
    <ele>116</ele>
    <extensions>
     <ql:flags>2147483656</ql:flags>
    </extensions>
   </trkpt>
   <trkpt lon="13.85324478" lat="51.00241899">
    <ele>116</ele>
    <extensions>
     <ql:flags>2147483656</ql:flags>
    </extensions>
   </trkpt>
   <trkpt lon="13.85281563" lat="51.00325584">
    <ele>115</ele>
    <extensions>
     <ql:flags>2147483656</ql:flags>
    </extensions>
   </trkpt>
   <trkpt lon="13.85279417" lat="51.00329876">
    <ele>116</ele>
    <extensions>
     <ql:flags>2147483656</ql:flags>
    </extensions>
   </trkpt>
   <trkpt lon="13.85266542" lat="51.00351334">
    <ele>116</ele>
    <extensions>
     <ql:flags>2147483656</ql:flags>
    </extensions>
   </trkpt>
   <trkpt lon="13.85202308" lat="51.00466942">
    <ele>116</ele>
    <extensions>
     <ql:flags>2147483648</ql:flags>
    </extensions>
   </trkpt>
   <trkpt lon="13.85202169" lat="51.00467205">
    <ele>116</ele>
    <extensions>
     <ql:flags>2147483656</ql:flags>
    </extensions>
   </trkpt>
   <trkpt lon="13.85108028" lat="51.00452134">
    <ele>116</ele>
    <extensions>
     <ql:flags>2147483648</ql:flags>
    </extensions>
   </trkpt>
   <trkpt lon="13.85107756" lat="51.00452185">
    <ele>116</ele>
    <extensions>
     <ql:flags>2147483656</ql:flags>
    </extensions>
   </trkpt>
   <trkpt lon="13.85066986" lat="51.00445747">
    <ele>116</ele>
    <extensions>
     <ql:flags>2147483656</ql:flags>
    </extensions>
   </trkpt>
   <trkpt lon="13.85050092" lat="51.00445957">
    <ele>117</ele>
    <extensions>
     <ql:flags>2147483648</ql:flags>
    </extensions>
   </trkpt>
   <trkpt lon="13.85036945" lat="51.00456476">
    <ele>117</ele>
    <extensions>
     <ql:flags>2147483656</ql:flags>
    </extensions>
   </trkpt>
   <trkpt lon="13.85028501" lat="51.00466688">
    <ele>117</ele>
    <extensions>
     <ql:flags>2147483648</ql:flags>
    </extensions>
   </trkpt>
  </trkseg>
  <trkseg>
   <trkpt lon="13.85028366" lat="51.00466688">
    <ele>117</ele>
    <extensions>
     <ql:flags>2147483648</ql:flags>
    </extensions>
   </trkpt>
   <trkpt lon="13.84927515" lat="51.00559341">
    <ele>117</ele>
    <extensions>
     <ql:flags>2147483648</ql:flags>
    </extensions>
   </trkpt>
   <trkpt lon="13.84878159" lat="51.00529432">
    <ele>118</ele>
    <extensions>
     <ql:flags>2147483656</ql:flags>
    </extensions>
   </trkpt>
   <trkpt lon="13.84865284" lat="51.00522995">
    <ele>118</ele>
    <extensions>
     <ql:flags>2147483656</ql:flags>
    </extensions>
   </trkpt>
   <trkpt lon="13.84860058" lat="51.00521180">
    <ele>118</ele>
    <extensions>
     <ql:flags>2147483648</ql:flags>
    </extensions>
   </trkpt>
   <trkpt lon="13.84865284" lat="51.00522995">
    <ele>118</ele>
    <extensions>
     <ql:flags>2147483656</ql:flags>
    </extensions>
   </trkpt>
   <trkpt lon="13.84878159" lat="51.00529432">
    <ele>118</ele>
    <extensions>
     <ql:flags>2147483656</ql:flags>
    </extensions>
   </trkpt>
   <trkpt lon="13.84927511" lat="51.00559473">
    <ele>117</ele>
    <extensions>
     <ql:flags>2147483656</ql:flags>
    </extensions>
   </trkpt>
   <trkpt lon="13.84994030" lat="51.00604534">
    <ele>116</ele>
    <extensions>
     <ql:flags>2147483656</ql:flags>
    </extensions>
   </trkpt>
   <trkpt lon="13.85021925" lat="51.00623846">
    <ele>116</ele>
    <extensions>
     <ql:flags>2147483656</ql:flags>
    </extensions>
   </trkpt>
   <trkpt lon="13.85064576" lat="51.00653853">
    <ele>116</ele>
    <extensions>
     <ql:flags>2147483648</ql:flags>
    </extensions>
   </trkpt>
   <trkpt lon="13.85114331" lat="51.00692436">
    <ele>117</ele>
    <extensions>
     <ql:flags>2147483648</ql:flags>
    </extensions>
   </trkpt>
   <trkpt lon="13.85114063" lat="51.00703181">
    <ele>117</ele>
    <extensions>
     <ql:flags>2147483648</ql:flags>
    </extensions>
   </trkpt>
   <trkpt lon="13.85118891" lat="51.00704366">
    <ele>117</ele>
    <extensions>
     <ql:flags>2147483648</ql:flags>
    </extensions>
   </trkpt>
   <trkpt lon="13.85157108" lat="51.00713968">
    <ele>117</ele>
    <extensions>
     <ql:flags>2147483656</ql:flags>
    </extensions>
   </trkpt>
   <trkpt lon="13.85227919" lat="51.00744009">
    <ele>118</ele>
    <extensions>
     <ql:flags>2147483656</ql:flags>
    </extensions>
   </trkpt>
   <trkpt lon="13.85249376" lat="51.00756884">
    <ele>118</ele>
    <extensions>
     <ql:flags>2147483656</ql:flags>
    </extensions>
   </trkpt>
   <trkpt lon="13.85259841" lat="51.00769685">
    <ele>119</ele>
    <extensions>
     <ql:flags>2147483648</ql:flags>
    </extensions>
   </trkpt>
   <trkpt lon="13.85260105" lat="51.00769758">
    <ele>119</ele>
    <extensions>
     <ql:flags>2147483656</ql:flags>
    </extensions>
   </trkpt>
   <trkpt lon="13.85289882" lat="51.00761223">
    <ele>118</ele>
    <extensions>
     <ql:flags>2147483648</ql:flags>
    </extensions>
   </trkpt>
   <trkpt lon="13.85290146" lat="51.00761175">
    <ele>118</ele>
    <extensions>
     <ql:flags>2147483656</ql:flags>
    </extensions>
   </trkpt>
   <trkpt lon="13.85352373" lat="51.00808382">
    <ele>119</ele>
    <extensions>
     <ql:flags>2147483656</ql:flags>
    </extensions>
   </trkpt>
   <trkpt lon="13.85386705" lat="51.00836277">
    <ele>120</ele>
    <extensions>
     <ql:flags>2147483656</ql:flags>
    </extensions>
   </trkpt>
   <trkpt lon="13.85386710" lat="51.00842363">
    <ele>120</ele>
    <extensions>
     <ql:flags>2147483648</ql:flags>
    </extensions>
   </trkpt>
   <trkpt lon="13.85417019" lat="51.00847017">
    <ele>119</ele>
    <extensions>
     <ql:flags>2147483648</ql:flags>
    </extensions>
   </trkpt>
   <trkpt lon="13.85433912" lat="51.00842714">
    <ele>119</ele>
    <extensions>
     <ql:flags>2147483656</ql:flags>
    </extensions>
   </trkpt>
   <trkpt lon="13.85453224" lat="51.00834131">
    <ele>119</ele>
    <extensions>
     <ql:flags>2147483656</ql:flags>
    </extensions>
   </trkpt>
   <trkpt lon="13.85464762" lat="51.00826965">
    <ele>119</ele>
    <extensions>
     <ql:flags>2147483648</ql:flags>
    </extensions>
   </trkpt>
  </trkseg>
 </trk>
 <extensions>
  <ql:key>e5d17a0092f0e7f5ea1dcd50867d8e1c</ql:key>
  <ql:sortingRoadbook>0</ql:sortingRoadbook>
  <ql:sortingFolder>0</ql:sortingFolder>
  <ql:correlation>1</ql:correlation>
 </extensions>
</gpx>
