<?xml version="1.0" encoding="UTF-8" standalone="no" ?>
<gpx version="1.1" xmlns:gpxx="http://www.garmin.com/xmlschemas/GpxExtensions/v3" creator="QMapShack 1.10.0 http://www.qlandkarte.org/" xsi:schemaLocation="http://www.topografix.com/GPX/1/1 http://www.topografix.com/GPX/1/1/gpx.xsd http://www.garmin.com/xmlschemas/GpxExtensions/v3 http://www.garmin.com/xmlschemas/GpxExtensionsv3.xsd http://www.garmin.com/xmlschemas/TrackPointExtension/v1 http://www.garmin.com/xmlschemas/TrackPointExtensionv1.xsd http://www.garmin.com/xmlschemas/WaypointExtension/v1 http://www.garmin.com/xmlschemas/WaypointExtensionv1.xsd http://www.qlandkarte.org/xmlschemas/v1.1 http://www.qlandkarte.org/xmlschemas/v1.1/ql-extensions.xsd http://www.cluetrust.com/XML/GPXDATA/1/0 http://www.cluetrust.com/Schemas/gpxdata10.xsd" xmlns:xsi="http://www.w3.org/2001/XMLSchema-instance" xmlns:tp1="http://www.garmin.com/xmlschemas/TrackPointExtension/v1" xmlns="http://www.topografix.com/GPX/1/1" xmlns:rmc="urn:net:trekbuddy:1.0:nmea:rmc" xmlns:gpxdata="http://www.cluetrust.com/XML/GPXDATA/1/0" xmlns:ql="http://www.qlandkarte.org/xmlschemas/v1.1" xmlns:gpxtpx="http://www.garmin.com/xmlschemas/TrackPointExtension/v1" xmlns:wptx1="http://www.garmin.com/xmlschemas/WaypointExtension/v1">
 <metadata>
  <name>Streifzug 16: Barocke und moderne Wasserspiele in der Dresdner Innenstadt</name>
  <link href="https://www.dvb.de/de-de/entdecken/wandertipps/barocke-und-moderne-wasserspiele/">
   <text>Webseite</text>
   <type>Link</type>
  </link>
  <time>2020-06-28T13:29:04.000Z</time>
 </metadata>
 <wpt lat="51.05755000" lon="13.71610000">
  <ele>116</ele>
  <time>2020-07-30T03:24:41.081Z</time>
  <name>Wegpunkt 1 Rechts</name>
  <sym>Flag, Blue</sym>
  <extensions>
   <ql:key>3d2f5997b866b6837fbd34a7ca6892ae</ql:key>
   <ql:flags>3</ql:flags>
   <ql:bubble yoff="-150" xoff="-320" width="300"/>
   <ql:history>
    <ql:event>
     <ql:icon>://icons/48x48/Start.png</ql:icon>
     <ql:time>2020-07-30T03:24:41.082Z</ql:time>
     <ql:comment>Erstversion.</ql:comment>
    </ql:event>
    <ql:event>
     <ql:icon>://icons/48x48/WptEditProx.png</ql:icon>
     <ql:time>2020-07-30T03:24:43.783Z</ql:time>
     <ql:comment>Abstandsalarm geändert</ql:comment>
    </ql:event>
   </ql:history>
   <wptx1:WaypointExtension>
    <wptx1:Proximity>10.00000000</wptx1:Proximity>
   </wptx1:WaypointExtension>
  </extensions>
 </wpt>
 <wpt lat="51.05866667" lon="13.71910000">
  <ele>115</ele>
  <time>2020-07-30T03:26:36.709Z</time>
  <name>Wegpunkt 2 Hier</name>
  <sym>Flag, Blue</sym>
  <extensions>
   <ql:key>86231f6a6fe26da0552f2a19aba2e490</ql:key>
   <ql:flags>3</ql:flags>
   <ql:bubble yoff="-150" xoff="-320" width="300"/>
   <ql:history>
    <ql:event>
     <ql:icon>://icons/48x48/Start.png</ql:icon>
     <ql:time>2020-07-30T03:26:36.710Z</ql:time>
     <ql:comment>Erstversion.</ql:comment>
    </ql:event>
    <ql:event>
     <ql:icon>://icons/48x48/WptEditProx.png</ql:icon>
     <ql:time>2020-07-30T03:26:39.778Z</ql:time>
     <ql:comment>Abstandsalarm geändert</ql:comment>
    </ql:event>
   </ql:history>
   <wptx1:WaypointExtension>
    <wptx1:Proximity>10.00000000</wptx1:Proximity>
   </wptx1:WaypointExtension>
  </extensions>
 </wpt>
 <wpt lat="51.05956667" lon="13.71828333">
  <ele>116</ele>
  <time>2020-07-30T03:41:08.530Z</time>
  <name>Wegpunkt 3 Hier</name>
  <sym>Flag, Blue</sym>
  <extensions>
   <ql:key>4c9f36672eb59d55afd64c1f3308f347</ql:key>
   <ql:flags>3</ql:flags>
   <ql:bubble yoff="-150" xoff="-320" width="300"/>
   <ql:history>
    <ql:event>
     <ql:icon>://icons/48x48/Start.png</ql:icon>
     <ql:time>2020-07-30T03:41:08.531Z</ql:time>
     <ql:comment>Erstversion.</ql:comment>
    </ql:event>
    <ql:event>
     <ql:icon>://icons/48x48/WptEditProx.png</ql:icon>
     <ql:time>2020-07-30T03:41:11.686Z</ql:time>
     <ql:comment>Abstandsalarm geändert</ql:comment>
    </ql:event>
   </ql:history>
   <wptx1:WaypointExtension>
    <wptx1:Proximity>10.00000000</wptx1:Proximity>
   </wptx1:WaypointExtension>
  </extensions>
 </wpt>
 <wpt lat="51.05338333" lon="13.73538333">
  <ele>116</ele>
  <time>2020-07-30T03:44:35.509Z</time>
  <name>Wegpunkt 4 Links</name>
  <sym>Flag, Blue</sym>
  <extensions>
   <ql:key>09454c93646d2e9e47f1b3f1af9a88db</ql:key>
   <ql:flags>3</ql:flags>
   <ql:bubble yoff="-150" xoff="-320" width="300"/>
   <ql:history>
    <ql:event>
     <ql:icon>://icons/48x48/Start.png</ql:icon>
     <ql:time>2020-07-30T03:44:35.509Z</ql:time>
     <ql:comment>Erstversion.</ql:comment>
    </ql:event>
    <ql:event>
     <ql:icon>://icons/48x48/WptEditProx.png</ql:icon>
     <ql:time>2020-07-30T03:44:39.521Z</ql:time>
     <ql:comment>Abstandsalarm geändert</ql:comment>
    </ql:event>
   </ql:history>
   <wptx1:WaypointExtension>
    <wptx1:Proximity>10.00000000</wptx1:Proximity>
   </wptx1:WaypointExtension>
  </extensions>
 </wpt>
 <wpt lat="51.05395000" lon="13.73365000">
  <ele>116</ele>
  <time>2020-07-30T03:45:40.017Z</time>
  <name>Wegpunkt 5 Hier</name>
  <sym>Flag, Blue</sym>
  <extensions>
   <ql:key>c9135cfb5706b379e2d04e44667d489f</ql:key>
   <ql:flags>3</ql:flags>
   <ql:bubble yoff="-150" xoff="-320" width="300"/>
   <ql:history>
    <ql:event>
     <ql:icon>://icons/48x48/Start.png</ql:icon>
     <ql:time>2020-07-30T03:45:40.018Z</ql:time>
     <ql:comment>Erstversion.</ql:comment>
    </ql:event>
    <ql:event>
     <ql:icon>://icons/48x48/WptEditProx.png</ql:icon>
     <ql:time>2020-07-30T03:45:42.424Z</ql:time>
     <ql:comment>Abstandsalarm geändert</ql:comment>
    </ql:event>
   </ql:history>
   <wptx1:WaypointExtension>
    <wptx1:Proximity>10.00000000</wptx1:Proximity>
   </wptx1:WaypointExtension>
  </extensions>
 </wpt>
 <wpt lat="51.05186667" lon="13.73475000">
  <ele>114</ele>
  <time>2020-07-30T03:46:13.022Z</time>
  <name>Wegpunkt 6 Hier</name>
  <sym>Flag, Blue</sym>
  <extensions>
   <ql:key>313a7a50b61ae09409cda502833b1f2e</ql:key>
   <ql:flags>3</ql:flags>
   <ql:bubble yoff="-150" xoff="-320" width="300"/>
   <ql:history>
    <ql:event>
     <ql:icon>://icons/48x48/Start.png</ql:icon>
     <ql:time>2020-07-30T03:46:13.023Z</ql:time>
     <ql:comment>Erstversion.</ql:comment>
    </ql:event>
    <ql:event>
     <ql:icon>://icons/48x48/WptEditProx.png</ql:icon>
     <ql:time>2020-07-30T03:46:17.130Z</ql:time>
     <ql:comment>Abstandsalarm geändert</ql:comment>
    </ql:event>
   </ql:history>
   <wptx1:WaypointExtension>
    <wptx1:Proximity>10.00000000</wptx1:Proximity>
   </wptx1:WaypointExtension>
  </extensions>
 </wpt>
 <wpt lat="51.05210000" lon="13.73633333">
  <ele>118</ele>
  <time>2020-07-30T03:47:55.131Z</time>
  <name>Wegpunkt 7 Hier</name>
  <sym>Flag, Blue</sym>
  <extensions>
   <ql:key>8e9c5fb7ca6546b8639cff3afef92703</ql:key>
   <ql:flags>3</ql:flags>
   <ql:bubble yoff="-150" xoff="-320" width="300"/>
   <ql:history>
    <ql:event>
     <ql:icon>://icons/48x48/Start.png</ql:icon>
     <ql:time>2020-07-30T03:47:55.132Z</ql:time>
     <ql:comment>Erstversion.</ql:comment>
    </ql:event>
    <ql:event>
     <ql:icon>://icons/48x48/WptEditProx.png</ql:icon>
     <ql:time>2020-07-30T03:47:59.076Z</ql:time>
     <ql:comment>Abstandsalarm geändert</ql:comment>
    </ql:event>
   </ql:history>
   <wptx1:WaypointExtension>
    <wptx1:Proximity>10.00000000</wptx1:Proximity>
   </wptx1:WaypointExtension>
  </extensions>
 </wpt>
 <wpt lat="51.05166667" lon="13.73966667">
  <ele>114</ele>
  <time>2020-07-30T03:48:43.373Z</time>
  <name>Wegpunkt 8 Rechts</name>
  <sym>Flag, Blue</sym>
  <extensions>
   <ql:key>fd8970e181d1da0d11e534ad17ae1da4</ql:key>
   <ql:flags>3</ql:flags>
   <ql:bubble yoff="-150" xoff="-320" width="300"/>
   <ql:history>
    <ql:event>
     <ql:icon>://icons/48x48/Start.png</ql:icon>
     <ql:time>2020-07-30T03:48:43.374Z</ql:time>
     <ql:comment>Erstversion.</ql:comment>
    </ql:event>
    <ql:event>
     <ql:icon>://icons/48x48/WptEditProx.png</ql:icon>
     <ql:time>2020-07-30T03:48:47.998Z</ql:time>
     <ql:comment>Abstandsalarm geändert</ql:comment>
    </ql:event>
   </ql:history>
   <wptx1:WaypointExtension>
    <wptx1:Proximity>10.00000000</wptx1:Proximity>
   </wptx1:WaypointExtension>
  </extensions>
 </wpt>
 <wpt lat="51.05315000" lon="13.74531667">
  <ele>116</ele>
  <time>2020-07-30T03:49:55.433Z</time>
  <name>Wegpunkt 9 Voraus</name>
  <sym>Flag, Blue</sym>
  <extensions>
   <ql:key>b82ea74592de2c9b707998291b2e0db1</ql:key>
   <ql:flags>3</ql:flags>
   <ql:bubble yoff="-150" xoff="-320" width="300"/>
   <ql:history>
    <ql:event>
     <ql:icon>://icons/48x48/Start.png</ql:icon>
     <ql:time>2020-07-30T03:49:55.433Z</ql:time>
     <ql:comment>Erstversion.</ql:comment>
    </ql:event>
    <ql:event>
     <ql:icon>://icons/48x48/WptEditProx.png</ql:icon>
     <ql:time>2020-07-30T03:49:58.987Z</ql:time>
     <ql:comment>Abstandsalarm geändert</ql:comment>
    </ql:event>
   </ql:history>
   <wptx1:WaypointExtension>
    <wptx1:Proximity>10.00000000</wptx1:Proximity>
   </wptx1:WaypointExtension>
  </extensions>
 </wpt>
 <wpt lat="51.04908333" lon="13.74030000">
  <ele>123</ele>
  <time>2020-07-30T03:50:53.358Z</time>
  <name>Wegpunkt 10 Hier</name>
  <sym>Flag, Blue</sym>
  <extensions>
   <ql:key>63c8f5f50fdddea44eef54ad7de8a367</ql:key>
   <ql:flags>3</ql:flags>
   <ql:bubble yoff="-150" xoff="-320" width="300"/>
   <ql:history>
    <ql:event>
     <ql:icon>://icons/48x48/Start.png</ql:icon>
     <ql:time>2020-07-30T03:50:53.359Z</ql:time>
     <ql:comment>Erstversion.</ql:comment>
    </ql:event>
    <ql:event>
     <ql:icon>://icons/48x48/WptEditProx.png</ql:icon>
     <ql:time>2020-07-30T03:50:56.288Z</ql:time>
     <ql:comment>Abstandsalarm geändert</ql:comment>
    </ql:event>
   </ql:history>
   <wptx1:WaypointExtension>
    <wptx1:Proximity>10.00000000</wptx1:Proximity>
   </wptx1:WaypointExtension>
  </extensions>
 </wpt>
 <wpt lat="51.04841667" lon="13.73965000">
  <ele>127</ele>
  <time>2020-07-30T03:51:33.626Z</time>
  <name>Wegpunkt 11 Hier</name>
  <sym>Flag, Blue</sym>
  <extensions>
   <ql:key>77ef28af71cbd48f7e422c46ba7dcacd</ql:key>
   <ql:flags>3</ql:flags>
   <ql:bubble yoff="-150" xoff="-320" width="300"/>
   <ql:history>
    <ql:event>
     <ql:icon>://icons/48x48/Start.png</ql:icon>
     <ql:time>2020-07-30T03:51:33.627Z</ql:time>
     <ql:comment>Erstversion.</ql:comment>
    </ql:event>
    <ql:event>
     <ql:icon>://icons/48x48/WptEditProx.png</ql:icon>
     <ql:time>2020-07-30T03:51:38.942Z</ql:time>
     <ql:comment>Abstandsalarm geändert</ql:comment>
    </ql:event>
   </ql:history>
   <wptx1:WaypointExtension>
    <wptx1:Proximity>10.00000000</wptx1:Proximity>
   </wptx1:WaypointExtension>
  </extensions>
 </wpt>
 <wpt lat="51.04883333" lon="13.74178333">
  <ele>120</ele>
  <time>2020-07-30T03:52:45.702Z</time>
  <name>Wegpunkt 12 Hier</name>
  <sym>Flag, Blue</sym>
  <extensions>
   <ql:key>c44f64378ab5b7cc874f18874d0ea9f6</ql:key>
   <ql:flags>3</ql:flags>
   <ql:bubble yoff="-150" xoff="-320" width="300"/>
   <ql:history>
    <ql:event>
     <ql:icon>://icons/48x48/Start.png</ql:icon>
     <ql:time>2020-07-30T03:52:45.703Z</ql:time>
     <ql:comment>Erstversion.</ql:comment>
    </ql:event>
    <ql:event>
     <ql:icon>://icons/48x48/WptEditProx.png</ql:icon>
     <ql:time>2020-07-30T03:52:49.095Z</ql:time>
     <ql:comment>Abstandsalarm geändert</ql:comment>
    </ql:event>
   </ql:history>
   <wptx1:WaypointExtension>
    <wptx1:Proximity>10.00000000</wptx1:Proximity>
   </wptx1:WaypointExtension>
  </extensions>
 </wpt>
 <wpt lat="51.04358333" lon="13.74210000">
  <ele>117</ele>
  <time>2020-07-30T03:53:35.929Z</time>
  <name>Wegpunkt 13 Hier</name>
  <sym>Flag, Blue</sym>
  <extensions>
   <ql:key>b773d2bba9eee0171788f5c869a4ad56</ql:key>
   <ql:flags>3</ql:flags>
   <ql:bubble yoff="-150" xoff="-320" width="300"/>
   <ql:history>
    <ql:event>
     <ql:icon>://icons/48x48/Start.png</ql:icon>
     <ql:time>2020-07-30T03:53:35.930Z</ql:time>
     <ql:comment>Erstversion.</ql:comment>
    </ql:event>
    <ql:event>
     <ql:icon>://icons/48x48/WptEditProx.png</ql:icon>
     <ql:time>2020-07-30T03:53:39.673Z</ql:time>
     <ql:comment>Abstandsalarm geändert</ql:comment>
    </ql:event>
   </ql:history>
   <wptx1:WaypointExtension>
    <wptx1:Proximity>10.00000000</wptx1:Proximity>
   </wptx1:WaypointExtension>
  </extensions>
 </wpt>
 <wpt lat="51.03800000" lon="13.74886667">
  <ele>116</ele>
  <time>2020-07-30T14:50:49.225Z</time>
  <name>Wegpunkt 14 Rechts</name>
  <sym>Flag, Blue</sym>
  <extensions>
   <ql:key>f9643b5be15603d6516b2282b1f658f9</ql:key>
   <ql:flags>3</ql:flags>
   <ql:bubble yoff="-150" xoff="-320" width="300"/>
   <ql:history>
    <ql:event>
     <ql:icon>://icons/48x48/Start.png</ql:icon>
     <ql:time>2020-07-30T14:50:49.226Z</ql:time>
     <ql:comment>Erstversion.</ql:comment>
    </ql:event>
    <ql:event>
     <ql:icon>://icons/48x48/WptEditProx.png</ql:icon>
     <ql:time>2020-07-30T14:50:52.086Z</ql:time>
     <ql:comment>Abstandsalarm geändert</ql:comment>
    </ql:event>
   </ql:history>
   <wptx1:WaypointExtension>
    <wptx1:Proximity>10.00000000</wptx1:Proximity>
   </wptx1:WaypointExtension>
  </extensions>
 </wpt>
 <wpt lat="51.04050261" lon="13.75391456">
  <ele>121</ele>
  <time>2020-07-30T14:51:40.367Z</time>
  <name>Wegpunkt 15 Voraus</name>
  <sym>Flag, Blue</sym>
  <extensions>
   <ql:key>4d1b5d8cf0990664f76d6d194cc4db09</ql:key>
   <ql:flags>3</ql:flags>
   <ql:bubble yoff="-150" xoff="-320" width="300"/>
   <ql:history>
    <ql:event>
     <ql:icon>://icons/48x48/Start.png</ql:icon>
     <ql:time>2020-07-30T14:51:40.368Z</ql:time>
     <ql:comment>Erstversion.</ql:comment>
    </ql:event>
    <ql:event>
     <ql:icon>://icons/48x48/WptEditProx.png</ql:icon>
     <ql:time>2020-07-30T14:51:43.958Z</ql:time>
     <ql:comment>Abstandsalarm geändert</ql:comment>
    </ql:event>
    <ql:event>
     <ql:icon>://icons/48x48/WptMove.png</ql:icon>
     <ql:time>2020-07-30T14:51:54.307Z</ql:time>
     <ql:comment>Position geändert</ql:comment>
    </ql:event>
   </ql:history>
   <wptx1:WaypointExtension>
    <wptx1:Proximity>10.00000000</wptx1:Proximity>
   </wptx1:WaypointExtension>
  </extensions>
 </wpt>
 <trk>
  <name>Track</name>
  <extensions>
   <ql:key>d9fcc6d215d2e1c16bf7d5aaa70ce1e1</ql:key>
   <ql:flags>7</ql:flags>
   <ql:history>
    <ql:event>
     <ql:icon>://icons/48x48/Start.png</ql:icon>
     <ql:time>2020-06-29T05:23:42.867Z</ql:time>
     <ql:comment>Erstversion.</ql:comment>
    </ql:event>
    <ql:event>
     <ql:icon>://icons/48x48/ActFoot.png</ql:icon>
     <ql:time>2020-06-30T16:42:20.932Z</ql:time>
     <ql:comment>Die Aktivität wurde für den gesamten Track auf 'Fußgänger' geändert.</ql:comment>
    </ql:event>
    <ql:event>
     <ql:icon>://icons/48x48/LineMove.png</ql:icon>
     <ql:time>2020-07-30T03:52:06.681Z</ql:time>
     <ql:comment>Wegpunkte geändert, alle vorherigen Daten sind verloren.</ql:comment>
    </ql:event>
   </ql:history>
   <gpxx:TrackExtension>
    <gpxx:DisplayColor>DarkBlue</gpxx:DisplayColor>
   </gpxx:TrackExtension>
  </extensions>
  <trkseg>
   <trkpt lat="51.05650174" lon="13.71482138">
    <ele>116</ele>
    <extensions>
     <ql:flags>0</ql:flags>
    </extensions>
   </trkpt>
   <trkpt lat="51.05653640" lon="13.71471141">
    <ele>115</ele>
    <extensions>
     <ql:flags>0</ql:flags>
    </extensions>
   </trkpt>
   <trkpt lat="51.05754217" lon="13.71554960">
    <ele>116</ele>
    <extensions>
     <ql:flags>0</ql:flags>
    </extensions>
   </trkpt>
   <trkpt lat="51.05754375" lon="13.71555090">
    <ele>116</ele>
    <extensions>
     <ql:flags>8</ql:flags>
    </extensions>
   </trkpt>
   <trkpt lat="51.05741708" lon="13.71595730">
    <ele>116</ele>
    <extensions>
     <ql:flags>0</ql:flags>
    </extensions>
   </trkpt>
   <trkpt lat="51.05745792" lon="13.71600151">
    <ele>116</ele>
    <extensions>
     <ql:flags>8</ql:flags>
    </extensions>
   </trkpt>
   <trkpt lat="51.05752104" lon="13.71604447">
    <ele>116</ele>
    <extensions>
     <ql:flags>0</ql:flags>
    </extensions>
   </trkpt>
   <trkpt lat="51.05767148" lon="13.71617053">
    <ele>116</ele>
    <extensions>
     <ql:flags>0</ql:flags>
    </extensions>
   </trkpt>
   <trkpt lat="51.05769396" lon="13.71610880">
    <ele>116</ele>
    <extensions>
     <ql:flags>8</ql:flags>
    </extensions>
   </trkpt>
   <trkpt lat="51.05820894" lon="13.71651649">
    <ele>115</ele>
    <extensions>
     <ql:flags>8</ql:flags>
    </extensions>
   </trkpt>
   <trkpt lat="51.05848538" lon="13.71670831">
    <ele>115</ele>
    <extensions>
     <ql:flags>0</ql:flags>
    </extensions>
   </trkpt>
   <trkpt lat="51.05848792" lon="13.71670697">
    <ele>115</ele>
    <extensions>
     <ql:flags>0</ql:flags>
    </extensions>
   </trkpt>
   <trkpt lat="51.05848789" lon="13.71670961">
    <ele>115</ele>
    <extensions>
     <ql:flags>8</ql:flags>
    </extensions>
   </trkpt>
   <trkpt lat="51.05846643" lon="13.71677399">
    <ele>115</ele>
    <extensions>
     <ql:flags>8</ql:flags>
    </extensions>
   </trkpt>
   <trkpt lat="51.05859356" lon="13.71683974">
    <ele>114</ele>
    <extensions>
     <ql:flags>0</ql:flags>
    </extensions>
   </trkpt>
   <trkpt lat="51.05857372" lon="13.71694565">
    <ele>114</ele>
    <extensions>
     <ql:flags>8</ql:flags>
    </extensions>
   </trkpt>
   <trkpt lat="51.05853081" lon="13.71705294">
    <ele>115</ele>
    <extensions>
     <ql:flags>8</ql:flags>
    </extensions>
   </trkpt>
   <trkpt lat="51.05844735" lon="13.71732790">
    <ele>115</ele>
    <extensions>
     <ql:flags>0</ql:flags>
    </extensions>
   </trkpt>
   <trkpt lat="51.05859441" lon="13.71745933">
    <ele>115</ele>
    <extensions>
     <ql:flags>0</ql:flags>
    </extensions>
   </trkpt>
   <trkpt lat="51.05859518" lon="13.71746063">
    <ele>115</ele>
    <extensions>
     <ql:flags>8</ql:flags>
    </extensions>
   </trkpt>
   <trkpt lat="51.05859518" lon="13.71750355">
    <ele>115</ele>
    <extensions>
     <ql:flags>8</ql:flags>
    </extensions>
   </trkpt>
   <trkpt lat="51.05861664" lon="13.71756792">
    <ele>115</ele>
    <extensions>
     <ql:flags>8</ql:flags>
    </extensions>
   </trkpt>
   <trkpt lat="51.05863810" lon="13.71756792">
    <ele>115</ele>
    <extensions>
     <ql:flags>8</ql:flags>
    </extensions>
   </trkpt>
   <trkpt lat="51.05867723" lon="13.71752773">
    <ele>115</ele>
    <extensions>
     <ql:flags>0</ql:flags>
    </extensions>
   </trkpt>
   <trkpt lat="51.05908871" lon="13.71786833">
    <ele>115</ele>
    <extensions>
     <ql:flags>8</ql:flags>
    </extensions>
   </trkpt>
   <trkpt lat="51.05938632" lon="13.71810172">
    <ele>116</ele>
    <extensions>
     <ql:flags>0</ql:flags>
    </extensions>
   </trkpt>
   <trkpt lat="51.05939139" lon="13.71810306">
    <ele>116</ele>
    <extensions>
     <ql:flags>0</ql:flags>
    </extensions>
   </trkpt>
   <trkpt lat="51.05938911" lon="13.71810436">
    <ele>116</ele>
    <extensions>
     <ql:flags>8</ql:flags>
    </extensions>
   </trkpt>
   <trkpt lat="51.05936766" lon="13.71816874">
    <ele>116</ele>
    <extensions>
     <ql:flags>8</ql:flags>
    </extensions>
   </trkpt>
   <trkpt lat="51.05928183" lon="13.71849060">
    <ele>115</ele>
    <extensions>
     <ql:flags>8</ql:flags>
    </extensions>
   </trkpt>
   <trkpt lat="51.05923891" lon="13.71859789">
    <ele>115</ele>
    <extensions>
     <ql:flags>8</ql:flags>
    </extensions>
   </trkpt>
   <trkpt lat="51.05908871" lon="13.71906996">
    <ele>115</ele>
    <extensions>
     <ql:flags>8</ql:flags>
    </extensions>
   </trkpt>
   <trkpt lat="51.05898318" lon="13.71936907">
    <ele>115</ele>
    <extensions>
     <ql:flags>0</ql:flags>
    </extensions>
   </trkpt>
   <trkpt lat="51.05868399" lon="13.71911694">
    <ele>115</ele>
    <extensions>
     <ql:flags>0</ql:flags>
    </extensions>
   </trkpt>
   <trkpt lat="51.05898149" lon="13.71937175">
    <ele>115</ele>
    <extensions>
     <ql:flags>0</ql:flags>
    </extensions>
   </trkpt>
   <trkpt lat="51.05898142" lon="13.71937037">
    <ele>115</ele>
    <extensions>
     <ql:flags>8</ql:flags>
    </extensions>
   </trkpt>
   <trkpt lat="51.05908871" lon="13.71906996">
    <ele>115</ele>
    <extensions>
     <ql:flags>8</ql:flags>
    </extensions>
   </trkpt>
   <trkpt lat="51.05923891" lon="13.71859789">
    <ele>115</ele>
    <extensions>
     <ql:flags>8</ql:flags>
    </extensions>
   </trkpt>
   <trkpt lat="51.05928183" lon="13.71849060">
    <ele>115</ele>
    <extensions>
     <ql:flags>8</ql:flags>
    </extensions>
   </trkpt>
   <trkpt lat="51.05936766" lon="13.71816874">
    <ele>116</ele>
    <extensions>
     <ql:flags>8</ql:flags>
    </extensions>
   </trkpt>
   <trkpt lat="51.05938911" lon="13.71810436">
    <ele>116</ele>
    <extensions>
     <ql:flags>8</ql:flags>
    </extensions>
   </trkpt>
   <trkpt lat="51.05941057" lon="13.71803999">
    <ele>116</ele>
    <extensions>
     <ql:flags>8</ql:flags>
    </extensions>
   </trkpt>
   <trkpt lat="51.05947495" lon="13.71782541">
    <ele>116</ele>
    <extensions>
     <ql:flags>8</ql:flags>
    </extensions>
   </trkpt>
   <trkpt lat="51.05951786" lon="13.71773958">
    <ele>116</ele>
    <extensions>
     <ql:flags>8</ql:flags>
    </extensions>
   </trkpt>
   <trkpt lat="51.05955957" lon="13.71758942">
    <ele>115</ele>
    <extensions>
     <ql:flags>0</ql:flags>
    </extensions>
   </trkpt>
   <trkpt lat="51.05956078" lon="13.71758938">
    <ele>115</ele>
    <extensions>
     <ql:flags>8</ql:flags>
    </extensions>
   </trkpt>
   <trkpt lat="51.05958223" lon="13.71754646">
    <ele>115</ele>
    <extensions>
     <ql:flags>8</ql:flags>
    </extensions>
   </trkpt>
   <trkpt lat="51.05968952" lon="13.71733189">
    <ele>115</ele>
    <extensions>
     <ql:flags>8</ql:flags>
    </extensions>
   </trkpt>
   <trkpt lat="51.05971098" lon="13.71722460">
    <ele>114</ele>
    <extensions>
     <ql:flags>8</ql:flags>
    </extensions>
   </trkpt>
   <trkpt lat="51.05973244" lon="13.71716022">
    <ele>114</ele>
    <extensions>
     <ql:flags>8</ql:flags>
    </extensions>
   </trkpt>
   <trkpt lat="51.05977535" lon="13.71703148">
    <ele>114</ele>
    <extensions>
     <ql:flags>8</ql:flags>
    </extensions>
   </trkpt>
   <trkpt lat="51.05988264" lon="13.71709585">
    <ele>114</ele>
    <extensions>
     <ql:flags>8</ql:flags>
    </extensions>
   </trkpt>
   <trkpt lat="51.06017990" lon="13.71730913">
    <ele>114</ele>
    <extensions>
     <ql:flags>0</ql:flags>
    </extensions>
   </trkpt>
   <trkpt lat="51.06011868" lon="13.71748209">
    <ele>114</ele>
    <extensions>
     <ql:flags>8</ql:flags>
    </extensions>
   </trkpt>
   <trkpt lat="51.05990410" lon="13.71812582">
    <ele>115</ele>
    <extensions>
     <ql:flags>8</ql:flags>
    </extensions>
   </trkpt>
   <trkpt lat="51.05983973" lon="13.71836185">
    <ele>115</ele>
    <extensions>
     <ql:flags>8</ql:flags>
    </extensions>
   </trkpt>
   <trkpt lat="51.05977535" lon="13.71855497">
    <ele>115</ele>
    <extensions>
     <ql:flags>8</ql:flags>
    </extensions>
   </trkpt>
   <trkpt lat="51.05964661" lon="13.71891975">
    <ele>115</ele>
    <extensions>
     <ql:flags>8</ql:flags>
    </extensions>
   </trkpt>
   <trkpt lat="51.05956078" lon="13.71919870">
    <ele>114</ele>
    <extensions>
     <ql:flags>8</ql:flags>
    </extensions>
   </trkpt>
   <trkpt lat="51.05934620" lon="13.71986389">
    <ele>114</ele>
    <extensions>
     <ql:flags>8</ql:flags>
    </extensions>
   </trkpt>
   <trkpt lat="51.05917454" lon="13.72037888">
    <ele>113</ele>
    <extensions>
     <ql:flags>8</ql:flags>
    </extensions>
   </trkpt>
   <trkpt lat="51.05904579" lon="13.72082949">
    <ele>113</ele>
    <extensions>
     <ql:flags>8</ql:flags>
    </extensions>
   </trkpt>
   <trkpt lat="51.05900288" lon="13.72093678">
    <ele>113</ele>
    <extensions>
     <ql:flags>8</ql:flags>
    </extensions>
   </trkpt>
   <trkpt lat="51.05868101" lon="13.72196674">
    <ele>113</ele>
    <extensions>
     <ql:flags>8</ql:flags>
    </extensions>
   </trkpt>
   <trkpt lat="51.05863810" lon="13.72205257">
    <ele>113</ele>
    <extensions>
     <ql:flags>8</ql:flags>
    </extensions>
   </trkpt>
   <trkpt lat="51.05857372" lon="13.72222424">
    <ele>113</ele>
    <extensions>
     <ql:flags>8</ql:flags>
    </extensions>
   </trkpt>
   <trkpt lat="51.05844566" lon="13.72262795">
    <ele>113</ele>
    <extensions>
     <ql:flags>0</ql:flags>
    </extensions>
   </trkpt>
   <trkpt lat="51.05838060" lon="13.72282505">
    <ele>113</ele>
    <extensions>
     <ql:flags>8</ql:flags>
    </extensions>
   </trkpt>
   <trkpt lat="51.05833769" lon="13.72301817">
    <ele>113</ele>
    <extensions>
     <ql:flags>8</ql:flags>
    </extensions>
   </trkpt>
   <trkpt lat="51.05829477" lon="13.72310400">
    <ele>113</ele>
    <extensions>
     <ql:flags>8</ql:flags>
    </extensions>
   </trkpt>
   <trkpt lat="51.05797291" lon="13.72406960">
    <ele>114</ele>
    <extensions>
     <ql:flags>8</ql:flags>
    </extensions>
   </trkpt>
   <trkpt lat="51.05788700" lon="13.72430299">
    <ele>115</ele>
    <extensions>
     <ql:flags>0</ql:flags>
    </extensions>
   </trkpt>
   <trkpt lat="51.05775833" lon="13.72469187">
    <ele>116</ele>
    <extensions>
     <ql:flags>8</ql:flags>
    </extensions>
   </trkpt>
   <trkpt lat="51.05771796" lon="13.72481663">
    <ele>116</ele>
    <extensions>
     <ql:flags>0</ql:flags>
    </extensions>
   </trkpt>
   <trkpt lat="51.05782270" lon="13.72497082">
    <ele>117</ele>
    <extensions>
     <ql:flags>8</ql:flags>
    </extensions>
   </trkpt>
   <trkpt lat="51.05790854" lon="13.72507811">
    <ele>117</ele>
    <extensions>
     <ql:flags>8</ql:flags>
    </extensions>
   </trkpt>
   <trkpt lat="51.05797291" lon="13.72520685">
    <ele>117</ele>
    <extensions>
     <ql:flags>8</ql:flags>
    </extensions>
   </trkpt>
   <trkpt lat="51.05805874" lon="13.72531414">
    <ele>117</ele>
    <extensions>
     <ql:flags>8</ql:flags>
    </extensions>
   </trkpt>
   <trkpt lat="51.05805857" lon="13.72537856">
    <ele>117</ele>
    <extensions>
     <ql:flags>0</ql:flags>
    </extensions>
   </trkpt>
   <trkpt lat="51.05812311" lon="13.72544289">
    <ele>117</ele>
    <extensions>
     <ql:flags>8</ql:flags>
    </extensions>
   </trkpt>
   <trkpt lat="51.05829477" lon="13.72563601">
    <ele>116</ele>
    <extensions>
     <ql:flags>8</ql:flags>
    </extensions>
   </trkpt>
   <trkpt lat="51.05859518" lon="13.72595787">
    <ele>115</ele>
    <extensions>
     <ql:flags>8</ql:flags>
    </extensions>
   </trkpt>
   <trkpt lat="51.05872202" lon="13.72608666">
    <ele>115</ele>
    <extensions>
     <ql:flags>0</ql:flags>
    </extensions>
   </trkpt>
   <trkpt lat="51.05872287" lon="13.72608264">
    <ele>115</ele>
    <extensions>
     <ql:flags>0</ql:flags>
    </extensions>
   </trkpt>
   <trkpt lat="51.05885267" lon="13.72621536">
    <ele>115</ele>
    <extensions>
     <ql:flags>8</ql:flags>
    </extensions>
   </trkpt>
   <trkpt lat="51.05934620" lon="13.72673035">
    <ele>115</ele>
    <extensions>
     <ql:flags>8</ql:flags>
    </extensions>
   </trkpt>
   <trkpt lat="51.05938911" lon="13.72677326">
    <ele>115</ele>
    <extensions>
     <ql:flags>8</ql:flags>
    </extensions>
   </trkpt>
   <trkpt lat="51.05951786" lon="13.72690201">
    <ele>115</ele>
    <extensions>
     <ql:flags>8</ql:flags>
    </extensions>
   </trkpt>
   <trkpt lat="51.05960369" lon="13.72698784">
    <ele>115</ele>
    <extensions>
     <ql:flags>8</ql:flags>
    </extensions>
   </trkpt>
   <trkpt lat="51.05964661" lon="13.72703075">
    <ele>114</ele>
    <extensions>
     <ql:flags>8</ql:flags>
    </extensions>
   </trkpt>
   <trkpt lat="51.05971098" lon="13.72711658">
    <ele>114</ele>
    <extensions>
     <ql:flags>8</ql:flags>
    </extensions>
   </trkpt>
   <trkpt lat="51.05994701" lon="13.72735262">
    <ele>112</ele>
    <extensions>
     <ql:flags>8</ql:flags>
    </extensions>
   </trkpt>
   <trkpt lat="51.06007510" lon="13.72750286">
    <ele>111</ele>
    <extensions>
     <ql:flags>0</ql:flags>
    </extensions>
   </trkpt>
   <trkpt lat="51.06014018" lon="13.72763027">
    <ele>111</ele>
    <extensions>
     <ql:flags>0</ql:flags>
    </extensions>
   </trkpt>
   <trkpt lat="51.06016159" lon="13.72769594">
    <ele>111</ele>
    <extensions>
     <ql:flags>8</ql:flags>
    </extensions>
   </trkpt>
   <trkpt lat="51.06020356" lon="13.72788642">
    <ele>111</ele>
    <extensions>
     <ql:flags>0</ql:flags>
    </extensions>
   </trkpt>
   <trkpt lat="51.06020441" lon="13.72818415">
    <ele>111</ele>
    <extensions>
     <ql:flags>0</ql:flags>
    </extensions>
   </trkpt>
   <trkpt lat="51.06011868" lon="13.72853279">
    <ele>112</ele>
    <extensions>
     <ql:flags>8</ql:flags>
    </extensions>
   </trkpt>
   <trkpt lat="51.06009722" lon="13.72857571">
    <ele>112</ele>
    <extensions>
     <ql:flags>8</ql:flags>
    </extensions>
   </trkpt>
   <trkpt lat="51.06001139" lon="13.72883320">
    <ele>112</ele>
    <extensions>
     <ql:flags>8</ql:flags>
    </extensions>
   </trkpt>
   <trkpt lat="51.05988264" lon="13.72913361">
    <ele>113</ele>
    <extensions>
     <ql:flags>8</ql:flags>
    </extensions>
   </trkpt>
   <trkpt lat="51.05981827" lon="13.72928381">
    <ele>113</ele>
    <extensions>
     <ql:flags>8</ql:flags>
    </extensions>
   </trkpt>
   <trkpt lat="51.05968952" lon="13.72949839">
    <ele>114</ele>
    <extensions>
     <ql:flags>8</ql:flags>
    </extensions>
   </trkpt>
   <trkpt lat="51.05964915" lon="13.72954268">
    <ele>114</ele>
    <extensions>
     <ql:flags>0</ql:flags>
    </extensions>
   </trkpt>
   <trkpt lat="51.05971098" lon="13.72962713">
    <ele>113</ele>
    <extensions>
     <ql:flags>8</ql:flags>
    </extensions>
   </trkpt>
   <trkpt lat="51.05973244" lon="13.72964859">
    <ele>113</ele>
    <extensions>
     <ql:flags>8</ql:flags>
    </extensions>
   </trkpt>
   <trkpt lat="51.05996847" lon="13.73001337">
    <ele>111</ele>
    <extensions>
     <ql:flags>8</ql:flags>
    </extensions>
   </trkpt>
   <trkpt lat="51.06014018" lon="13.73031114">
    <ele>110</ele>
    <extensions>
     <ql:flags>0</ql:flags>
    </extensions>
   </trkpt>
   <trkpt lat="51.05956210" lon="13.73172600">
    <ele>109</ele>
    <extensions>
     <ql:flags>0</ql:flags>
    </extensions>
   </trkpt>
   <trkpt lat="51.05956078" lon="13.73172998">
    <ele>109</ele>
    <extensions>
     <ql:flags>8</ql:flags>
    </extensions>
   </trkpt>
   <trkpt lat="51.05834254" lon="13.73262857">
    <ele>106</ele>
    <extensions>
     <ql:flags>0</ql:flags>
    </extensions>
   </trkpt>
   <trkpt lat="51.05829477" lon="13.73267412">
    <ele>106</ele>
    <extensions>
     <ql:flags>8</ql:flags>
    </extensions>
   </trkpt>
   <trkpt lat="51.05812871" lon="13.73282303">
    <ele>105</ele>
    <extensions>
     <ql:flags>0</ql:flags>
    </extensions>
   </trkpt>
   <trkpt lat="51.05752230" lon="13.73342514">
    <ele>108</ele>
    <extensions>
     <ql:flags>8</ql:flags>
    </extensions>
   </trkpt>
   <trkpt lat="51.05653524" lon="13.73449802">
    <ele>110</ele>
    <extensions>
     <ql:flags>8</ql:flags>
    </extensions>
   </trkpt>
   <trkpt lat="51.05649233" lon="13.73456240">
    <ele>110</ele>
    <extensions>
     <ql:flags>8</ql:flags>
    </extensions>
   </trkpt>
   <trkpt lat="51.05636358" lon="13.73471260">
    <ele>110</ele>
    <extensions>
     <ql:flags>8</ql:flags>
    </extensions>
   </trkpt>
   <trkpt lat="51.05614901" lon="13.73497009">
    <ele>110</ele>
    <extensions>
     <ql:flags>8</ql:flags>
    </extensions>
   </trkpt>
   <trkpt lat="51.05606391" lon="13.73510022">
    <ele>110</ele>
    <extensions>
     <ql:flags>0</ql:flags>
    </extensions>
   </trkpt>
   <trkpt lat="51.05597734" lon="13.73524904">
    <ele>110</ele>
    <extensions>
     <ql:flags>8</ql:flags>
    </extensions>
   </trkpt>
   <trkpt lat="51.05567694" lon="13.73563528">
    <ele>112</ele>
    <extensions>
     <ql:flags>8</ql:flags>
    </extensions>
   </trkpt>
   <trkpt lat="51.05556965" lon="13.73561382">
    <ele>113</ele>
    <extensions>
     <ql:flags>8</ql:flags>
    </extensions>
   </trkpt>
   <trkpt lat="51.05552673" lon="13.73552799">
    <ele>114</ele>
    <extensions>
     <ql:flags>8</ql:flags>
    </extensions>
   </trkpt>
   <trkpt lat="51.05548382" lon="13.73546362">
    <ele>114</ele>
    <extensions>
     <ql:flags>8</ql:flags>
    </extensions>
   </trkpt>
   <trkpt lat="51.05546297" lon="13.73540599">
    <ele>115</ele>
    <extensions>
     <ql:flags>0</ql:flags>
    </extensions>
   </trkpt>
   <trkpt lat="51.05526924" lon="13.73565674">
    <ele>116</ele>
    <extensions>
     <ql:flags>8</ql:flags>
    </extensions>
   </trkpt>
   <trkpt lat="51.05507612" lon="13.73600006">
    <ele>115</ele>
    <extensions>
     <ql:flags>8</ql:flags>
    </extensions>
   </trkpt>
   <trkpt lat="51.05503321" lon="13.73606443">
    <ele>115</ele>
    <extensions>
     <ql:flags>8</ql:flags>
    </extensions>
   </trkpt>
   <trkpt lat="51.05496883" lon="13.73608589">
    <ele>115</ele>
    <extensions>
     <ql:flags>8</ql:flags>
    </extensions>
   </trkpt>
   <trkpt lat="51.05468988" lon="13.73608589">
    <ele>116</ele>
    <extensions>
     <ql:flags>8</ql:flags>
    </extensions>
   </trkpt>
   <trkpt lat="51.05465324" lon="13.73612348">
    <ele>116</ele>
    <extensions>
     <ql:flags>0</ql:flags>
    </extensions>
   </trkpt>
   <trkpt lat="51.05464697" lon="13.73615026">
    <ele>116</ele>
    <extensions>
     <ql:flags>8</ql:flags>
    </extensions>
   </trkpt>
   <trkpt lat="51.05453968" lon="13.73625755">
    <ele>115</ele>
    <extensions>
     <ql:flags>8</ql:flags>
    </extensions>
   </trkpt>
   <trkpt lat="51.05447658" lon="13.73634074">
    <ele>115</ele>
    <extensions>
     <ql:flags>0</ql:flags>
    </extensions>
   </trkpt>
   <trkpt lat="51.05413198" lon="13.73715878">
    <ele>119</ele>
    <extensions>
     <ql:flags>8</ql:flags>
    </extensions>
   </trkpt>
   <trkpt lat="51.05413172" lon="13.73716016">
    <ele>119</ele>
    <extensions>
     <ql:flags>0</ql:flags>
    </extensions>
   </trkpt>
   <trkpt lat="51.05413198" lon="13.73715878">
    <ele>119</ele>
    <extensions>
     <ql:flags>8</ql:flags>
    </extensions>
   </trkpt>
   <trkpt lat="51.05396098" lon="13.73648156">
    <ele>118</ele>
    <extensions>
     <ql:flags>0</ql:flags>
    </extensions>
   </trkpt>
   <trkpt lat="51.05393887" lon="13.73640776">
    <ele>118</ele>
    <extensions>
     <ql:flags>8</ql:flags>
    </extensions>
   </trkpt>
   <trkpt lat="51.05391741" lon="13.73636484">
    <ele>118</ele>
    <extensions>
     <ql:flags>8</ql:flags>
    </extensions>
   </trkpt>
   <trkpt lat="51.05381560" lon="13.73605509">
    <ele>117</ele>
    <extensions>
     <ql:flags>0</ql:flags>
    </extensions>
   </trkpt>
   <trkpt lat="51.05380884" lon="13.73604034">
    <ele>117</ele>
    <extensions>
     <ql:flags>0</ql:flags>
    </extensions>
   </trkpt>
   <trkpt lat="51.05376720" lon="13.73602152">
    <ele>117</ele>
    <extensions>
     <ql:flags>8</ql:flags>
    </extensions>
   </trkpt>
   <trkpt lat="51.05372429" lon="13.73593569">
    <ele>117</ele>
    <extensions>
     <ql:flags>8</ql:flags>
    </extensions>
   </trkpt>
   <trkpt lat="51.05372516" lon="13.73587404">
    <ele>117</ele>
    <extensions>
     <ql:flags>0</ql:flags>
    </extensions>
   </trkpt>
   <trkpt lat="51.05359753" lon="13.73554815">
    <ele>116</ele>
    <extensions>
     <ql:flags>0</ql:flags>
    </extensions>
   </trkpt>
   <trkpt lat="51.05359922" lon="13.73554547">
    <ele>116</ele>
    <extensions>
     <ql:flags>0</ql:flags>
    </extensions>
   </trkpt>
   <trkpt lat="51.05353075" lon="13.73542343">
    <ele>116</ele>
    <extensions>
     <ql:flags>0</ql:flags>
    </extensions>
   </trkpt>
   <trkpt lat="51.05344534" lon="13.73552799">
    <ele>117</ele>
    <extensions>
     <ql:flags>8</ql:flags>
    </extensions>
   </trkpt>
   <trkpt lat="51.05340396" lon="13.73558972">
    <ele>117</ele>
    <extensions>
     <ql:flags>0</ql:flags>
    </extensions>
   </trkpt>
   <trkpt lat="51.05335916" lon="13.73546366">
    <ele>117</ele>
    <extensions>
     <ql:flags>0</ql:flags>
    </extensions>
   </trkpt>
   <trkpt lat="51.05335951" lon="13.73546362">
    <ele>117</ele>
    <extensions>
     <ql:flags>8</ql:flags>
    </extensions>
   </trkpt>
   <trkpt lat="51.05338097" lon="13.73542070">
    <ele>116</ele>
    <extensions>
     <ql:flags>8</ql:flags>
    </extensions>
   </trkpt>
   <trkpt lat="51.05340242" lon="13.73533487">
    <ele>116</ele>
    <extensions>
     <ql:flags>8</ql:flags>
    </extensions>
   </trkpt>
   <trkpt lat="51.05340242" lon="13.73531342">
    <ele>116</ele>
    <extensions>
     <ql:flags>8</ql:flags>
    </extensions>
   </trkpt>
   <trkpt lat="51.05338097" lon="13.73527050">
    <ele>117</ele>
    <extensions>
     <ql:flags>8</ql:flags>
    </extensions>
   </trkpt>
   <trkpt lat="51.05344534" lon="13.73520613">
    <ele>117</ele>
    <extensions>
     <ql:flags>8</ql:flags>
    </extensions>
   </trkpt>
   <trkpt lat="51.05353117" lon="13.73509884">
    <ele>117</ele>
    <extensions>
     <ql:flags>8</ql:flags>
    </extensions>
   </trkpt>
   <trkpt lat="51.05363846" lon="13.73501301">
    <ele>117</ele>
    <extensions>
     <ql:flags>8</ql:flags>
    </extensions>
   </trkpt>
   <trkpt lat="51.05368036" lon="13.73495270">
    <ele>117</ele>
    <extensions>
     <ql:flags>0</ql:flags>
    </extensions>
   </trkpt>
   <trkpt lat="51.05368137" lon="13.73484135">
    <ele>117</ele>
    <extensions>
     <ql:flags>8</ql:flags>
    </extensions>
   </trkpt>
   <trkpt lat="51.05370283" lon="13.73477697">
    <ele>117</ele>
    <extensions>
     <ql:flags>8</ql:flags>
    </extensions>
   </trkpt>
   <trkpt lat="51.05372429" lon="13.73475552">
    <ele>117</ele>
    <extensions>
     <ql:flags>8</ql:flags>
    </extensions>
   </trkpt>
   <trkpt lat="51.05372600" lon="13.73475690">
    <ele>117</ele>
    <extensions>
     <ql:flags>0</ql:flags>
    </extensions>
   </trkpt>
   <trkpt lat="51.05368459" lon="13.73467375">
    <ele>118</ele>
    <extensions>
     <ql:flags>0</ql:flags>
    </extensions>
   </trkpt>
   <trkpt lat="51.05383158" lon="13.73451948">
    <ele>118</ele>
    <extensions>
     <ql:flags>8</ql:flags>
    </extensions>
   </trkpt>
   <trkpt lat="51.05391741" lon="13.73443365">
    <ele>118</ele>
    <extensions>
     <ql:flags>8</ql:flags>
    </extensions>
   </trkpt>
   <trkpt lat="51.05396032" lon="13.73439074">
    <ele>118</ele>
    <extensions>
     <ql:flags>8</ql:flags>
    </extensions>
   </trkpt>
   <trkpt lat="51.05402470" lon="13.73432636">
    <ele>118</ele>
    <extensions>
     <ql:flags>8</ql:flags>
    </extensions>
   </trkpt>
   <trkpt lat="51.05406761" lon="13.73428345">
    <ele>118</ele>
    <extensions>
     <ql:flags>8</ql:flags>
    </extensions>
   </trkpt>
   <trkpt lat="51.05411059" lon="13.73424057">
    <ele>118</ele>
    <extensions>
     <ql:flags>0</ql:flags>
    </extensions>
   </trkpt>
   <trkpt lat="51.05413172" lon="13.73422180">
    <ele>118</ele>
    <extensions>
     <ql:flags>0</ql:flags>
    </extensions>
   </trkpt>
   <trkpt lat="51.05415370" lon="13.73419766">
    <ele>118</ele>
    <extensions>
     <ql:flags>0</ql:flags>
    </extensions>
   </trkpt>
   <trkpt lat="51.05415539" lon="13.73419498">
    <ele>118</ele>
    <extensions>
     <ql:flags>0</ql:flags>
    </extensions>
   </trkpt>
   <trkpt lat="51.05413198" lon="13.73400450">
    <ele>117</ele>
    <extensions>
     <ql:flags>8</ql:flags>
    </extensions>
   </trkpt>
   <trkpt lat="51.05413198" lon="13.73378992">
    <ele>117</ele>
    <extensions>
     <ql:flags>8</ql:flags>
    </extensions>
   </trkpt>
   <trkpt lat="51.05411053" lon="13.73370409">
    <ele>116</ele>
    <extensions>
     <ql:flags>8</ql:flags>
    </extensions>
   </trkpt>
   <trkpt lat="51.05406761" lon="13.73363972">
    <ele>116</ele>
    <extensions>
     <ql:flags>8</ql:flags>
    </extensions>
   </trkpt>
   <trkpt lat="51.05404615" lon="13.73359680">
    <ele>116</ele>
    <extensions>
     <ql:flags>8</ql:flags>
    </extensions>
   </trkpt>
   <trkpt lat="51.05404297" lon="13.73359684">
    <ele>116</ele>
    <extensions>
     <ql:flags>0</ql:flags>
    </extensions>
   </trkpt>
   <trkpt lat="51.05398803" lon="13.73361562">
    <ele>116</ele>
    <extensions>
     <ql:flags>0</ql:flags>
    </extensions>
   </trkpt>
   <trkpt lat="51.05396032" lon="13.73361826">
    <ele>116</ele>
    <extensions>
     <ql:flags>8</ql:flags>
    </extensions>
   </trkpt>
   <trkpt lat="51.05393887" lon="13.73363972">
    <ele>116</ele>
    <extensions>
     <ql:flags>8</ql:flags>
    </extensions>
   </trkpt>
   <trkpt lat="51.05393887" lon="13.73372555">
    <ele>117</ele>
    <extensions>
     <ql:flags>8</ql:flags>
    </extensions>
   </trkpt>
   <trkpt lat="51.05391703" lon="13.73372291">
    <ele>117</ele>
    <extensions>
     <ql:flags>0</ql:flags>
    </extensions>
   </trkpt>
   <trkpt lat="51.05387730" lon="13.73372559">
    <ele>117</ele>
    <extensions>
     <ql:flags>0</ql:flags>
    </extensions>
   </trkpt>
   <trkpt lat="51.05387449" lon="13.73372555">
    <ele>117</ele>
    <extensions>
     <ql:flags>8</ql:flags>
    </extensions>
   </trkpt>
   <trkpt lat="51.05383166" lon="13.73362232">
    <ele>116</ele>
    <extensions>
     <ql:flags>0</ql:flags>
    </extensions>
   </trkpt>
   <trkpt lat="51.05385303" lon="13.73357534">
    <ele>116</ele>
    <extensions>
     <ql:flags>8</ql:flags>
    </extensions>
   </trkpt>
   <trkpt lat="51.05385194" lon="13.73355259">
    <ele>116</ele>
    <extensions>
     <ql:flags>0</ql:flags>
    </extensions>
   </trkpt>
   <trkpt lat="51.05385303" lon="13.73353243">
    <ele>116</ele>
    <extensions>
     <ql:flags>8</ql:flags>
    </extensions>
   </trkpt>
   <trkpt lat="51.05387449" lon="13.73351097">
    <ele>116</ele>
    <extensions>
     <ql:flags>8</ql:flags>
    </extensions>
   </trkpt>
   <trkpt lat="51.05391741" lon="13.73355389">
    <ele>116</ele>
    <extensions>
     <ql:flags>8</ql:flags>
    </extensions>
   </trkpt>
   <trkpt lat="51.05393887" lon="13.73353243">
    <ele>116</ele>
    <extensions>
     <ql:flags>8</ql:flags>
    </extensions>
   </trkpt>
   <trkpt lat="51.05393985" lon="13.73349358">
    <ele>116</ele>
    <extensions>
     <ql:flags>0</ql:flags>
    </extensions>
   </trkpt>
   <trkpt lat="51.05398178" lon="13.73342514">
    <ele>115</ele>
    <extensions>
     <ql:flags>8</ql:flags>
    </extensions>
   </trkpt>
   <trkpt lat="51.05398296" lon="13.73342250">
    <ele>115</ele>
    <extensions>
     <ql:flags>0</ql:flags>
    </extensions>
   </trkpt>
   <trkpt lat="51.05398380" lon="13.73342250">
    <ele>115</ele>
    <extensions>
     <ql:flags>0</ql:flags>
    </extensions>
   </trkpt>
   <trkpt lat="51.05393887" lon="13.73331785">
    <ele>115</ele>
    <extensions>
     <ql:flags>8</ql:flags>
    </extensions>
   </trkpt>
   <trkpt lat="51.05391741" lon="13.73325348">
    <ele>115</ele>
    <extensions>
     <ql:flags>8</ql:flags>
    </extensions>
   </trkpt>
   <trkpt lat="51.05391741" lon="13.73308182">
    <ele>114</ele>
    <extensions>
     <ql:flags>8</ql:flags>
    </extensions>
   </trkpt>
   <trkpt lat="51.05387449" lon="13.73291016">
    <ele>113</ele>
    <extensions>
     <ql:flags>8</ql:flags>
    </extensions>
   </trkpt>
   <trkpt lat="51.05383504" lon="13.73295043">
    <ele>113</ele>
    <extensions>
     <ql:flags>0</ql:flags>
    </extensions>
   </trkpt>
   <trkpt lat="51.05381012" lon="13.73288870">
    <ele>113</ele>
    <extensions>
     <ql:flags>8</ql:flags>
    </extensions>
   </trkpt>
   <trkpt lat="51.05376911" lon="13.73282437">
    <ele>113</ele>
    <extensions>
     <ql:flags>0</ql:flags>
    </extensions>
   </trkpt>
   <trkpt lat="51.05374713" lon="13.73284314">
    <ele>113</ele>
    <extensions>
     <ql:flags>0</ql:flags>
    </extensions>
   </trkpt>
   <trkpt lat="51.05378940" lon="13.73293166">
    <ele>113</ele>
    <extensions>
     <ql:flags>0</ql:flags>
    </extensions>
   </trkpt>
   <trkpt lat="51.05380968" lon="13.73297189">
    <ele>113</ele>
    <extensions>
     <ql:flags>0</ql:flags>
    </extensions>
   </trkpt>
   <trkpt lat="51.05376826" lon="13.73301749">
    <ele>114</ele>
    <extensions>
     <ql:flags>0</ql:flags>
    </extensions>
   </trkpt>
   <trkpt lat="51.05378866" lon="13.73308182">
    <ele>114</ele>
    <extensions>
     <ql:flags>8</ql:flags>
    </extensions>
   </trkpt>
   <trkpt lat="51.05376720" lon="13.73310328">
    <ele>114</ele>
    <extensions>
     <ql:flags>8</ql:flags>
    </extensions>
   </trkpt>
   <trkpt lat="51.05374575" lon="13.73310328">
    <ele>114</ele>
    <extensions>
     <ql:flags>8</ql:flags>
    </extensions>
   </trkpt>
   <trkpt lat="51.05370656" lon="13.73306308">
    <ele>114</ele>
    <extensions>
     <ql:flags>0</ql:flags>
    </extensions>
   </trkpt>
   <trkpt lat="51.05368458" lon="13.73310198">
    <ele>114</ele>
    <extensions>
     <ql:flags>0</ql:flags>
    </extensions>
   </trkpt>
   <trkpt lat="51.05366092" lon="13.73312343">
    <ele>114</ele>
    <extensions>
     <ql:flags>0</ql:flags>
    </extensions>
   </trkpt>
   <trkpt lat="51.05331659" lon="13.73346806">
    <ele>115</ele>
    <extensions>
     <ql:flags>8</ql:flags>
    </extensions>
   </trkpt>
   <trkpt lat="51.05299473" lon="13.73376846">
    <ele>116</ele>
    <extensions>
     <ql:flags>8</ql:flags>
    </extensions>
   </trkpt>
   <trkpt lat="51.05269432" lon="13.73406887">
    <ele>116</ele>
    <extensions>
     <ql:flags>8</ql:flags>
    </extensions>
   </trkpt>
   <trkpt lat="51.05226517" lon="13.73447657">
    <ele>114</ele>
    <extensions>
     <ql:flags>8</ql:flags>
    </extensions>
   </trkpt>
   <trkpt lat="51.05224371" lon="13.73449802">
    <ele>114</ele>
    <extensions>
     <ql:flags>8</ql:flags>
    </extensions>
   </trkpt>
   <trkpt lat="51.05215788" lon="13.73458385">
    <ele>113</ele>
    <extensions>
     <ql:flags>8</ql:flags>
    </extensions>
   </trkpt>
   <trkpt lat="51.05207266" lon="13.73467241">
    <ele>113</ele>
    <extensions>
     <ql:flags>0</ql:flags>
    </extensions>
   </trkpt>
   <trkpt lat="51.05186387" lon="13.73473410">
    <ele>114</ele>
    <extensions>
     <ql:flags>0</ql:flags>
    </extensions>
   </trkpt>
   <trkpt lat="51.05207012" lon="13.73474349">
    <ele>114</ele>
    <extensions>
     <ql:flags>0</ql:flags>
    </extensions>
   </trkpt>
   <trkpt lat="51.05232709" lon="13.73513777">
    <ele>116</ele>
    <extensions>
     <ql:flags>0</ql:flags>
    </extensions>
   </trkpt>
   <trkpt lat="51.05232954" lon="13.73514175">
    <ele>116</ele>
    <extensions>
     <ql:flags>8</ql:flags>
    </extensions>
   </trkpt>
   <trkpt lat="51.05228662" lon="13.73544216">
    <ele>117</ele>
    <extensions>
     <ql:flags>8</ql:flags>
    </extensions>
   </trkpt>
   <trkpt lat="51.05222225" lon="13.73587132">
    <ele>118</ele>
    <extensions>
     <ql:flags>8</ql:flags>
    </extensions>
   </trkpt>
   <trkpt lat="51.05202913" lon="13.73672962">
    <ele>117</ele>
    <extensions>
     <ql:flags>8</ql:flags>
    </extensions>
   </trkpt>
   <trkpt lat="51.05188078" lon="13.73754103">
    <ele>116</ele>
    <extensions>
     <ql:flags>0</ql:flags>
    </extensions>
   </trkpt>
   <trkpt lat="51.05188078" lon="13.73754371">
    <ele>116</ele>
    <extensions>
     <ql:flags>0</ql:flags>
    </extensions>
   </trkpt>
   <trkpt lat="51.05177164" lon="13.73840332">
    <ele>116</ele>
    <extensions>
     <ql:flags>8</ql:flags>
    </extensions>
   </trkpt>
   <trkpt lat="51.05173032" lon="13.73910744">
    <ele>115</ele>
    <extensions>
     <ql:flags>0</ql:flags>
    </extensions>
   </trkpt>
   <trkpt lat="51.05164289" lon="13.73932600">
    <ele>114</ele>
    <extensions>
     <ql:flags>8</ql:flags>
    </extensions>
   </trkpt>
   <trkpt lat="51.05172863" lon="13.74001135">
    <ele>114</ele>
    <extensions>
     <ql:flags>0</ql:flags>
    </extensions>
   </trkpt>
   <trkpt lat="51.05172873" lon="13.74016285">
    <ele>113</ele>
    <extensions>
     <ql:flags>8</ql:flags>
    </extensions>
   </trkpt>
   <trkpt lat="51.05172863" lon="13.74050219">
    <ele>113</ele>
    <extensions>
     <ql:flags>0</ql:flags>
    </extensions>
   </trkpt>
   <trkpt lat="51.05173116" lon="13.74104131">
    <ele>115</ele>
    <extensions>
     <ql:flags>0</ql:flags>
    </extensions>
   </trkpt>
   <trkpt lat="51.05226453" lon="13.74125589">
    <ele>116</ele>
    <extensions>
     <ql:flags>0</ql:flags>
    </extensions>
   </trkpt>
   <trkpt lat="51.05226791" lon="13.74125321">
    <ele>116</ele>
    <extensions>
     <ql:flags>0</ql:flags>
    </extensions>
   </trkpt>
   <trkpt lat="51.05241584" lon="13.74121432">
    <ele>116</ele>
    <extensions>
     <ql:flags>0</ql:flags>
    </extensions>
   </trkpt>
   <trkpt lat="51.05273724" lon="13.74127865">
    <ele>117</ele>
    <extensions>
     <ql:flags>8</ql:flags>
    </extensions>
   </trkpt>
   <trkpt lat="51.05312347" lon="13.74130011">
    <ele>117</ele>
    <extensions>
     <ql:flags>8</ql:flags>
    </extensions>
   </trkpt>
   <trkpt lat="51.05318757" lon="13.74130015">
    <ele>116</ele>
    <extensions>
     <ql:flags>0</ql:flags>
    </extensions>
   </trkpt>
   <trkpt lat="51.05318841" lon="13.74138196">
    <ele>117</ele>
    <extensions>
     <ql:flags>0</ql:flags>
    </extensions>
   </trkpt>
   <trkpt lat="51.05318785" lon="13.74142885">
    <ele>117</ele>
    <extensions>
     <ql:flags>8</ql:flags>
    </extensions>
   </trkpt>
   <trkpt lat="51.05325222" lon="13.74145031">
    <ele>117</ele>
    <extensions>
     <ql:flags>8</ql:flags>
    </extensions>
   </trkpt>
   <trkpt lat="51.05325350" lon="13.74134306">
    <ele>116</ele>
    <extensions>
     <ql:flags>0</ql:flags>
    </extensions>
   </trkpt>
   <trkpt lat="51.05325222" lon="13.74132156">
    <ele>116</ele>
    <extensions>
     <ql:flags>8</ql:flags>
    </extensions>
   </trkpt>
   <trkpt lat="51.05331689" lon="13.74132026">
    <ele>116</ele>
    <extensions>
     <ql:flags>0</ql:flags>
    </extensions>
   </trkpt>
   <trkpt lat="51.05316639" lon="13.74338150">
    <ele>121</ele>
    <extensions>
     <ql:flags>8</ql:flags>
    </extensions>
   </trkpt>
   <trkpt lat="51.05318672" lon="13.74352772">
    <ele>120</ele>
    <extensions>
     <ql:flags>0</ql:flags>
    </extensions>
   </trkpt>
   <trkpt lat="51.05316728" lon="13.74428411">
    <ele>119</ele>
    <extensions>
     <ql:flags>0</ql:flags>
    </extensions>
   </trkpt>
   <trkpt lat="51.05314530" lon="13.74437262">
    <ele>119</ele>
    <extensions>
     <ql:flags>0</ql:flags>
    </extensions>
   </trkpt>
   <trkpt lat="51.05314493" lon="13.74436855">
    <ele>119</ele>
    <extensions>
     <ql:flags>8</ql:flags>
    </extensions>
   </trkpt>
   <trkpt lat="51.05312347" lon="13.74436855">
    <ele>120</ele>
    <extensions>
     <ql:flags>8</ql:flags>
    </extensions>
   </trkpt>
   <trkpt lat="51.05312347" lon="13.74439001">
    <ele>119</ele>
    <extensions>
     <ql:flags>8</ql:flags>
    </extensions>
   </trkpt>
   <trkpt lat="51.05310202" lon="13.74441147">
    <ele>120</ele>
    <extensions>
     <ql:flags>8</ql:flags>
    </extensions>
   </trkpt>
   <trkpt lat="51.05305910" lon="13.74441147">
    <ele>120</ele>
    <extensions>
     <ql:flags>8</ql:flags>
    </extensions>
   </trkpt>
   <trkpt lat="51.05303764" lon="13.74436855">
    <ele>120</ele>
    <extensions>
     <ql:flags>8</ql:flags>
    </extensions>
   </trkpt>
   <trkpt lat="51.05303764" lon="13.74434710">
    <ele>120</ele>
    <extensions>
     <ql:flags>8</ql:flags>
    </extensions>
   </trkpt>
   <trkpt lat="51.05299473" lon="13.74434710">
    <ele>121</ele>
    <extensions>
     <ql:flags>8</ql:flags>
    </extensions>
   </trkpt>
   <trkpt lat="51.05299316" lon="13.74440346">
    <ele>121</ele>
    <extensions>
     <ql:flags>0</ql:flags>
    </extensions>
   </trkpt>
   <trkpt lat="51.05299485" lon="13.74440749">
    <ele>121</ele>
    <extensions>
     <ql:flags>0</ql:flags>
    </extensions>
   </trkpt>
   <trkpt lat="51.05303764" lon="13.74447584">
    <ele>120</ele>
    <extensions>
     <ql:flags>8</ql:flags>
    </extensions>
   </trkpt>
   <trkpt lat="51.05305910" lon="13.74454021">
    <ele>120</ele>
    <extensions>
     <ql:flags>8</ql:flags>
    </extensions>
   </trkpt>
   <trkpt lat="51.05308056" lon="13.74462605">
    <ele>119</ele>
    <extensions>
     <ql:flags>8</ql:flags>
    </extensions>
   </trkpt>
   <trkpt lat="51.05310202" lon="13.74473333">
    <ele>119</ele>
    <extensions>
     <ql:flags>8</ql:flags>
    </extensions>
   </trkpt>
   <trkpt lat="51.05310202" lon="13.74479771">
    <ele>119</ele>
    <extensions>
     <ql:flags>8</ql:flags>
    </extensions>
   </trkpt>
   <trkpt lat="51.05308275" lon="13.74486078">
    <ele>118</ele>
    <extensions>
     <ql:flags>0</ql:flags>
    </extensions>
   </trkpt>
   <trkpt lat="51.05327368" lon="13.74490499">
    <ele>117</ele>
    <extensions>
     <ql:flags>8</ql:flags>
    </extensions>
   </trkpt>
   <trkpt lat="51.05325222" lon="13.74516249">
    <ele>116</ele>
    <extensions>
     <ql:flags>8</ql:flags>
    </extensions>
   </trkpt>
   <trkpt lat="51.05323076" lon="13.74526978">
    <ele>116</ele>
    <extensions>
     <ql:flags>8</ql:flags>
    </extensions>
   </trkpt>
   <trkpt lat="51.05314493" lon="13.74535561">
    <ele>116</ele>
    <extensions>
     <ql:flags>8</ql:flags>
    </extensions>
   </trkpt>
   <trkpt lat="51.05318672" lon="13.74539856">
    <ele>116</ele>
    <extensions>
     <ql:flags>0</ql:flags>
    </extensions>
   </trkpt>
   <trkpt lat="51.05320930" lon="13.74541998">
    <ele>116</ele>
    <extensions>
     <ql:flags>8</ql:flags>
    </extensions>
   </trkpt>
   <trkpt lat="51.05322983" lon="13.74544014">
    <ele>115</ele>
    <extensions>
     <ql:flags>0</ql:flags>
    </extensions>
   </trkpt>
   <trkpt lat="51.05327209" lon="13.74546160">
    <ele>115</ele>
    <extensions>
     <ql:flags>0</ql:flags>
    </extensions>
   </trkpt>
   <trkpt lat="51.05327368" lon="13.74546289">
    <ele>115</ele>
    <extensions>
     <ql:flags>8</ql:flags>
    </extensions>
   </trkpt>
   <trkpt lat="51.05327368" lon="13.74582767">
    <ele>114</ele>
    <extensions>
     <ql:flags>8</ql:flags>
    </extensions>
   </trkpt>
   <trkpt lat="51.05327294" lon="13.74590684">
    <ele>114</ele>
    <extensions>
     <ql:flags>0</ql:flags>
    </extensions>
   </trkpt>
   <trkpt lat="51.05295181" lon="13.74578476">
    <ele>116</ele>
    <extensions>
     <ql:flags>8</ql:flags>
    </extensions>
   </trkpt>
   <trkpt lat="51.05243683" lon="13.74559164">
    <ele>116</ele>
    <extensions>
     <ql:flags>8</ql:flags>
    </extensions>
   </trkpt>
   <trkpt lat="51.05239391" lon="13.74546289">
    <ele>117</ele>
    <extensions>
     <ql:flags>8</ql:flags>
    </extensions>
   </trkpt>
   <trkpt lat="51.05232954" lon="13.74516249">
    <ele>118</ele>
    <extensions>
     <ql:flags>8</ql:flags>
    </extensions>
   </trkpt>
   <trkpt lat="51.05232877" lon="13.74514241">
    <ele>118</ele>
    <extensions>
     <ql:flags>0</ql:flags>
    </extensions>
   </trkpt>
   <trkpt lat="51.05215972" lon="13.74486346">
    <ele>120</ele>
    <extensions>
     <ql:flags>0</ql:flags>
    </extensions>
   </trkpt>
   <trkpt lat="51.05196476" lon="13.74516249">
    <ele>118</ele>
    <extensions>
     <ql:flags>8</ql:flags>
    </extensions>
   </trkpt>
   <trkpt lat="51.05192388" lon="13.74520410">
    <ele>118</ele>
    <extensions>
     <ql:flags>0</ql:flags>
    </extensions>
   </trkpt>
   <trkpt lat="51.05185747" lon="13.74529123">
    <ele>118</ele>
    <extensions>
     <ql:flags>8</ql:flags>
    </extensions>
   </trkpt>
   <trkpt lat="51.05181456" lon="13.74531269">
    <ele>118</ele>
    <extensions>
     <ql:flags>8</ql:flags>
    </extensions>
   </trkpt>
   <trkpt lat="51.05170727" lon="13.74535561">
    <ele>118</ele>
    <extensions>
     <ql:flags>8</ql:flags>
    </extensions>
   </trkpt>
   <trkpt lat="51.05164578" lon="13.74535565">
    <ele>118</ele>
    <extensions>
     <ql:flags>0</ql:flags>
    </extensions>
   </trkpt>
   <trkpt lat="51.05164289" lon="13.74524832">
    <ele>118</ele>
    <extensions>
     <ql:flags>8</ql:flags>
    </extensions>
   </trkpt>
   <trkpt lat="51.05157852" lon="13.74501228">
    <ele>118</ele>
    <extensions>
     <ql:flags>8</ql:flags>
    </extensions>
   </trkpt>
   <trkpt lat="51.05151415" lon="13.74488354">
    <ele>118</ele>
    <extensions>
     <ql:flags>8</ql:flags>
    </extensions>
   </trkpt>
   <trkpt lat="51.05144978" lon="13.74479771">
    <ele>118</ele>
    <extensions>
     <ql:flags>8</ql:flags>
    </extensions>
   </trkpt>
   <trkpt lat="51.05134739" lon="13.74469314">
    <ele>118</ele>
    <extensions>
     <ql:flags>0</ql:flags>
    </extensions>
   </trkpt>
   <trkpt lat="51.05123835" lon="13.74462609">
    <ele>117</ele>
    <extensions>
     <ql:flags>0</ql:flags>
    </extensions>
   </trkpt>
   <trkpt lat="51.05125666" lon="13.74447584">
    <ele>117</ele>
    <extensions>
     <ql:flags>8</ql:flags>
    </extensions>
   </trkpt>
   <trkpt lat="51.05132103" lon="13.74413252">
    <ele>119</ele>
    <extensions>
     <ql:flags>8</ql:flags>
    </extensions>
   </trkpt>
   <trkpt lat="51.05138628" lon="13.74383215">
    <ele>120</ele>
    <extensions>
     <ql:flags>0</ql:flags>
    </extensions>
   </trkpt>
   <trkpt lat="51.05138712" lon="13.74382679">
    <ele>120</ele>
    <extensions>
     <ql:flags>0</ql:flags>
    </extensions>
   </trkpt>
   <trkpt lat="51.05142832" lon="13.74355316">
    <ele>120</ele>
    <extensions>
     <ql:flags>8</ql:flags>
    </extensions>
   </trkpt>
   <trkpt lat="51.05155706" lon="13.74254465">
    <ele>118</ele>
    <extensions>
     <ql:flags>8</ql:flags>
    </extensions>
   </trkpt>
   <trkpt lat="51.05157900" lon="13.74228988">
    <ele>118</ele>
    <extensions>
     <ql:flags>0</ql:flags>
    </extensions>
   </trkpt>
   <trkpt lat="51.05159998" lon="13.74198675">
    <ele>117</ele>
    <extensions>
     <ql:flags>8</ql:flags>
    </extensions>
   </trkpt>
   <trkpt lat="51.05166435" lon="13.74157906">
    <ele>116</ele>
    <extensions>
     <ql:flags>8</ql:flags>
    </extensions>
   </trkpt>
   <trkpt lat="51.05166522" lon="13.74157776">
    <ele>116</ele>
    <extensions>
     <ql:flags>0</ql:flags>
    </extensions>
   </trkpt>
   <trkpt lat="51.05134249" lon="13.74089241">
    <ele>114</ele>
    <extensions>
     <ql:flags>8</ql:flags>
    </extensions>
   </trkpt>
   <trkpt lat="51.05106168" lon="13.74063496">
    <ele>115</ele>
    <extensions>
     <ql:flags>0</ql:flags>
    </extensions>
   </trkpt>
   <trkpt lat="51.05076836" lon="13.74078382">
    <ele>117</ele>
    <extensions>
     <ql:flags>0</ql:flags>
    </extensions>
   </trkpt>
   <trkpt lat="51.05076313" lon="13.74078512">
    <ele>117</ele>
    <extensions>
     <ql:flags>8</ql:flags>
    </extensions>
   </trkpt>
   <trkpt lat="51.05072356" lon="13.74082406">
    <ele>117</ele>
    <extensions>
     <ql:flags>0</ql:flags>
    </extensions>
   </trkpt>
   <trkpt lat="51.05055111" lon="13.74097962">
    <ele>118</ele>
    <extensions>
     <ql:flags>0</ql:flags>
    </extensions>
   </trkpt>
   <trkpt lat="51.05041981" lon="13.74069929">
    <ele>119</ele>
    <extensions>
     <ql:flags>8</ql:flags>
    </extensions>
   </trkpt>
   <trkpt lat="51.05020523" lon="13.74061346">
    <ele>119</ele>
    <extensions>
     <ql:flags>8</ql:flags>
    </extensions>
   </trkpt>
   <trkpt lat="51.05009794" lon="13.74054909">
    <ele>119</ele>
    <extensions>
     <ql:flags>8</ql:flags>
    </extensions>
   </trkpt>
   <trkpt lat="51.05003547" lon="13.74052767">
    <ele>119</ele>
    <extensions>
     <ql:flags>0</ql:flags>
    </extensions>
   </trkpt>
   <trkpt lat="51.05001211" lon="13.74069929">
    <ele>119</ele>
    <extensions>
     <ql:flags>8</ql:flags>
    </extensions>
   </trkpt>
   <trkpt lat="51.05001265" lon="13.74070202">
    <ele>119</ele>
    <extensions>
     <ql:flags>0</ql:flags>
    </extensions>
   </trkpt>
   <trkpt lat="51.05001211" lon="13.74069929">
    <ele>119</ele>
    <extensions>
     <ql:flags>8</ql:flags>
    </extensions>
   </trkpt>
   <trkpt lat="51.04986191" lon="13.74063492">
    <ele>119</ele>
    <extensions>
     <ql:flags>8</ql:flags>
    </extensions>
   </trkpt>
   <trkpt lat="51.04980047" lon="13.74061484">
    <ele>119</ele>
    <extensions>
     <ql:flags>0</ql:flags>
    </extensions>
   </trkpt>
   <trkpt lat="51.04977608" lon="13.74061346">
    <ele>119</ele>
    <extensions>
     <ql:flags>8</ql:flags>
    </extensions>
   </trkpt>
   <trkpt lat="51.04964733" lon="13.74057055">
    <ele>119</ele>
    <extensions>
     <ql:flags>8</ql:flags>
    </extensions>
   </trkpt>
   <trkpt lat="51.04923964" lon="13.74039888">
    <ele>122</ele>
    <extensions>
     <ql:flags>8</ql:flags>
    </extensions>
   </trkpt>
   <trkpt lat="51.04898214" lon="13.74018431">
    <ele>124</ele>
    <extensions>
     <ql:flags>8</ql:flags>
    </extensions>
   </trkpt>
   <trkpt lat="51.04874888" lon="13.74003415">
    <ele>126</ele>
    <extensions>
     <ql:flags>0</ql:flags>
    </extensions>
   </trkpt>
   <trkpt lat="51.04878434" lon="13.73988392">
    <ele>126</ele>
    <extensions>
     <ql:flags>0</ql:flags>
    </extensions>
   </trkpt>
   <trkpt lat="51.04870319" lon="13.73984098">
    <ele>126</ele>
    <extensions>
     <ql:flags>8</ql:flags>
    </extensions>
   </trkpt>
   <trkpt lat="51.04842849" lon="13.73963315">
    <ele>127</ele>
    <extensions>
     <ql:flags>0</ql:flags>
    </extensions>
   </trkpt>
   <trkpt lat="51.04870319" lon="13.73984098">
    <ele>126</ele>
    <extensions>
     <ql:flags>8</ql:flags>
    </extensions>
   </trkpt>
   <trkpt lat="51.04878692" lon="13.73988260">
    <ele>126</ele>
    <extensions>
     <ql:flags>0</ql:flags>
    </extensions>
   </trkpt>
   <trkpt lat="51.04874611" lon="13.74003410">
    <ele>126</ele>
    <extensions>
     <ql:flags>8</ql:flags>
    </extensions>
   </trkpt>
   <trkpt lat="51.04861736" lon="13.74059200">
    <ele>125</ele>
    <extensions>
     <ql:flags>8</ql:flags>
    </extensions>
   </trkpt>
   <trkpt lat="51.04840397" lon="13.74133770">
    <ele>122</ele>
    <extensions>
     <ql:flags>0</ql:flags>
    </extensions>
   </trkpt>
   <trkpt lat="51.04868040" lon="13.74159921">
    <ele>121</ele>
    <extensions>
     <ql:flags>0</ql:flags>
    </extensions>
   </trkpt>
   <trkpt lat="51.04868294" lon="13.74160056">
    <ele>121</ele>
    <extensions>
     <ql:flags>0</ql:flags>
    </extensions>
   </trkpt>
   <trkpt lat="51.04885340" lon="13.74177217">
    <ele>120</ele>
    <extensions>
     <ql:flags>8</ql:flags>
    </extensions>
   </trkpt>
   <trkpt lat="51.04881048" lon="13.74200821">
    <ele>118</ele>
    <extensions>
     <ql:flags>8</ql:flags>
    </extensions>
   </trkpt>
   <trkpt lat="51.04881228" lon="13.74200959">
    <ele>118</ele>
    <extensions>
     <ql:flags>0</ql:flags>
    </extensions>
   </trkpt>
   <trkpt lat="51.04868294" lon="13.74241595">
    <ele>116</ele>
    <extensions>
     <ql:flags>0</ql:flags>
    </extensions>
   </trkpt>
   <trkpt lat="51.04863729" lon="13.74239315">
    <ele>116</ele>
    <extensions>
     <ql:flags>0</ql:flags>
    </extensions>
   </trkpt>
   <trkpt lat="51.04844570" lon="13.74222279">
    <ele>117</ele>
    <extensions>
     <ql:flags>8</ql:flags>
    </extensions>
   </trkpt>
   <trkpt lat="51.04842424" lon="13.74220133">
    <ele>117</ele>
    <extensions>
     <ql:flags>8</ql:flags>
    </extensions>
   </trkpt>
   <trkpt lat="51.04814699" lon="13.74196668">
    <ele>117</ele>
    <extensions>
     <ql:flags>0</ql:flags>
    </extensions>
   </trkpt>
   <trkpt lat="51.04814529" lon="13.74196529">
    <ele>117</ele>
    <extensions>
     <ql:flags>8</ql:flags>
    </extensions>
   </trkpt>
   <trkpt lat="51.04789000" lon="13.74264528">
    <ele>115</ele>
    <extensions>
     <ql:flags>0</ql:flags>
    </extensions>
   </trkpt>
   <trkpt lat="51.04797284" lon="13.74273647">
    <ele>114</ele>
    <extensions>
     <ql:flags>0</ql:flags>
    </extensions>
   </trkpt>
   <trkpt lat="51.04793072" lon="13.74290943">
    <ele>114</ele>
    <extensions>
     <ql:flags>8</ql:flags>
    </extensions>
   </trkpt>
   <trkpt lat="51.04788662" lon="13.74301542">
    <ele>114</ele>
    <extensions>
     <ql:flags>0</ql:flags>
    </extensions>
   </trkpt>
   <trkpt lat="51.04782343" lon="13.74325275">
    <ele>115</ele>
    <extensions>
     <ql:flags>8</ql:flags>
    </extensions>
   </trkpt>
   <trkpt lat="51.04775906" lon="13.74344587">
    <ele>115</ele>
    <extensions>
     <ql:flags>8</ql:flags>
    </extensions>
   </trkpt>
   <trkpt lat="51.04771614" lon="13.74346733">
    <ele>115</ele>
    <extensions>
     <ql:flags>8</ql:flags>
    </extensions>
   </trkpt>
   <trkpt lat="51.04769387" lon="13.74355052">
    <ele>115</ele>
    <extensions>
     <ql:flags>0</ql:flags>
    </extensions>
   </trkpt>
   <trkpt lat="51.04769468" lon="13.74355316">
    <ele>115</ele>
    <extensions>
     <ql:flags>8</ql:flags>
    </extensions>
   </trkpt>
   <trkpt lat="51.04750156" lon="13.74413252">
    <ele>116</ele>
    <extensions>
     <ql:flags>8</ql:flags>
    </extensions>
   </trkpt>
   <trkpt lat="51.04741828" lon="13.74436859">
    <ele>115</ele>
    <extensions>
     <ql:flags>0</ql:flags>
    </extensions>
   </trkpt>
   <trkpt lat="51.04741573" lon="13.74436855">
    <ele>115</ele>
    <extensions>
     <ql:flags>8</ql:flags>
    </extensions>
   </trkpt>
   <trkpt lat="51.04724752" lon="13.74420096">
    <ele>115</ele>
    <extensions>
     <ql:flags>0</ql:flags>
    </extensions>
   </trkpt>
   <trkpt lat="51.04724407" lon="13.74419689">
    <ele>115</ele>
    <extensions>
     <ql:flags>8</ql:flags>
    </extensions>
   </trkpt>
   <trkpt lat="51.04709535" lon="13.74406685">
    <ele>114</ele>
    <extensions>
     <ql:flags>0</ql:flags>
    </extensions>
   </trkpt>
   <trkpt lat="51.04694366" lon="13.74393940">
    <ele>114</ele>
    <extensions>
     <ql:flags>8</ql:flags>
    </extensions>
   </trkpt>
   <trkpt lat="51.04685783" lon="13.74385357">
    <ele>114</ele>
    <extensions>
     <ql:flags>8</ql:flags>
    </extensions>
   </trkpt>
   <trkpt lat="51.04677580" lon="13.74370609">
    <ele>115</ele>
    <extensions>
     <ql:flags>0</ql:flags>
    </extensions>
   </trkpt>
   <trkpt lat="51.04655743" lon="13.74336004">
    <ele>115</ele>
    <extensions>
     <ql:flags>8</ql:flags>
    </extensions>
   </trkpt>
   <trkpt lat="51.04655600" lon="13.74335472">
    <ele>115</ele>
    <extensions>
     <ql:flags>0</ql:flags>
    </extensions>
   </trkpt>
   <trkpt lat="51.04602098" lon="13.74278069">
    <ele>116</ele>
    <extensions>
     <ql:flags>8</ql:flags>
    </extensions>
   </trkpt>
   <trkpt lat="51.04591370" lon="13.74265194">
    <ele>116</ele>
    <extensions>
     <ql:flags>8</ql:flags>
    </extensions>
   </trkpt>
   <trkpt lat="51.04550771" lon="13.74222417">
    <ele>117</ele>
    <extensions>
     <ql:flags>0</ql:flags>
    </extensions>
   </trkpt>
   <trkpt lat="51.04509830" lon="13.74187946">
    <ele>116</ele>
    <extensions>
     <ql:flags>8</ql:flags>
    </extensions>
   </trkpt>
   <trkpt lat="51.04501822" lon="13.74187682">
    <ele>116</ele>
    <extensions>
     <ql:flags>0</ql:flags>
    </extensions>
   </trkpt>
   <trkpt lat="51.04501247" lon="13.74187946">
    <ele>116</ele>
    <extensions>
     <ql:flags>8</ql:flags>
    </extensions>
   </trkpt>
   <trkpt lat="51.04494810" lon="13.74194384">
    <ele>116</ele>
    <extensions>
     <ql:flags>8</ql:flags>
    </extensions>
   </trkpt>
   <trkpt lat="51.04477644" lon="13.74205112">
    <ele>115</ele>
    <extensions>
     <ql:flags>8</ql:flags>
    </extensions>
   </trkpt>
   <trkpt lat="51.04454041" lon="13.74205112">
    <ele>114</ele>
    <extensions>
     <ql:flags>8</ql:flags>
    </extensions>
   </trkpt>
   <trkpt lat="51.04441166" lon="13.74217987">
    <ele>115</ele>
    <extensions>
     <ql:flags>8</ql:flags>
    </extensions>
   </trkpt>
   <trkpt lat="51.04421854" lon="13.74222279">
    <ele>115</ele>
    <extensions>
     <ql:flags>8</ql:flags>
    </extensions>
   </trkpt>
   <trkpt lat="51.04404688" lon="13.74233007">
    <ele>115</ele>
    <extensions>
     <ql:flags>8</ql:flags>
    </extensions>
   </trkpt>
   <trkpt lat="51.04389668" lon="13.74241590">
    <ele>116</ele>
    <extensions>
     <ql:flags>8</ql:flags>
    </extensions>
   </trkpt>
   <trkpt lat="51.04378939" lon="13.74243736">
    <ele>116</ele>
    <extensions>
     <ql:flags>8</ql:flags>
    </extensions>
   </trkpt>
   <trkpt lat="51.04364356" lon="13.74241461">
    <ele>116</ele>
    <extensions>
     <ql:flags>0</ql:flags>
    </extensions>
   </trkpt>
   <trkpt lat="51.04357481" lon="13.74235153">
    <ele>117</ele>
    <extensions>
     <ql:flags>8</ql:flags>
    </extensions>
   </trkpt>
   <trkpt lat="51.04351044" lon="13.74226570">
    <ele>117</ele>
    <extensions>
     <ql:flags>8</ql:flags>
    </extensions>
   </trkpt>
   <trkpt lat="51.04346752" lon="13.74215841">
    <ele>117</ele>
    <extensions>
     <ql:flags>8</ql:flags>
    </extensions>
   </trkpt>
   <trkpt lat="51.04357508" lon="13.74211554">
    <ele>117</ele>
    <extensions>
     <ql:flags>0</ql:flags>
    </extensions>
   </trkpt>
   <trkpt lat="51.04346752" lon="13.74215841">
    <ele>117</ele>
    <extensions>
     <ql:flags>8</ql:flags>
    </extensions>
   </trkpt>
   <trkpt lat="51.04346686" lon="13.74215980">
    <ele>117</ele>
    <extensions>
     <ql:flags>0</ql:flags>
    </extensions>
   </trkpt>
   <trkpt lat="51.04329586" lon="13.74224424">
    <ele>118</ele>
    <extensions>
     <ql:flags>8</ql:flags>
    </extensions>
   </trkpt>
   <trkpt lat="51.04314560" lon="13.74232743">
    <ele>118</ele>
    <extensions>
     <ql:flags>0</ql:flags>
    </extensions>
   </trkpt>
   <trkpt lat="51.04316711" lon="13.74243736">
    <ele>118</ele>
    <extensions>
     <ql:flags>8</ql:flags>
    </extensions>
   </trkpt>
   <trkpt lat="51.04316711" lon="13.74256611">
    <ele>119</ele>
    <extensions>
     <ql:flags>8</ql:flags>
    </extensions>
   </trkpt>
   <trkpt lat="51.04314644" lon="13.74269356">
    <ele>119</ele>
    <extensions>
     <ql:flags>0</ql:flags>
    </extensions>
   </trkpt>
   <trkpt lat="51.04314566" lon="13.74269485">
    <ele>119</ele>
    <extensions>
     <ql:flags>8</ql:flags>
    </extensions>
   </trkpt>
   <trkpt lat="51.04310274" lon="13.74275923">
    <ele>119</ele>
    <extensions>
     <ql:flags>8</ql:flags>
    </extensions>
   </trkpt>
   <trkpt lat="51.04301691" lon="13.74284506">
    <ele>119</ele>
    <extensions>
     <ql:flags>8</ql:flags>
    </extensions>
   </trkpt>
   <trkpt lat="51.04273796" lon="13.74301672">
    <ele>119</ele>
    <extensions>
     <ql:flags>8</ql:flags>
    </extensions>
   </trkpt>
   <trkpt lat="51.04256630" lon="13.74303818">
    <ele>119</ele>
    <extensions>
     <ql:flags>8</ql:flags>
    </extensions>
   </trkpt>
   <trkpt lat="51.04239464" lon="13.74301672">
    <ele>119</ele>
    <extensions>
     <ql:flags>8</ql:flags>
    </extensions>
   </trkpt>
   <trkpt lat="51.04224443" lon="13.74312401">
    <ele>118</ele>
    <extensions>
     <ql:flags>8</ql:flags>
    </extensions>
   </trkpt>
   <trkpt lat="51.04213715" lon="13.74323130">
    <ele>118</ele>
    <extensions>
     <ql:flags>8</ql:flags>
    </extensions>
   </trkpt>
   <trkpt lat="51.04200840" lon="13.74342442">
    <ele>117</ele>
    <extensions>
     <ql:flags>8</ql:flags>
    </extensions>
   </trkpt>
   <trkpt lat="51.04192257" lon="13.74351025">
    <ele>117</ele>
    <extensions>
     <ql:flags>8</ql:flags>
    </extensions>
   </trkpt>
   <trkpt lat="51.04181528" lon="13.74361753">
    <ele>117</ele>
    <extensions>
     <ql:flags>8</ql:flags>
    </extensions>
   </trkpt>
   <trkpt lat="51.04149342" lon="13.74378920">
    <ele>117</ele>
    <extensions>
     <ql:flags>8</ql:flags>
    </extensions>
   </trkpt>
   <trkpt lat="51.04130030" lon="13.74396086">
    <ele>117</ele>
    <extensions>
     <ql:flags>8</ql:flags>
    </extensions>
   </trkpt>
   <trkpt lat="51.04121447" lon="13.74411106">
    <ele>117</ele>
    <extensions>
     <ql:flags>8</ql:flags>
    </extensions>
   </trkpt>
   <trkpt lat="51.04112864" lon="13.74423981">
    <ele>117</ele>
    <extensions>
     <ql:flags>8</ql:flags>
    </extensions>
   </trkpt>
   <trkpt lat="51.04091406" lon="13.74447584">
    <ele>117</ele>
    <extensions>
     <ql:flags>8</ql:flags>
    </extensions>
   </trkpt>
   <trkpt lat="51.04080677" lon="13.74454021">
    <ele>117</ele>
    <extensions>
     <ql:flags>8</ql:flags>
    </extensions>
   </trkpt>
   <trkpt lat="51.04078531" lon="13.74458313">
    <ele>117</ele>
    <extensions>
     <ql:flags>8</ql:flags>
    </extensions>
   </trkpt>
   <trkpt lat="51.04074240" lon="13.74464750">
    <ele>117</ele>
    <extensions>
     <ql:flags>8</ql:flags>
    </extensions>
   </trkpt>
   <trkpt lat="51.04069948" lon="13.74469042">
    <ele>117</ele>
    <extensions>
     <ql:flags>8</ql:flags>
    </extensions>
   </trkpt>
   <trkpt lat="51.04050636" lon="13.74473333">
    <ele>118</ele>
    <extensions>
     <ql:flags>8</ql:flags>
    </extensions>
   </trkpt>
   <trkpt lat="51.04037762" lon="13.74484062">
    <ele>118</ele>
    <extensions>
     <ql:flags>8</ql:flags>
    </extensions>
   </trkpt>
   <trkpt lat="51.04031324" lon="13.74496937">
    <ele>118</ele>
    <extensions>
     <ql:flags>8</ql:flags>
    </extensions>
   </trkpt>
   <trkpt lat="51.04014158" lon="13.74520540">
    <ele>118</ele>
    <extensions>
     <ql:flags>8</ql:flags>
    </extensions>
   </trkpt>
   <trkpt lat="51.03999138" lon="13.74526978">
    <ele>118</ele>
    <extensions>
     <ql:flags>8</ql:flags>
    </extensions>
   </trkpt>
   <trkpt lat="51.03979826" lon="13.74552727">
    <ele>119</ele>
    <extensions>
     <ql:flags>8</ql:flags>
    </extensions>
   </trkpt>
   <trkpt lat="51.03977680" lon="13.74569893">
    <ele>119</ele>
    <extensions>
     <ql:flags>8</ql:flags>
    </extensions>
   </trkpt>
   <trkpt lat="51.03975534" lon="13.74589205">
    <ele>118</ele>
    <extensions>
     <ql:flags>8</ql:flags>
    </extensions>
   </trkpt>
   <trkpt lat="51.03969097" lon="13.74606371">
    <ele>118</ele>
    <extensions>
     <ql:flags>8</ql:flags>
    </extensions>
   </trkpt>
   <trkpt lat="51.03958368" lon="13.74619246">
    <ele>118</ele>
    <extensions>
     <ql:flags>8</ql:flags>
    </extensions>
   </trkpt>
   <trkpt lat="51.03945761" lon="13.74625285">
    <ele>117</ele>
    <extensions>
     <ql:flags>0</ql:flags>
    </extensions>
   </trkpt>
   <trkpt lat="51.03945494" lon="13.74619246">
    <ele>118</ele>
    <extensions>
     <ql:flags>8</ql:flags>
    </extensions>
   </trkpt>
   <trkpt lat="51.03932619" lon="13.74563456">
    <ele>118</ele>
    <extensions>
     <ql:flags>8</ql:flags>
    </extensions>
   </trkpt>
   <trkpt lat="51.03928328" lon="13.74541998">
    <ele>119</ele>
    <extensions>
     <ql:flags>8</ql:flags>
    </extensions>
   </trkpt>
   <trkpt lat="51.03926145" lon="13.74525238">
    <ele>118</ele>
    <extensions>
     <ql:flags>0</ql:flags>
    </extensions>
   </trkpt>
   <trkpt lat="51.03915453" lon="13.74539852">
    <ele>118</ele>
    <extensions>
     <ql:flags>8</ql:flags>
    </extensions>
   </trkpt>
   <trkpt lat="51.03902578" lon="13.74565601">
    <ele>117</ele>
    <extensions>
     <ql:flags>8</ql:flags>
    </extensions>
   </trkpt>
   <trkpt lat="51.03893995" lon="13.74589205">
    <ele>116</ele>
    <extensions>
     <ql:flags>8</ql:flags>
    </extensions>
   </trkpt>
   <trkpt lat="51.03883266" lon="13.74621391">
    <ele>114</ele>
    <extensions>
     <ql:flags>8</ql:flags>
    </extensions>
   </trkpt>
   <trkpt lat="51.03872538" lon="13.74647141">
    <ele>114</ele>
    <extensions>
     <ql:flags>8</ql:flags>
    </extensions>
   </trkpt>
   <trkpt lat="51.03860025" lon="13.74672626">
    <ele>114</ele>
    <extensions>
     <ql:flags>0</ql:flags>
    </extensions>
   </trkpt>
   <trkpt lat="51.03857517" lon="13.74679327">
    <ele>114</ele>
    <extensions>
     <ql:flags>8</ql:flags>
    </extensions>
   </trkpt>
   <trkpt lat="51.03848934" lon="13.74698639">
    <ele>115</ele>
    <extensions>
     <ql:flags>8</ql:flags>
    </extensions>
   </trkpt>
   <trkpt lat="51.03842354" lon="13.74711384">
    <ele>115</ele>
    <extensions>
     <ql:flags>0</ql:flags>
    </extensions>
   </trkpt>
   <trkpt lat="51.03842946" lon="13.74710981">
    <ele>115</ele>
    <extensions>
     <ql:flags>0</ql:flags>
    </extensions>
   </trkpt>
   <trkpt lat="51.03833914" lon="13.74720097">
    <ele>115</ele>
    <extensions>
     <ql:flags>8</ql:flags>
    </extensions>
   </trkpt>
   <trkpt lat="51.03833898" lon="13.74720101">
    <ele>115</ele>
    <extensions>
     <ql:flags>0</ql:flags>
    </extensions>
   </trkpt>
   <trkpt lat="51.03831768" lon="13.74732971">
    <ele>115</ele>
    <extensions>
     <ql:flags>8</ql:flags>
    </extensions>
   </trkpt>
   <trkpt lat="51.03801727" lon="13.74810219">
    <ele>115</ele>
    <extensions>
     <ql:flags>8</ql:flags>
    </extensions>
   </trkpt>
   <trkpt lat="51.03799582" lon="13.74855280">
    <ele>116</ele>
    <extensions>
     <ql:flags>8</ql:flags>
    </extensions>
   </trkpt>
   <trkpt lat="51.03803873" lon="13.74923944">
    <ele>117</ele>
    <extensions>
     <ql:flags>8</ql:flags>
    </extensions>
   </trkpt>
   <trkpt lat="51.03806019" lon="13.74945402">
    <ele>117</ele>
    <extensions>
     <ql:flags>8</ql:flags>
    </extensions>
   </trkpt>
   <trkpt lat="51.03806019" lon="13.74966860">
    <ele>117</ele>
    <extensions>
     <ql:flags>8</ql:flags>
    </extensions>
   </trkpt>
   <trkpt lat="51.03803873" lon="13.74984026">
    <ele>116</ele>
    <extensions>
     <ql:flags>8</ql:flags>
    </extensions>
   </trkpt>
   <trkpt lat="51.03795290" lon="13.75007629">
    <ele>116</ele>
    <extensions>
     <ql:flags>8</ql:flags>
    </extensions>
   </trkpt>
   <trkpt lat="51.03782415" lon="13.75024796">
    <ele>115</ele>
    <extensions>
     <ql:flags>8</ql:flags>
    </extensions>
   </trkpt>
   <trkpt lat="51.03790998" lon="13.75035524">
    <ele>115</ele>
    <extensions>
     <ql:flags>8</ql:flags>
    </extensions>
   </trkpt>
   <trkpt lat="51.03810310" lon="13.75059128">
    <ele>115</ele>
    <extensions>
     <ql:flags>8</ql:flags>
    </extensions>
   </trkpt>
   <trkpt lat="51.03827477" lon="13.75069857">
    <ele>115</ele>
    <extensions>
     <ql:flags>8</ql:flags>
    </extensions>
   </trkpt>
   <trkpt lat="51.03842497" lon="13.75069857">
    <ele>115</ele>
    <extensions>
     <ql:flags>8</ql:flags>
    </extensions>
   </trkpt>
   <trkpt lat="51.03868058" lon="13.75074152">
    <ele>116</ele>
    <extensions>
     <ql:flags>0</ql:flags>
    </extensions>
   </trkpt>
   <trkpt lat="51.03868246" lon="13.75074148">
    <ele>116</ele>
    <extensions>
     <ql:flags>8</ql:flags>
    </extensions>
   </trkpt>
   <trkpt lat="51.03881121" lon="13.75099897">
    <ele>116</ele>
    <extensions>
     <ql:flags>8</ql:flags>
    </extensions>
   </trkpt>
   <trkpt lat="51.03885412" lon="13.75106335">
    <ele>116</ele>
    <extensions>
     <ql:flags>8</ql:flags>
    </extensions>
   </trkpt>
   <trkpt lat="51.03887558" lon="13.75106335">
    <ele>116</ele>
    <extensions>
     <ql:flags>8</ql:flags>
    </extensions>
   </trkpt>
   <trkpt lat="51.03887558" lon="13.75110626">
    <ele>116</ele>
    <extensions>
     <ql:flags>8</ql:flags>
    </extensions>
   </trkpt>
   <trkpt lat="51.03889704" lon="13.75117064">
    <ele>116</ele>
    <extensions>
     <ql:flags>8</ql:flags>
    </extensions>
   </trkpt>
   <trkpt lat="51.03909016" lon="13.75138521">
    <ele>116</ele>
    <extensions>
     <ql:flags>8</ql:flags>
    </extensions>
   </trkpt>
   <trkpt lat="51.03932619" lon="13.75174999">
    <ele>116</ele>
    <extensions>
     <ql:flags>8</ql:flags>
    </extensions>
   </trkpt>
   <trkpt lat="51.03941202" lon="13.75196457">
    <ele>116</ele>
    <extensions>
     <ql:flags>8</ql:flags>
    </extensions>
   </trkpt>
   <trkpt lat="51.03949785" lon="13.75222206">
    <ele>116</ele>
    <extensions>
     <ql:flags>8</ql:flags>
    </extensions>
   </trkpt>
   <trkpt lat="51.03951933" lon="13.75258286">
    <ele>115</ele>
    <extensions>
     <ql:flags>0</ql:flags>
    </extensions>
   </trkpt>
   <trkpt lat="51.03973389" lon="13.75275850">
    <ele>115</ele>
    <extensions>
     <ql:flags>8</ql:flags>
    </extensions>
   </trkpt>
   <trkpt lat="51.03988409" lon="13.75293016">
    <ele>115</ele>
    <extensions>
     <ql:flags>8</ql:flags>
    </extensions>
   </trkpt>
   <trkpt lat="51.04007721" lon="13.75320911">
    <ele>117</ele>
    <extensions>
     <ql:flags>8</ql:flags>
    </extensions>
   </trkpt>
   <trkpt lat="51.04027033" lon="13.75355244">
    <ele>119</ele>
    <extensions>
     <ql:flags>8</ql:flags>
    </extensions>
   </trkpt>
   <trkpt lat="51.04050636" lon="13.75387430">
    <ele>121</ele>
    <extensions>
     <ql:flags>8</ql:flags>
    </extensions>
   </trkpt>
   <trkpt lat="51.04052633" lon="13.75391458">
    <ele>121</ele>
    <extensions>
     <ql:flags>0</ql:flags>
    </extensions>
   </trkpt>
   <trkpt lat="51.04057074" lon="13.75387430">
    <ele>121</ele>
    <extensions>
     <ql:flags>8</ql:flags>
    </extensions>
   </trkpt>
   <trkpt lat="51.04059219" lon="13.75387430">
    <ele>121</ele>
    <extensions>
     <ql:flags>8</ql:flags>
    </extensions>
   </trkpt>
   <trkpt lat="51.04061365" lon="13.75389576">
    <ele>121</ele>
    <extensions>
     <ql:flags>8</ql:flags>
    </extensions>
   </trkpt>
   <trkpt lat="51.04063511" lon="13.75393867">
    <ele>121</ele>
    <extensions>
     <ql:flags>8</ql:flags>
    </extensions>
   </trkpt>
   <trkpt lat="51.04063511" lon="13.75402451">
    <ele>121</ele>
    <extensions>
     <ql:flags>8</ql:flags>
    </extensions>
   </trkpt>
   <trkpt lat="51.04063370" lon="13.75402589">
    <ele>121</ele>
    <extensions>
     <ql:flags>0</ql:flags>
    </extensions>
   </trkpt>
   <trkpt lat="51.04065657" lon="13.75406742">
    <ele>121</ele>
    <extensions>
     <ql:flags>8</ql:flags>
    </extensions>
   </trkpt>
   <trkpt lat="51.04102135" lon="13.75445366">
    <ele>121</ele>
    <extensions>
     <ql:flags>8</ql:flags>
    </extensions>
   </trkpt>
   <trkpt lat="51.04108572" lon="13.75451803">
    <ele>121</ele>
    <extensions>
     <ql:flags>8</ql:flags>
    </extensions>
   </trkpt>
   <trkpt lat="51.04114861" lon="13.75455965">
    <ele>121</ele>
    <extensions>
     <ql:flags>0</ql:flags>
    </extensions>
   </trkpt>
   <trkpt lat="51.04115009" lon="13.75456095">
    <ele>121</ele>
    <extensions>
     <ql:flags>8</ql:flags>
    </extensions>
   </trkpt>
   <trkpt lat="51.04172945" lon="13.75310183">
    <ele>118</ele>
    <extensions>
     <ql:flags>8</ql:flags>
    </extensions>
   </trkpt>
   <trkpt lat="51.04177237" lon="13.75299454">
    <ele>118</ele>
    <extensions>
     <ql:flags>8</ql:flags>
    </extensions>
   </trkpt>
   <trkpt lat="51.04202986" lon="13.75230789">
    <ele>118</ele>
    <extensions>
     <ql:flags>8</ql:flags>
    </extensions>
   </trkpt>
   <trkpt lat="51.04205132" lon="13.75226498">
    <ele>118</ele>
    <extensions>
     <ql:flags>8</ql:flags>
    </extensions>
   </trkpt>
   <trkpt lat="51.04220152" lon="13.75190020">
    <ele>117</ele>
    <extensions>
     <ql:flags>8</ql:flags>
    </extensions>
   </trkpt>
   <trkpt lat="51.04234833" lon="13.75154485">
    <ele>115</ele>
    <extensions>
     <ql:flags>0</ql:flags>
    </extensions>
   </trkpt>
   <trkpt lat="51.04239464" lon="13.75138521">
    <ele>115</ele>
    <extensions>
     <ql:flags>8</ql:flags>
    </extensions>
   </trkpt>
   <trkpt lat="51.04241428" lon="13.75136514">
    <ele>115</ele>
    <extensions>
     <ql:flags>0</ql:flags>
    </extensions>
   </trkpt>
   <trkpt lat="51.04250193" lon="13.75144958">
    <ele>114</ele>
    <extensions>
     <ql:flags>8</ql:flags>
    </extensions>
   </trkpt>
   <trkpt lat="51.04252338" lon="13.75147104">
    <ele>114</ele>
    <extensions>
     <ql:flags>8</ql:flags>
    </extensions>
   </trkpt>
   <trkpt lat="51.04267359" lon="13.75162125">
    <ele>114</ele>
    <extensions>
     <ql:flags>8</ql:flags>
    </extensions>
   </trkpt>
   <trkpt lat="51.04267552" lon="13.75162397">
    <ele>114</ele>
    <extensions>
     <ql:flags>0</ql:flags>
    </extensions>
   </trkpt>
   <trkpt lat="51.04269505" lon="13.75157833">
    <ele>114</ele>
    <extensions>
     <ql:flags>8</ql:flags>
    </extensions>
   </trkpt>
   <trkpt lat="51.04271610" lon="13.75153680">
    <ele>114</ele>
    <extensions>
     <ql:flags>0</ql:flags>
    </extensions>
   </trkpt>
   <trkpt lat="51.04289957" lon="13.75172053">
    <ele>114</ele>
    <extensions>
     <ql:flags>0</ql:flags>
    </extensions>
   </trkpt>
  </trkseg>
 </trk>
 <trk>
  <name>Track (nur Werktags)</name>
  <extensions>
   <ql:key>f5a3791c84dea59b0b1777535e1c2502</ql:key>
   <ql:flags>3</ql:flags>
   <gpxx:TrackExtension>
    <gpxx:DisplayColor>DarkBlue</gpxx:DisplayColor>
   </gpxx:TrackExtension>
  </extensions>
  <trkseg>
   <trkpt lat="51.05938963" lon="13.71810438">
    <ele>116</ele>
    <extensions>
     <ql:flags>0</ql:flags>
    </extensions>
   </trkpt>
   <trkpt lat="51.05955359" lon="13.71825593">
    <ele>116</ele>
    <extensions>
     <ql:flags>0</ql:flags>
    </extensions>
   </trkpt>
   <trkpt lat="51.05951786" lon="13.71836185">
    <ele>115</ele>
    <extensions>
     <ql:flags>8</ql:flags>
    </extensions>
   </trkpt>
   <trkpt lat="51.05977502" lon="13.71855499">
    <ele>115</ele>
    <extensions>
     <ql:flags>0</ql:flags>
    </extensions>
   </trkpt>
  </trkseg>
 </trk>
 <extensions>
  <ql:key>9f8567fb3926779b668d022bd9b85a48</ql:key>
  <ql:sortingRoadbook>0</ql:sortingRoadbook>
  <ql:sortingFolder>0</ql:sortingFolder>
  <ql:correlation>1</ql:correlation>
 </extensions>
</gpx>
