<?xml version="1.0" encoding="UTF-8" standalone="no" ?>
<gpx version="1.1" xmlns:gpxx="http://www.garmin.com/xmlschemas/GpxExtensions/v3" creator="QMapShack 1.10.0 http://www.qlandkarte.org/" xsi:schemaLocation="http://www.topografix.com/GPX/1/1 http://www.topografix.com/GPX/1/1/gpx.xsd http://www.garmin.com/xmlschemas/GpxExtensions/v3 http://www.garmin.com/xmlschemas/GpxExtensionsv3.xsd http://www.garmin.com/xmlschemas/TrackPointExtension/v1 http://www.garmin.com/xmlschemas/TrackPointExtensionv1.xsd http://www.garmin.com/xmlschemas/WaypointExtension/v1 http://www.garmin.com/xmlschemas/WaypointExtensionv1.xsd http://www.qlandkarte.org/xmlschemas/v1.1 http://www.qlandkarte.org/xmlschemas/v1.1/ql-extensions.xsd http://www.cluetrust.com/XML/GPXDATA/1/0 http://www.cluetrust.com/Schemas/gpxdata10.xsd" xmlns:xsi="http://www.w3.org/2001/XMLSchema-instance" xmlns:tp1="http://www.garmin.com/xmlschemas/TrackPointExtension/v1" xmlns="http://www.topografix.com/GPX/1/1" xmlns:rmc="urn:net:trekbuddy:1.0:nmea:rmc" xmlns:gpxdata="http://www.cluetrust.com/XML/GPXDATA/1/0" xmlns:ql="http://www.qlandkarte.org/xmlschemas/v1.1" xmlns:gpxtpx="http://www.garmin.com/xmlschemas/TrackPointExtension/v1" xmlns:wptx1="http://www.garmin.com/xmlschemas/WaypointExtension/v1">
 <metadata>
  <name>Streifzug 17: Im Dresdner Westen durch den Tännichtgrund zum Steinhübel</name>
  <link href="https://www.dvb.de/de-de/entdecken/wandertipps/im-dresdner-westen/">
   <text>Webseite</text>
   <type>Link</type>
  </link>
  <time>2020-06-30T04:57:20.000Z</time>
 </metadata>
 <wpt lat="51.09366667" lon="13.60546667">
  <ele>109</ele>
  <time>2020-07-30T14:54:00.559Z</time>
  <name>Wegpunkt 1 Hier</name>
  <sym>Flag, Blue</sym>
  <extensions>
   <ql:key>fe942cfd3fe4c780926c3043a4a98118</ql:key>
   <ql:flags>3</ql:flags>
   <ql:bubble yoff="-150" xoff="-320" width="300"/>
   <ql:history>
    <ql:event>
     <ql:icon>://icons/48x48/Start.png</ql:icon>
     <ql:time>2020-07-30T14:54:00.559Z</ql:time>
     <ql:comment>Erstversion.</ql:comment>
    </ql:event>
    <ql:event>
     <ql:icon>://icons/48x48/WptEditProx.png</ql:icon>
     <ql:time>2020-07-30T14:54:03.560Z</ql:time>
     <ql:comment>Abstandsalarm geändert</ql:comment>
    </ql:event>
   </ql:history>
   <wptx1:WaypointExtension>
    <wptx1:Proximity>10.00000000</wptx1:Proximity>
   </wptx1:WaypointExtension>
  </extensions>
 </wpt>
 <wpt lat="51.09166667" lon="13.60068333">
  <ele>154</ele>
  <time>2020-07-30T14:55:17.278Z</time>
  <name>Wegpunkt 2 Voraus</name>
  <sym>Flag, Blue</sym>
  <extensions>
   <ql:key>fc76b6c42db03e59c91709f247c3ae9b</ql:key>
   <ql:flags>3</ql:flags>
   <ql:bubble yoff="-150" xoff="-320" width="300"/>
   <ql:history>
    <ql:event>
     <ql:icon>://icons/48x48/Start.png</ql:icon>
     <ql:time>2020-07-30T14:55:17.278Z</ql:time>
     <ql:comment>Erstversion.</ql:comment>
    </ql:event>
    <ql:event>
     <ql:icon>://icons/48x48/WptEditProx.png</ql:icon>
     <ql:time>2020-07-30T14:55:20.903Z</ql:time>
     <ql:comment>Abstandsalarm geändert</ql:comment>
    </ql:event>
   </ql:history>
   <wptx1:WaypointExtension>
    <wptx1:Proximity>10.00000000</wptx1:Proximity>
   </wptx1:WaypointExtension>
  </extensions>
 </wpt>
 <wpt lat="51.08841667" lon="13.59966667">
  <ele>177</ele>
  <time>2020-07-30T14:57:20.574Z</time>
  <name>Wegpunkt 3 Hier</name>
  <sym>Flag, Blue</sym>
  <extensions>
   <ql:key>22f96fc9d076304315dd9c4f73cdc5eb</ql:key>
   <ql:flags>3</ql:flags>
   <ql:bubble yoff="-150" xoff="-320" width="300"/>
   <ql:history>
    <ql:event>
     <ql:icon>://icons/48x48/Start.png</ql:icon>
     <ql:time>2020-07-30T14:57:20.574Z</ql:time>
     <ql:comment>Erstversion.</ql:comment>
    </ql:event>
    <ql:event>
     <ql:icon>://icons/48x48/WptEditProx.png</ql:icon>
     <ql:time>2020-07-30T14:57:23.092Z</ql:time>
     <ql:comment>Abstandsalarm geändert</ql:comment>
    </ql:event>
   </ql:history>
   <wptx1:WaypointExtension>
    <wptx1:Proximity>10.00000000</wptx1:Proximity>
   </wptx1:WaypointExtension>
  </extensions>
 </wpt>
 <wpt lat="51.07168259" lon="13.59296795">
  <ele>262</ele>
  <time>2020-07-30T14:58:15.757Z</time>
  <name>Wegpunkt 4 Hier</name>
  <sym>Flag, Blue</sym>
  <extensions>
   <ql:key>b2328b2f8291327c6bae198fa0b49c89</ql:key>
   <ql:flags>3</ql:flags>
   <ql:bubble yoff="-150" xoff="-320" width="300"/>
   <ql:history>
    <ql:event>
     <ql:icon>://icons/48x48/Start.png</ql:icon>
     <ql:time>2020-07-30T14:58:15.757Z</ql:time>
     <ql:comment>Erstversion.</ql:comment>
    </ql:event>
    <ql:event>
     <ql:icon>://icons/48x48/WptEditProx.png</ql:icon>
     <ql:time>2020-07-30T14:58:18.193Z</ql:time>
     <ql:comment>Abstandsalarm geändert</ql:comment>
    </ql:event>
    <ql:event>
     <ql:icon>://icons/48x48/WptMove.png</ql:icon>
     <ql:time>2020-07-30T14:58:25.507Z</ql:time>
     <ql:comment>Position geändert</ql:comment>
    </ql:event>
   </ql:history>
   <wptx1:WaypointExtension>
    <wptx1:Proximity>10.00000000</wptx1:Proximity>
   </wptx1:WaypointExtension>
  </extensions>
 </wpt>
 <wpt lat="51.07081667" lon="13.59826667">
  <ele>255</ele>
  <time>2020-07-30T14:59:09.697Z</time>
  <name>Wegpunkt 5 Links</name>
  <sym>Flag, Blue</sym>
  <extensions>
   <ql:key>a1eac4d0fb87a5d73046e8930f7d0cb3</ql:key>
   <ql:flags>3</ql:flags>
   <ql:bubble yoff="-150" xoff="-320" width="300"/>
   <ql:history>
    <ql:event>
     <ql:icon>://icons/48x48/Start.png</ql:icon>
     <ql:time>2020-07-30T14:59:09.698Z</ql:time>
     <ql:comment>Erstversion.</ql:comment>
    </ql:event>
    <ql:event>
     <ql:icon>://icons/48x48/WptEditProx.png</ql:icon>
     <ql:time>2020-07-30T14:59:11.991Z</ql:time>
     <ql:comment>Abstandsalarm geändert</ql:comment>
    </ql:event>
   </ql:history>
   <wptx1:WaypointExtension>
    <wptx1:Proximity>10.00000000</wptx1:Proximity>
   </wptx1:WaypointExtension>
  </extensions>
 </wpt>
 <wpt lat="51.05748333" lon="13.59016667">
  <ele>282</ele>
  <time>2020-07-30T15:00:18.528Z</time>
  <name>Wegpunkt 6 Links</name>
  <sym>Flag, Blue</sym>
  <extensions>
   <ql:key>850f69dc326a41b9fe166020dce28d4c</ql:key>
   <ql:flags>3</ql:flags>
   <ql:bubble yoff="-150" xoff="-320" width="300"/>
   <ql:history>
    <ql:event>
     <ql:icon>://icons/48x48/Start.png</ql:icon>
     <ql:time>2020-07-30T15:00:18.529Z</ql:time>
     <ql:comment>Erstversion.</ql:comment>
    </ql:event>
    <ql:event>
     <ql:icon>://icons/48x48/WptEditProx.png</ql:icon>
     <ql:time>2020-07-30T15:00:20.877Z</ql:time>
     <ql:comment>Abstandsalarm geändert</ql:comment>
    </ql:event>
   </ql:history>
   <wptx1:WaypointExtension>
    <wptx1:Proximity>10.00000000</wptx1:Proximity>
   </wptx1:WaypointExtension>
  </extensions>
 </wpt>
 <wpt lat="51.05516667" lon="13.59381667">
  <ele>299</ele>
  <time>2020-07-30T15:01:27.325Z</time>
  <name>Wegpunkt 7 Links</name>
  <sym>Flag, Blue</sym>
  <extensions>
   <ql:key>7daa0fe5c3460c1bcf724c3041026755</ql:key>
   <ql:flags>3</ql:flags>
   <ql:bubble yoff="-150" xoff="-320" width="300"/>
   <ql:history>
    <ql:event>
     <ql:icon>://icons/48x48/Start.png</ql:icon>
     <ql:time>2020-07-30T15:01:27.325Z</ql:time>
     <ql:comment>Erstversion.</ql:comment>
    </ql:event>
    <ql:event>
     <ql:icon>://icons/48x48/WptEditProx.png</ql:icon>
     <ql:time>2020-07-30T15:01:31.162Z</ql:time>
     <ql:comment>Abstandsalarm geändert</ql:comment>
    </ql:event>
   </ql:history>
   <wptx1:WaypointExtension>
    <wptx1:Proximity>10.00000000</wptx1:Proximity>
   </wptx1:WaypointExtension>
  </extensions>
 </wpt>
 <wpt lat="51.05105000" lon="13.58915000">
  <ele>312</ele>
  <time>2020-07-30T15:02:50.283Z</time>
  <name>Wegpunkt 8 Rechts</name>
  <sym>Flag, Blue</sym>
  <extensions>
   <ql:key>7b00f4270269d51e98984ee6f3a6de02</ql:key>
   <ql:flags>3</ql:flags>
   <ql:bubble yoff="-150" xoff="-320" width="300"/>
   <ql:history>
    <ql:event>
     <ql:icon>://icons/48x48/Start.png</ql:icon>
     <ql:time>2020-07-30T15:02:50.283Z</ql:time>
     <ql:comment>Erstversion.</ql:comment>
    </ql:event>
    <ql:event>
     <ql:icon>://icons/48x48/WptEditProx.png</ql:icon>
     <ql:time>2020-07-30T15:02:53.916Z</ql:time>
     <ql:comment>Abstandsalarm geändert</ql:comment>
    </ql:event>
   </ql:history>
   <wptx1:WaypointExtension>
    <wptx1:Proximity>10.00000000</wptx1:Proximity>
   </wptx1:WaypointExtension>
  </extensions>
 </wpt>
 <wpt lat="51.05066667" lon="13.58828333">
  <ele>310</ele>
  <time>2020-07-30T15:03:50.421Z</time>
  <name>Wegpunkt 9 Hier</name>
  <sym>Flag, Blue</sym>
  <extensions>
   <ql:key>0b8915e13bc06aefd3f637ab3ebedf01</ql:key>
   <ql:flags>3</ql:flags>
   <ql:bubble yoff="-150" xoff="-320" width="300"/>
   <ql:history>
    <ql:event>
     <ql:icon>://icons/48x48/Start.png</ql:icon>
     <ql:time>2020-07-30T15:03:50.421Z</ql:time>
     <ql:comment>Erstversion.</ql:comment>
    </ql:event>
    <ql:event>
     <ql:icon>://icons/48x48/WptEditProx.png</ql:icon>
     <ql:time>2020-07-30T15:03:53.047Z</ql:time>
     <ql:comment>Abstandsalarm geändert</ql:comment>
    </ql:event>
   </ql:history>
   <wptx1:WaypointExtension>
    <wptx1:Proximity>10.00000000</wptx1:Proximity>
   </wptx1:WaypointExtension>
  </extensions>
 </wpt>
 <wpt lat="51.04660000" lon="13.61276667">
  <ele>268</ele>
  <time>2020-07-30T15:04:52.485Z</time>
  <name>Wegpunkt 10 Voraus</name>
  <sym>Flag, Blue</sym>
  <extensions>
   <ql:key>7e170a3121f953183eaa8bc92e8cb3c0</ql:key>
   <ql:flags>3</ql:flags>
   <ql:bubble yoff="-150" xoff="-320" width="300"/>
   <ql:history>
    <ql:event>
     <ql:icon>://icons/48x48/Start.png</ql:icon>
     <ql:time>2020-07-30T15:04:52.485Z</ql:time>
     <ql:comment>Erstversion.</ql:comment>
    </ql:event>
    <ql:event>
     <ql:icon>://icons/48x48/WptEditProx.png</ql:icon>
     <ql:time>2020-07-30T15:04:55.319Z</ql:time>
     <ql:comment>Abstandsalarm geändert</ql:comment>
    </ql:event>
   </ql:history>
   <wptx1:WaypointExtension>
    <wptx1:Proximity>10.00000000</wptx1:Proximity>
   </wptx1:WaypointExtension>
  </extensions>
 </wpt>
 <trk>
  <name>Track</name>
  <extensions>
   <ql:key>b84c2c1a2ddd38526ee4137ae1bd1be7</ql:key>
   <ql:flags>5</ql:flags>
   <ql:history>
    <ql:event>
     <ql:icon>://icons/48x48/Start.png</ql:icon>
     <ql:time>2020-06-30T05:26:05.046Z</ql:time>
     <ql:comment>Erstversion.</ql:comment>
    </ql:event>
    <ql:event>
     <ql:icon>://icons/48x48/ActFoot.png</ql:icon>
     <ql:time>2020-06-30T16:42:33.300Z</ql:time>
     <ql:comment>Die Aktivität wurde für den gesamten Track auf 'Fußgänger' geändert.</ql:comment>
    </ql:event>
   </ql:history>
   <gpxx:TrackExtension>
    <gpxx:DisplayColor>DarkBlue</gpxx:DisplayColor>
   </gpxx:TrackExtension>
  </extensions>
  <trkseg>
   <trkpt lat="51.09368987" lon="13.60549991">
    <ele>109</ele>
    <extensions>
     <ql:flags>2147483648</ql:flags>
    </extensions>
   </trkpt>
   <trkpt lat="51.09389086" lon="13.60536848">
    <ele>108</ele>
    <extensions>
     <ql:flags>2147483648</ql:flags>
    </extensions>
   </trkpt>
   <trkpt lat="51.09400034" lon="13.60532284">
    <ele>108</ele>
    <extensions>
     <ql:flags>2147483656</ql:flags>
    </extensions>
   </trkpt>
   <trkpt lat="51.09410763" lon="13.60525846">
    <ele>108</ele>
    <extensions>
     <ql:flags>2147483656</ql:flags>
    </extensions>
   </trkpt>
   <trkpt lat="51.09419346" lon="13.60519409">
    <ele>108</ele>
    <extensions>
     <ql:flags>2147483656</ql:flags>
    </extensions>
   </trkpt>
   <trkpt lat="51.09423637" lon="13.60506535">
    <ele>108</ele>
    <extensions>
     <ql:flags>2147483656</ql:flags>
    </extensions>
   </trkpt>
   <trkpt lat="51.09425907" lon="13.60498224">
    <ele>108</ele>
    <extensions>
     <ql:flags>2147483648</ql:flags>
    </extensions>
   </trkpt>
   <trkpt lat="51.09425783" lon="13.60491514">
    <ele>108</ele>
    <extensions>
     <ql:flags>2147483656</ql:flags>
    </extensions>
   </trkpt>
   <trkpt lat="51.09417200" lon="13.60478640">
    <ele>108</ele>
    <extensions>
     <ql:flags>2147483656</ql:flags>
    </extensions>
   </trkpt>
   <trkpt lat="51.09380725" lon="13.60431839">
    <ele>112</ele>
    <extensions>
     <ql:flags>2147483648</ql:flags>
    </extensions>
   </trkpt>
   <trkpt lat="51.09344244" lon="13.60382080">
    <ele>119</ele>
    <extensions>
     <ql:flags>2147483656</ql:flags>
    </extensions>
   </trkpt>
   <trkpt lat="51.09339952" lon="13.60373497">
    <ele>120</ele>
    <extensions>
     <ql:flags>2147483656</ql:flags>
    </extensions>
   </trkpt>
   <trkpt lat="51.09336050" lon="13.60369746">
    <ele>121</ele>
    <extensions>
     <ql:flags>2147483648</ql:flags>
    </extensions>
   </trkpt>
   <trkpt lat="51.09325240" lon="13.60362772">
    <ele>122</ele>
    <extensions>
     <ql:flags>2147483648</ql:flags>
    </extensions>
   </trkpt>
   <trkpt lat="51.09318653" lon="13.60356469">
    <ele>123</ele>
    <extensions>
     <ql:flags>2147483648</ql:flags>
    </extensions>
   </trkpt>
   <trkpt lat="51.09264851" lon="13.60287666">
    <ele>132</ele>
    <extensions>
     <ql:flags>2147483656</ql:flags>
    </extensions>
   </trkpt>
   <trkpt lat="51.09256268" lon="13.60274792">
    <ele>133</ele>
    <extensions>
     <ql:flags>2147483656</ql:flags>
    </extensions>
   </trkpt>
   <trkpt lat="51.09245539" lon="13.60251188">
    <ele>134</ele>
    <extensions>
     <ql:flags>2147483656</ql:flags>
    </extensions>
   </trkpt>
   <trkpt lat="51.09226227" lon="13.60197544">
    <ele>138</ele>
    <extensions>
     <ql:flags>2147483656</ql:flags>
    </extensions>
   </trkpt>
   <trkpt lat="51.09219790" lon="13.60184669">
    <ele>139</ele>
    <extensions>
     <ql:flags>2147483656</ql:flags>
    </extensions>
   </trkpt>
   <trkpt lat="51.09207089" lon="13.60172067">
    <ele>141</ele>
    <extensions>
     <ql:flags>2147483648</ql:flags>
    </extensions>
   </trkpt>
   <trkpt lat="51.09183311" lon="13.60113859">
    <ele>147</ele>
    <extensions>
     <ql:flags>2147483656</ql:flags>
    </extensions>
   </trkpt>
   <trkpt lat="51.09177192" lon="13.60103269">
    <ele>149</ele>
    <extensions>
     <ql:flags>2147483648</ql:flags>
    </extensions>
   </trkpt>
   <trkpt lat="51.09176874" lon="13.60103130">
    <ele>149</ele>
    <extensions>
     <ql:flags>2147483656</ql:flags>
    </extensions>
   </trkpt>
   <trkpt lat="51.09172583" lon="13.60090256">
    <ele>151</ele>
    <extensions>
     <ql:flags>2147483656</ql:flags>
    </extensions>
   </trkpt>
   <trkpt lat="51.09168291" lon="13.60068798">
    <ele>154</ele>
    <extensions>
     <ql:flags>2147483656</ql:flags>
    </extensions>
   </trkpt>
   <trkpt lat="51.09168291" lon="13.60049486">
    <ele>155</ele>
    <extensions>
     <ql:flags>2147483656</ql:flags>
    </extensions>
   </trkpt>
   <trkpt lat="51.09170437" lon="13.60034466">
    <ele>155</ele>
    <extensions>
     <ql:flags>2147483656</ql:flags>
    </extensions>
   </trkpt>
   <trkpt lat="51.09170437" lon="13.60021591">
    <ele>155</ele>
    <extensions>
     <ql:flags>2147483656</ql:flags>
    </extensions>
   </trkpt>
   <trkpt lat="51.09166298" lon="13.59992225">
    <ele>157</ele>
    <extensions>
     <ql:flags>2147483648</ql:flags>
    </extensions>
   </trkpt>
   <trkpt lat="51.09140396" lon="13.59920740">
    <ele>165</ele>
    <extensions>
     <ql:flags>2147483656</ql:flags>
    </extensions>
   </trkpt>
   <trkpt lat="51.09133959" lon="13.59892845">
    <ele>164</ele>
    <extensions>
     <ql:flags>2147483656</ql:flags>
    </extensions>
   </trkpt>
   <trkpt lat="51.09127522" lon="13.59873533">
    <ele>164</ele>
    <extensions>
     <ql:flags>2147483656</ql:flags>
    </extensions>
   </trkpt>
   <trkpt lat="51.09112501" lon="13.59849930">
    <ele>163</ele>
    <extensions>
     <ql:flags>2147483656</ql:flags>
    </extensions>
   </trkpt>
   <trkpt lat="51.09097481" lon="13.59832764">
    <ele>163</ele>
    <extensions>
     <ql:flags>2147483656</ql:flags>
    </extensions>
   </trkpt>
   <trkpt lat="51.09082460" lon="13.59819889">
    <ele>164</ele>
    <extensions>
     <ql:flags>2147483656</ql:flags>
    </extensions>
   </trkpt>
   <trkpt lat="51.09076023" lon="13.59817743">
    <ele>165</ele>
    <extensions>
     <ql:flags>2147483656</ql:flags>
    </extensions>
   </trkpt>
   <trkpt lat="51.09035254" lon="13.59817743">
    <ele>172</ele>
    <extensions>
     <ql:flags>2147483656</ql:flags>
    </extensions>
   </trkpt>
   <trkpt lat="51.09013796" lon="13.59811306">
    <ele>170</ele>
    <extensions>
     <ql:flags>2147483656</ql:flags>
    </extensions>
   </trkpt>
   <trkpt lat="51.08977318" lon="13.59813452">
    <ele>169</ele>
    <extensions>
     <ql:flags>2147483656</ql:flags>
    </extensions>
   </trkpt>
   <trkpt lat="51.08932257" lon="13.59798431">
    <ele>168</ele>
    <extensions>
     <ql:flags>2147483656</ql:flags>
    </extensions>
   </trkpt>
   <trkpt lat="51.08925819" lon="13.59791994">
    <ele>167</ele>
    <extensions>
     <ql:flags>2147483656</ql:flags>
    </extensions>
   </trkpt>
   <trkpt lat="51.08917236" lon="13.59796286">
    <ele>168</ele>
    <extensions>
     <ql:flags>2147483656</ql:flags>
    </extensions>
   </trkpt>
   <trkpt lat="51.08893633" lon="13.59852076">
    <ele>169</ele>
    <extensions>
     <ql:flags>2147483656</ql:flags>
    </extensions>
   </trkpt>
   <trkpt lat="51.08865738" lon="13.59899282">
    <ele>168</ele>
    <extensions>
     <ql:flags>2147483656</ql:flags>
    </extensions>
   </trkpt>
   <trkpt lat="51.08844280" lon="13.59944344">
    <ele>174</ele>
    <extensions>
     <ql:flags>2147483656</ql:flags>
    </extensions>
   </trkpt>
   <trkpt lat="51.08835697" lon="13.59952927">
    <ele>176</ele>
    <extensions>
     <ql:flags>2147483656</ql:flags>
    </extensions>
   </trkpt>
   <trkpt lat="51.08807802" lon="13.59967947">
    <ele>182</ele>
    <extensions>
     <ql:flags>2147483656</ql:flags>
    </extensions>
   </trkpt>
   <trkpt lat="51.08788490" lon="13.59963655">
    <ele>184</ele>
    <extensions>
     <ql:flags>2147483656</ql:flags>
    </extensions>
   </trkpt>
   <trkpt lat="51.08758450" lon="13.59946489">
    <ele>189</ele>
    <extensions>
     <ql:flags>2147483656</ql:flags>
    </extensions>
   </trkpt>
   <trkpt lat="51.08713388" lon="13.59903574">
    <ele>191</ele>
    <extensions>
     <ql:flags>2147483656</ql:flags>
    </extensions>
   </trkpt>
   <trkpt lat="51.08698474" lon="13.59895129">
    <ele>191</ele>
    <extensions>
     <ql:flags>2147483648</ql:flags>
    </extensions>
   </trkpt>
   <trkpt lat="51.08670473" lon="13.59877825">
    <ele>186</ele>
    <extensions>
     <ql:flags>2147483656</ql:flags>
    </extensions>
   </trkpt>
   <trkpt lat="51.08616829" lon="13.59852076">
    <ele>185</ele>
    <extensions>
     <ql:flags>2147483656</ql:flags>
    </extensions>
   </trkpt>
   <trkpt lat="51.08597517" lon="13.59858513">
    <ele>188</ele>
    <extensions>
     <ql:flags>2147483656</ql:flags>
    </extensions>
   </trkpt>
   <trkpt lat="51.08584642" lon="13.59879971">
    <ele>191</ele>
    <extensions>
     <ql:flags>2147483656</ql:flags>
    </extensions>
   </trkpt>
   <trkpt lat="51.08559022" lon="13.59903578">
    <ele>198</ele>
    <extensions>
     <ql:flags>2147483648</ql:flags>
    </extensions>
   </trkpt>
   <trkpt lat="51.08554602" lon="13.59899282">
    <ele>197</ele>
    <extensions>
     <ql:flags>2147483656</ql:flags>
    </extensions>
   </trkpt>
   <trkpt lat="51.08533144" lon="13.59879971">
    <ele>199</ele>
    <extensions>
     <ql:flags>2147483656</ql:flags>
    </extensions>
   </trkpt>
   <trkpt lat="51.08528614" lon="13.59875415">
    <ele>200</ele>
    <extensions>
     <ql:flags>2147483648</ql:flags>
    </extensions>
   </trkpt>
   <trkpt lat="51.08520269" lon="13.59864950">
    <ele>202</ele>
    <extensions>
     <ql:flags>2147483656</ql:flags>
    </extensions>
   </trkpt>
   <trkpt lat="51.08513832" lon="13.59839201">
    <ele>202</ele>
    <extensions>
     <ql:flags>2147483656</ql:flags>
    </extensions>
   </trkpt>
   <trkpt lat="51.08492374" lon="13.59824181">
    <ele>207</ele>
    <extensions>
     <ql:flags>2147483656</ql:flags>
    </extensions>
   </trkpt>
   <trkpt lat="51.08477354" lon="13.59811306">
    <ele>211</ele>
    <extensions>
     <ql:flags>2147483656</ql:flags>
    </extensions>
   </trkpt>
   <trkpt lat="51.08445168" lon="13.59768391">
    <ele>213</ele>
    <extensions>
     <ql:flags>2147483656</ql:flags>
    </extensions>
   </trkpt>
   <trkpt lat="51.08428001" lon="13.59729767">
    <ele>211</ele>
    <extensions>
     <ql:flags>2147483656</ql:flags>
    </extensions>
   </trkpt>
   <trkpt lat="51.08378649" lon="13.59682560">
    <ele>217</ele>
    <extensions>
     <ql:flags>2147483656</ql:flags>
    </extensions>
   </trkpt>
   <trkpt lat="51.08367920" lon="13.59633207">
    <ele>212</ele>
    <extensions>
     <ql:flags>2147483656</ql:flags>
    </extensions>
   </trkpt>
   <trkpt lat="51.08331442" lon="13.59560251">
    <ele>210</ele>
    <extensions>
     <ql:flags>2147483656</ql:flags>
    </extensions>
   </trkpt>
   <trkpt lat="51.08320713" lon="13.59566689">
    <ele>213</ele>
    <extensions>
     <ql:flags>2147483656</ql:flags>
    </extensions>
   </trkpt>
   <trkpt lat="51.08303547" lon="13.59553814">
    <ele>214</ele>
    <extensions>
     <ql:flags>2147483656</ql:flags>
    </extensions>
   </trkpt>
   <trkpt lat="51.08279943" lon="13.59540939">
    <ele>215</ele>
    <extensions>
     <ql:flags>2147483656</ql:flags>
    </extensions>
   </trkpt>
   <trkpt lat="51.08254194" lon="13.59534502">
    <ele>216</ele>
    <extensions>
     <ql:flags>2147483656</ql:flags>
    </extensions>
   </trkpt>
   <trkpt lat="51.08247757" lon="13.59502316">
    <ele>213</ele>
    <extensions>
     <ql:flags>2147483656</ql:flags>
    </extensions>
   </trkpt>
   <trkpt lat="51.08241320" lon="13.59495878">
    <ele>213</ele>
    <extensions>
     <ql:flags>2147483656</ql:flags>
    </extensions>
   </trkpt>
   <trkpt lat="51.08224154" lon="13.59500170">
    <ele>214</ele>
    <extensions>
     <ql:flags>2147483656</ql:flags>
    </extensions>
   </trkpt>
   <trkpt lat="51.08219862" lon="13.59504461">
    <ele>215</ele>
    <extensions>
     <ql:flags>2147483656</ql:flags>
    </extensions>
   </trkpt>
   <trkpt lat="51.08189821" lon="13.59515190">
    <ele>219</ele>
    <extensions>
     <ql:flags>2147483656</ql:flags>
    </extensions>
   </trkpt>
   <trkpt lat="51.08181238" lon="13.59508753">
    <ele>220</ele>
    <extensions>
     <ql:flags>2147483656</ql:flags>
    </extensions>
   </trkpt>
   <trkpt lat="51.08172655" lon="13.59493732">
    <ele>220</ele>
    <extensions>
     <ql:flags>2147483656</ql:flags>
    </extensions>
   </trkpt>
   <trkpt lat="51.08166218" lon="13.59450817">
    <ele>217</ele>
    <extensions>
     <ql:flags>2147483656</ql:flags>
    </extensions>
   </trkpt>
   <trkpt lat="51.08157635" lon="13.59427214">
    <ele>218</ele>
    <extensions>
     <ql:flags>2147483656</ql:flags>
    </extensions>
   </trkpt>
   <trkpt lat="51.08138323" lon="13.59401464">
    <ele>219</ele>
    <extensions>
     <ql:flags>2147483656</ql:flags>
    </extensions>
   </trkpt>
   <trkpt lat="51.08127594" lon="13.59395027">
    <ele>220</ele>
    <extensions>
     <ql:flags>2147483656</ql:flags>
    </extensions>
   </trkpt>
   <trkpt lat="51.08112574" lon="13.59390736">
    <ele>222</ele>
    <extensions>
     <ql:flags>2147483656</ql:flags>
    </extensions>
   </trkpt>
   <trkpt lat="51.08088772" lon="13.59386582">
    <ele>225</ele>
    <extensions>
     <ql:flags>2147483648</ql:flags>
    </extensions>
   </trkpt>
   <trkpt lat="51.08035326" lon="13.59343529">
    <ele>226</ele>
    <extensions>
     <ql:flags>2147483656</ql:flags>
    </extensions>
   </trkpt>
   <trkpt lat="51.08013868" lon="13.59330654">
    <ele>225</ele>
    <extensions>
     <ql:flags>2147483656</ql:flags>
    </extensions>
   </trkpt>
   <trkpt lat="51.07990265" lon="13.59324217">
    <ele>225</ele>
    <extensions>
     <ql:flags>2147483656</ql:flags>
    </extensions>
   </trkpt>
   <trkpt lat="51.07970953" lon="13.59334946">
    <ele>227</ele>
    <extensions>
     <ql:flags>2147483656</ql:flags>
    </extensions>
   </trkpt>
   <trkpt lat="51.07951641" lon="13.59339237">
    <ele>228</ele>
    <extensions>
     <ql:flags>2147483656</ql:flags>
    </extensions>
   </trkpt>
   <trkpt lat="51.07928038" lon="13.59311342">
    <ele>229</ele>
    <extensions>
     <ql:flags>2147483656</ql:flags>
    </extensions>
   </trkpt>
   <trkpt lat="51.07919455" lon="13.59285593">
    <ele>229</ele>
    <extensions>
     <ql:flags>2147483656</ql:flags>
    </extensions>
   </trkpt>
   <trkpt lat="51.07917309" lon="13.59259844">
    <ele>229</ele>
    <extensions>
     <ql:flags>2147483656</ql:flags>
    </extensions>
   </trkpt>
   <trkpt lat="51.07921339" lon="13.59247644">
    <ele>229</ele>
    <extensions>
     <ql:flags>2147483648</ql:flags>
    </extensions>
   </trkpt>
   <trkpt lat="51.07921600" lon="13.59244823">
    <ele>229</ele>
    <extensions>
     <ql:flags>2147483656</ql:flags>
    </extensions>
   </trkpt>
   <trkpt lat="51.07923746" lon="13.59221220">
    <ele>228</ele>
    <extensions>
     <ql:flags>2147483656</ql:flags>
    </extensions>
   </trkpt>
   <trkpt lat="51.07923746" lon="13.59176159">
    <ele>229</ele>
    <extensions>
     <ql:flags>2147483656</ql:flags>
    </extensions>
   </trkpt>
   <trkpt lat="51.07930462" lon="13.59132845">
    <ele>229</ele>
    <extensions>
     <ql:flags>2147483648</ql:flags>
    </extensions>
   </trkpt>
   <trkpt lat="51.07947350" lon="13.59053850">
    <ele>228</ele>
    <extensions>
     <ql:flags>2147483656</ql:flags>
    </extensions>
   </trkpt>
   <trkpt lat="51.07951641" lon="13.59017372">
    <ele>228</ele>
    <extensions>
     <ql:flags>2147483656</ql:flags>
    </extensions>
   </trkpt>
   <trkpt lat="51.07932329" lon="13.58970165">
    <ele>228</ele>
    <extensions>
     <ql:flags>2147483656</ql:flags>
    </extensions>
   </trkpt>
   <trkpt lat="51.07904434" lon="13.58959436">
    <ele>227</ele>
    <extensions>
     <ql:flags>2147483656</ql:flags>
    </extensions>
   </trkpt>
   <trkpt lat="51.07878685" lon="13.58972311">
    <ele>228</ele>
    <extensions>
     <ql:flags>2147483656</ql:flags>
    </extensions>
   </trkpt>
   <trkpt lat="51.07857227" lon="13.58987331">
    <ele>232</ele>
    <extensions>
     <ql:flags>2147483656</ql:flags>
    </extensions>
   </trkpt>
   <trkpt lat="51.07840061" lon="13.58987331">
    <ele>234</ele>
    <extensions>
     <ql:flags>2147483656</ql:flags>
    </extensions>
   </trkpt>
   <trkpt lat="51.07833624" lon="13.58983040">
    <ele>234</ele>
    <extensions>
     <ql:flags>2147483656</ql:flags>
    </extensions>
   </trkpt>
   <trkpt lat="51.07831478" lon="13.58978748">
    <ele>234</ele>
    <extensions>
     <ql:flags>2147483656</ql:flags>
    </extensions>
   </trkpt>
   <trkpt lat="51.07820749" lon="13.58961582">
    <ele>235</ele>
    <extensions>
     <ql:flags>2147483656</ql:flags>
    </extensions>
   </trkpt>
   <trkpt lat="51.07792854" lon="13.58944416">
    <ele>239</ele>
    <extensions>
     <ql:flags>2147483656</ql:flags>
    </extensions>
   </trkpt>
   <trkpt lat="51.07762814" lon="13.58901501">
    <ele>242</ele>
    <extensions>
     <ql:flags>2147483656</ql:flags>
    </extensions>
   </trkpt>
   <trkpt lat="51.07749939" lon="13.58850002">
    <ele>243</ele>
    <extensions>
     <ql:flags>2147483656</ql:flags>
    </extensions>
   </trkpt>
   <trkpt lat="51.07722044" lon="13.58813524">
    <ele>244</ele>
    <extensions>
     <ql:flags>2147483656</ql:flags>
    </extensions>
   </trkpt>
   <trkpt lat="51.07689857" lon="13.58792067">
    <ele>244</ele>
    <extensions>
     <ql:flags>2147483656</ql:flags>
    </extensions>
   </trkpt>
   <trkpt lat="51.07649088" lon="13.58779192">
    <ele>245</ele>
    <extensions>
     <ql:flags>2147483656</ql:flags>
    </extensions>
   </trkpt>
   <trkpt lat="51.07629776" lon="13.58809233">
    <ele>245</ele>
    <extensions>
     <ql:flags>2147483656</ql:flags>
    </extensions>
   </trkpt>
   <trkpt lat="51.07610464" lon="13.58862877">
    <ele>247</ele>
    <extensions>
     <ql:flags>2147483656</ql:flags>
    </extensions>
   </trkpt>
   <trkpt lat="51.07597589" lon="13.58877897">
    <ele>248</ele>
    <extensions>
     <ql:flags>2147483656</ql:flags>
    </extensions>
   </trkpt>
   <trkpt lat="51.07573986" lon="13.58890772">
    <ele>249</ele>
    <extensions>
     <ql:flags>2147483656</ql:flags>
    </extensions>
   </trkpt>
   <trkpt lat="51.07552528" lon="13.58892918">
    <ele>251</ele>
    <extensions>
     <ql:flags>2147483656</ql:flags>
    </extensions>
   </trkpt>
   <trkpt lat="51.07533216" lon="13.58903646">
    <ele>251</ele>
    <extensions>
     <ql:flags>2147483656</ql:flags>
    </extensions>
   </trkpt>
   <trkpt lat="51.07513905" lon="13.58905792">
    <ele>250</ele>
    <extensions>
     <ql:flags>2147483656</ql:flags>
    </extensions>
   </trkpt>
   <trkpt lat="51.07486010" lon="13.58897209">
    <ele>249</ele>
    <extensions>
     <ql:flags>2147483656</ql:flags>
    </extensions>
   </trkpt>
   <trkpt lat="51.07460260" lon="13.58895063">
    <ele>248</ele>
    <extensions>
     <ql:flags>2147483656</ql:flags>
    </extensions>
   </trkpt>
   <trkpt lat="51.07428074" lon="13.58905792">
    <ele>249</ele>
    <extensions>
     <ql:flags>2147483656</ql:flags>
    </extensions>
   </trkpt>
   <trkpt lat="51.07408762" lon="13.58920813">
    <ele>249</ele>
    <extensions>
     <ql:flags>2147483656</ql:flags>
    </extensions>
   </trkpt>
   <trkpt lat="51.07363701" lon="13.58968019">
    <ele>251</ele>
    <extensions>
     <ql:flags>2147483656</ql:flags>
    </extensions>
   </trkpt>
   <trkpt lat="51.07307911" lon="13.58922958">
    <ele>253</ele>
    <extensions>
     <ql:flags>2147483656</ql:flags>
    </extensions>
   </trkpt>
   <trkpt lat="51.07269287" lon="13.58912230">
    <ele>252</ele>
    <extensions>
     <ql:flags>2147483656</ql:flags>
    </extensions>
   </trkpt>
   <trkpt lat="51.07215643" lon="13.58927250">
    <ele>250</ele>
    <extensions>
     <ql:flags>2147483656</ql:flags>
    </extensions>
   </trkpt>
   <trkpt lat="51.07194185" lon="13.58942270">
    <ele>250</ele>
    <extensions>
     <ql:flags>2147483656</ql:flags>
    </extensions>
   </trkpt>
   <trkpt lat="51.07175080" lon="13.58961586">
    <ele>252</ele>
    <extensions>
     <ql:flags>2147483648</ql:flags>
    </extensions>
   </trkpt>
   <trkpt lat="51.07177019" lon="13.58983040">
    <ele>253</ele>
    <extensions>
     <ql:flags>2147483656</ql:flags>
    </extensions>
   </trkpt>
   <trkpt lat="51.07172728" lon="13.59002352">
    <ele>255</ele>
    <extensions>
     <ql:flags>2147483656</ql:flags>
    </extensions>
   </trkpt>
   <trkpt lat="51.07170602" lon="13.59100793">
    <ele>258</ele>
    <extensions>
     <ql:flags>2147483648</ql:flags>
    </extensions>
   </trkpt>
   <trkpt lat="51.07161999" lon="13.59504461">
    <ele>259</ele>
    <extensions>
     <ql:flags>2147483656</ql:flags>
    </extensions>
   </trkpt>
   <trkpt lat="51.07159853" lon="13.59525919">
    <ele>259</ele>
    <extensions>
     <ql:flags>2147483656</ql:flags>
    </extensions>
   </trkpt>
   <trkpt lat="51.07155561" lon="13.59528065">
    <ele>259</ele>
    <extensions>
     <ql:flags>2147483656</ql:flags>
    </extensions>
   </trkpt>
   <trkpt lat="51.07151270" lon="13.59534502">
    <ele>259</ele>
    <extensions>
     <ql:flags>2147483656</ql:flags>
    </extensions>
   </trkpt>
   <trkpt lat="51.07149479" lon="13.59540541">
    <ele>259</ele>
    <extensions>
     <ql:flags>2147483648</ql:flags>
    </extensions>
   </trkpt>
   <trkpt lat="51.07155056" lon="13.59543089">
    <ele>259</ele>
    <extensions>
     <ql:flags>2147483648</ql:flags>
    </extensions>
   </trkpt>
  </trkseg>
  <trkseg>
   <trkpt lat="51.07155563" lon="13.59542687">
    <ele>259</ele>
    <extensions>
     <ql:flags>2147483648</ql:flags>
    </extensions>
   </trkpt>
   <trkpt lat="51.07151270" lon="13.59553814">
    <ele>259</ele>
    <extensions>
     <ql:flags>2147483656</ql:flags>
    </extensions>
   </trkpt>
   <trkpt lat="51.07149124" lon="13.59558105">
    <ele>259</ele>
    <extensions>
     <ql:flags>2147483656</ql:flags>
    </extensions>
   </trkpt>
   <trkpt lat="51.07146978" lon="13.59575272">
    <ele>258</ele>
    <extensions>
     <ql:flags>2147483656</ql:flags>
    </extensions>
   </trkpt>
   <trkpt lat="51.07140541" lon="13.59586000">
    <ele>258</ele>
    <extensions>
     <ql:flags>2147483656</ql:flags>
    </extensions>
   </trkpt>
   <trkpt lat="51.07134524" lon="13.59589894">
    <ele>258</ele>
    <extensions>
     <ql:flags>2147483648</ql:flags>
    </extensions>
   </trkpt>
   <trkpt lat="51.07134104" lon="13.59590292">
    <ele>258</ele>
    <extensions>
     <ql:flags>2147483656</ql:flags>
    </extensions>
   </trkpt>
   <trkpt lat="51.07123375" lon="13.59611750">
    <ele>258</ele>
    <extensions>
     <ql:flags>2147483656</ql:flags>
    </extensions>
   </trkpt>
   <trkpt lat="51.07119083" lon="13.59626770">
    <ele>258</ele>
    <extensions>
     <ql:flags>2147483656</ql:flags>
    </extensions>
   </trkpt>
   <trkpt lat="51.07086897" lon="13.59798431">
    <ele>256</ele>
    <extensions>
     <ql:flags>2147483656</ql:flags>
    </extensions>
   </trkpt>
   <trkpt lat="51.07080460" lon="13.59824181">
    <ele>255</ele>
    <extensions>
     <ql:flags>2147483656</ql:flags>
    </extensions>
   </trkpt>
   <trkpt lat="51.07069731" lon="13.59852076">
    <ele>254</ele>
    <extensions>
     <ql:flags>2147483656</ql:flags>
    </extensions>
   </trkpt>
   <trkpt lat="51.07052565" lon="13.59877825">
    <ele>253</ele>
    <extensions>
     <ql:flags>2147483656</ql:flags>
    </extensions>
   </trkpt>
   <trkpt lat="51.07041836" lon="13.59886408">
    <ele>253</ele>
    <extensions>
     <ql:flags>2147483656</ql:flags>
    </extensions>
   </trkpt>
   <trkpt lat="51.07028961" lon="13.59884262">
    <ele>253</ele>
    <extensions>
     <ql:flags>2147483656</ql:flags>
    </extensions>
   </trkpt>
   <trkpt lat="51.07016087" lon="13.59879971">
    <ele>254</ele>
    <extensions>
     <ql:flags>2147483656</ql:flags>
    </extensions>
   </trkpt>
   <trkpt lat="51.07005358" lon="13.59869242">
    <ele>255</ele>
    <extensions>
     <ql:flags>2147483656</ql:flags>
    </extensions>
   </trkpt>
   <trkpt lat="51.06990337" lon="13.59849930">
    <ele>256</ele>
    <extensions>
     <ql:flags>2147483656</ql:flags>
    </extensions>
   </trkpt>
   <trkpt lat="51.06977463" lon="13.59837055">
    <ele>256</ele>
    <extensions>
     <ql:flags>2147483656</ql:flags>
    </extensions>
   </trkpt>
   <trkpt lat="51.06968880" lon="13.59832764">
    <ele>256</ele>
    <extensions>
     <ql:flags>2147483656</ql:flags>
    </extensions>
   </trkpt>
   <trkpt lat="51.06958151" lon="13.59837055">
    <ele>257</ele>
    <extensions>
     <ql:flags>2147483656</ql:flags>
    </extensions>
   </trkpt>
   <trkpt lat="51.06951714" lon="13.59841347">
    <ele>257</ele>
    <extensions>
     <ql:flags>2147483656</ql:flags>
    </extensions>
   </trkpt>
   <trkpt lat="51.06938839" lon="13.59860659">
    <ele>257</ele>
    <extensions>
     <ql:flags>2147483656</ql:flags>
    </extensions>
   </trkpt>
   <trkpt lat="51.06930256" lon="13.59869242">
    <ele>257</ele>
    <extensions>
     <ql:flags>2147483656</ql:flags>
    </extensions>
   </trkpt>
   <trkpt lat="51.06921673" lon="13.59877825">
    <ele>257</ele>
    <extensions>
     <ql:flags>2147483656</ql:flags>
    </extensions>
   </trkpt>
   <trkpt lat="51.06913090" lon="13.59877825">
    <ele>256</ele>
    <extensions>
     <ql:flags>2147483656</ql:flags>
    </extensions>
   </trkpt>
   <trkpt lat="51.06906652" lon="13.59875679">
    <ele>256</ele>
    <extensions>
     <ql:flags>2147483656</ql:flags>
    </extensions>
   </trkpt>
   <trkpt lat="51.06893778" lon="13.59873533">
    <ele>256</ele>
    <extensions>
     <ql:flags>2147483656</ql:flags>
    </extensions>
   </trkpt>
   <trkpt lat="51.06865883" lon="13.59858513">
    <ele>256</ele>
    <extensions>
     <ql:flags>2147483656</ql:flags>
    </extensions>
   </trkpt>
   <trkpt lat="51.06855154" lon="13.59856367">
    <ele>255</ele>
    <extensions>
     <ql:flags>2147483656</ql:flags>
    </extensions>
   </trkpt>
   <trkpt lat="51.06827259" lon="13.59856367">
    <ele>255</ele>
    <extensions>
     <ql:flags>2147483656</ql:flags>
    </extensions>
   </trkpt>
   <trkpt lat="51.06814384" lon="13.59858513">
    <ele>255</ele>
    <extensions>
     <ql:flags>2147483656</ql:flags>
    </extensions>
   </trkpt>
   <trkpt lat="51.06805801" lon="13.59860659">
    <ele>255</ele>
    <extensions>
     <ql:flags>2147483656</ql:flags>
    </extensions>
   </trkpt>
   <trkpt lat="51.06777906" lon="13.59869242">
    <ele>254</ele>
    <extensions>
     <ql:flags>2147483656</ql:flags>
    </extensions>
   </trkpt>
   <trkpt lat="51.06767178" lon="13.59871387">
    <ele>254</ele>
    <extensions>
     <ql:flags>2147483656</ql:flags>
    </extensions>
   </trkpt>
   <trkpt lat="51.06756449" lon="13.59875679">
    <ele>254</ele>
    <extensions>
     <ql:flags>2147483656</ql:flags>
    </extensions>
   </trkpt>
   <trkpt lat="51.06741428" lon="13.59890699">
    <ele>255</ele>
    <extensions>
     <ql:flags>2147483656</ql:flags>
    </extensions>
   </trkpt>
   <trkpt lat="51.06730700" lon="13.59894991">
    <ele>255</ele>
    <extensions>
     <ql:flags>2147483656</ql:flags>
    </extensions>
   </trkpt>
   <trkpt lat="51.06719971" lon="13.59899282">
    <ele>255</ele>
    <extensions>
     <ql:flags>2147483656</ql:flags>
    </extensions>
   </trkpt>
   <trkpt lat="51.06683493" lon="13.59905720">
    <ele>256</ele>
    <extensions>
     <ql:flags>2147483656</ql:flags>
    </extensions>
   </trkpt>
   <trkpt lat="51.06670618" lon="13.59901428">
    <ele>256</ele>
    <extensions>
     <ql:flags>2147483656</ql:flags>
    </extensions>
   </trkpt>
   <trkpt lat="51.06634140" lon="13.59886408">
    <ele>256</ele>
    <extensions>
     <ql:flags>2147483656</ql:flags>
    </extensions>
   </trkpt>
   <trkpt lat="51.06625557" lon="13.59873533">
    <ele>256</ele>
    <extensions>
     <ql:flags>2147483656</ql:flags>
    </extensions>
   </trkpt>
   <trkpt lat="51.06616974" lon="13.59856367">
    <ele>256</ele>
    <extensions>
     <ql:flags>2147483656</ql:flags>
    </extensions>
   </trkpt>
   <trkpt lat="51.06612682" lon="13.59834909">
    <ele>256</ele>
    <extensions>
     <ql:flags>2147483656</ql:flags>
    </extensions>
   </trkpt>
   <trkpt lat="51.06608610" lon="13.59830890">
    <ele>256</ele>
    <extensions>
     <ql:flags>2147483648</ql:flags>
    </extensions>
   </trkpt>
   <trkpt lat="51.06608391" lon="13.59830618">
    <ele>256</ele>
    <extensions>
     <ql:flags>2147483656</ql:flags>
    </extensions>
   </trkpt>
   <trkpt lat="51.06636073" lon="13.59642331">
    <ele>260</ele>
    <extensions>
     <ql:flags>2147483648</ql:flags>
    </extensions>
   </trkpt>
   <trkpt lat="51.06614828" lon="13.59637499">
    <ele>260</ele>
    <extensions>
     <ql:flags>2147483656</ql:flags>
    </extensions>
   </trkpt>
   <trkpt lat="51.06582642" lon="13.59622478">
    <ele>260</ele>
    <extensions>
     <ql:flags>2147483656</ql:flags>
    </extensions>
   </trkpt>
   <trkpt lat="51.06552601" lon="13.59605312">
    <ele>259</ele>
    <extensions>
     <ql:flags>2147483656</ql:flags>
    </extensions>
   </trkpt>
   <trkpt lat="51.06492519" lon="13.59562397">
    <ele>260</ele>
    <extensions>
     <ql:flags>2147483656</ql:flags>
    </extensions>
   </trkpt>
   <trkpt lat="51.06449604" lon="13.59523773">
    <ele>261</ele>
    <extensions>
     <ql:flags>2147483656</ql:flags>
    </extensions>
   </trkpt>
   <trkpt lat="51.06374502" lon="13.59448671">
    <ele>263</ele>
    <extensions>
     <ql:flags>2147483656</ql:flags>
    </extensions>
   </trkpt>
   <trkpt lat="51.06333733" lon="13.59403610">
    <ele>263</ele>
    <extensions>
     <ql:flags>2147483656</ql:flags>
    </extensions>
   </trkpt>
   <trkpt lat="51.06299400" lon="13.59369278">
    <ele>263</ele>
    <extensions>
     <ql:flags>2147483656</ql:flags>
    </extensions>
   </trkpt>
   <trkpt lat="51.06269360" lon="13.59343529">
    <ele>264</ele>
    <extensions>
     <ql:flags>2147483656</ql:flags>
    </extensions>
   </trkpt>
   <trkpt lat="51.06204987" lon="13.59287739">
    <ele>267</ele>
    <extensions>
     <ql:flags>2147483656</ql:flags>
    </extensions>
   </trkpt>
   <trkpt lat="51.06099844" lon="13.59219074">
    <ele>271</ele>
    <extensions>
     <ql:flags>2147483656</ql:flags>
    </extensions>
   </trkpt>
   <trkpt lat="51.06050491" lon="13.59178305">
    <ele>275</ele>
    <extensions>
     <ql:flags>2147483656</ql:flags>
    </extensions>
   </trkpt>
   <trkpt lat="51.06014013" lon="13.59148264">
    <ele>276</ele>
    <extensions>
     <ql:flags>2147483656</ql:flags>
    </extensions>
   </trkpt>
   <trkpt lat="51.06003284" lon="13.59141827">
    <ele>276</ele>
    <extensions>
     <ql:flags>2147483656</ql:flags>
    </extensions>
   </trkpt>
   <trkpt lat="51.05986292" lon="13.59137673">
    <ele>276</ele>
    <extensions>
     <ql:flags>2147483648</ql:flags>
    </extensions>
   </trkpt>
   <trkpt lat="51.05977535" lon="13.59135389">
    <ele>277</ele>
    <extensions>
     <ql:flags>2147483656</ql:flags>
    </extensions>
   </trkpt>
   <trkpt lat="51.05966806" lon="13.59137535">
    <ele>277</ele>
    <extensions>
     <ql:flags>2147483656</ql:flags>
    </extensions>
   </trkpt>
   <trkpt lat="51.05960369" lon="13.59139681">
    <ele>277</ele>
    <extensions>
     <ql:flags>2147483656</ql:flags>
    </extensions>
   </trkpt>
   <trkpt lat="51.05943203" lon="13.59143972">
    <ele>277</ele>
    <extensions>
     <ql:flags>2147483656</ql:flags>
    </extensions>
   </trkpt>
   <trkpt lat="51.05930328" lon="13.59146118">
    <ele>277</ele>
    <extensions>
     <ql:flags>2147483656</ql:flags>
    </extensions>
   </trkpt>
   <trkpt lat="51.05913162" lon="13.59146118">
    <ele>277</ele>
    <extensions>
     <ql:flags>2147483656</ql:flags>
    </extensions>
   </trkpt>
   <trkpt lat="51.05904579" lon="13.59148264">
    <ele>277</ele>
    <extensions>
     <ql:flags>2147483656</ql:flags>
    </extensions>
   </trkpt>
   <trkpt lat="51.05876684" lon="13.59146118">
    <ele>277</ele>
    <extensions>
     <ql:flags>2147483656</ql:flags>
    </extensions>
   </trkpt>
   <trkpt lat="51.05870247" lon="13.59143972">
    <ele>277</ele>
    <extensions>
     <ql:flags>2147483656</ql:flags>
    </extensions>
   </trkpt>
   <trkpt lat="51.05853081" lon="13.59141827">
    <ele>278</ele>
    <extensions>
     <ql:flags>2147483656</ql:flags>
    </extensions>
   </trkpt>
   <trkpt lat="51.05842352" lon="13.59137535">
    <ele>279</ele>
    <extensions>
     <ql:flags>2147483656</ql:flags>
    </extensions>
   </trkpt>
   <trkpt lat="51.05840206" lon="13.59135389">
    <ele>279</ele>
    <extensions>
     <ql:flags>2147483656</ql:flags>
    </extensions>
   </trkpt>
   <trkpt lat="51.05835915" lon="13.59133244">
    <ele>279</ele>
    <extensions>
     <ql:flags>2147483656</ql:flags>
    </extensions>
   </trkpt>
   <trkpt lat="51.05829477" lon="13.59126806">
    <ele>279</ele>
    <extensions>
     <ql:flags>2147483656</ql:flags>
    </extensions>
   </trkpt>
   <trkpt lat="51.05799437" lon="13.59090328">
    <ele>280</ele>
    <extensions>
     <ql:flags>2147483656</ql:flags>
    </extensions>
   </trkpt>
   <trkpt lat="51.05786562" lon="13.59073162">
    <ele>281</ele>
    <extensions>
     <ql:flags>2147483656</ql:flags>
    </extensions>
   </trkpt>
   <trkpt lat="51.05756521" lon="13.59023809">
    <ele>281</ele>
    <extensions>
     <ql:flags>2147483656</ql:flags>
    </extensions>
   </trkpt>
   <trkpt lat="51.05750084" lon="13.59015226">
    <ele>282</ele>
    <extensions>
     <ql:flags>2147483656</ql:flags>
    </extensions>
   </trkpt>
   <trkpt lat="51.05743647" lon="13.59008789">
    <ele>282</ele>
    <extensions>
     <ql:flags>2147483656</ql:flags>
    </extensions>
   </trkpt>
   <trkpt lat="51.05735064" lon="13.59006643">
    <ele>282</ele>
    <extensions>
     <ql:flags>2147483656</ql:flags>
    </extensions>
   </trkpt>
   <trkpt lat="51.05726480" lon="13.59006643">
    <ele>282</ele>
    <extensions>
     <ql:flags>2147483656</ql:flags>
    </extensions>
   </trkpt>
   <trkpt lat="51.05724335" lon="13.59008789">
    <ele>282</ele>
    <extensions>
     <ql:flags>2147483656</ql:flags>
    </extensions>
   </trkpt>
   <trkpt lat="51.05717897" lon="13.59017372">
    <ele>282</ele>
    <extensions>
     <ql:flags>2147483656</ql:flags>
    </extensions>
   </trkpt>
   <trkpt lat="51.05687857" lon="13.59064579">
    <ele>284</ele>
    <extensions>
     <ql:flags>2147483656</ql:flags>
    </extensions>
   </trkpt>
   <trkpt lat="51.05629921" lon="13.59137535">
    <ele>290</ele>
    <extensions>
     <ql:flags>2147483656</ql:flags>
    </extensions>
   </trkpt>
   <trkpt lat="51.05599880" lon="13.59189034">
    <ele>293</ele>
    <extensions>
     <ql:flags>2147483656</ql:flags>
    </extensions>
   </trkpt>
   <trkpt lat="51.05580568" lon="13.59234095">
    <ele>295</ele>
    <extensions>
     <ql:flags>2147483656</ql:flags>
    </extensions>
   </trkpt>
   <trkpt lat="51.05548382" lon="13.59307051">
    <ele>298</ele>
    <extensions>
     <ql:flags>2147483656</ql:flags>
    </extensions>
   </trkpt>
   <trkpt lat="51.05544090" lon="13.59322071">
    <ele>298</ele>
    <extensions>
     <ql:flags>2147483656</ql:flags>
    </extensions>
   </trkpt>
   <trkpt lat="51.05539799" lon="13.59328508">
    <ele>298</ele>
    <extensions>
     <ql:flags>2147483656</ql:flags>
    </extensions>
   </trkpt>
   <trkpt lat="51.05522633" lon="13.59364986">
    <ele>299</ele>
    <extensions>
     <ql:flags>2147483656</ql:flags>
    </extensions>
   </trkpt>
   <trkpt lat="51.05518341" lon="13.59371424">
    <ele>299</ele>
    <extensions>
     <ql:flags>2147483656</ql:flags>
    </extensions>
   </trkpt>
   <trkpt lat="51.05511904" lon="13.59386444">
    <ele>299</ele>
    <extensions>
     <ql:flags>2147483656</ql:flags>
    </extensions>
   </trkpt>
   <trkpt lat="51.05503321" lon="13.59410048">
    <ele>300</ele>
    <extensions>
     <ql:flags>2147483656</ql:flags>
    </extensions>
   </trkpt>
   <trkpt lat="51.05501326" lon="13.59420378">
    <ele>300</ele>
    <extensions>
     <ql:flags>2147483648</ql:flags>
    </extensions>
   </trkpt>
   <trkpt lat="51.05496883" lon="13.59416485">
    <ele>300</ele>
    <extensions>
     <ql:flags>2147483656</ql:flags>
    </extensions>
   </trkpt>
   <trkpt lat="51.05479688" lon="13.59407906">
    <ele>301</ele>
    <extensions>
     <ql:flags>2147483648</ql:flags>
    </extensions>
   </trkpt>
   <trkpt lat="51.05464697" lon="13.59403610">
    <ele>301</ele>
    <extensions>
     <ql:flags>2147483656</ql:flags>
    </extensions>
   </trkpt>
   <trkpt lat="51.05432510" lon="13.59388590">
    <ele>303</ele>
    <extensions>
     <ql:flags>2147483656</ql:flags>
    </extensions>
   </trkpt>
   <trkpt lat="51.05391741" lon="13.59373569">
    <ele>304</ele>
    <extensions>
     <ql:flags>2147483656</ql:flags>
    </extensions>
   </trkpt>
   <trkpt lat="51.05365992" lon="13.59360695">
    <ele>306</ele>
    <extensions>
     <ql:flags>2147483656</ql:flags>
    </extensions>
   </trkpt>
   <trkpt lat="51.05346680" lon="13.59347820">
    <ele>306</ele>
    <extensions>
     <ql:flags>2147483656</ql:flags>
    </extensions>
   </trkpt>
   <trkpt lat="51.05340242" lon="13.59341383">
    <ele>307</ele>
    <extensions>
     <ql:flags>2147483656</ql:flags>
    </extensions>
   </trkpt>
   <trkpt lat="51.05333798" lon="13.59334816">
    <ele>307</ele>
    <extensions>
     <ql:flags>2147483648</ql:flags>
    </extensions>
   </trkpt>
   <trkpt lat="51.05325222" lon="13.59332800">
    <ele>307</ele>
    <extensions>
     <ql:flags>2147483656</ql:flags>
    </extensions>
   </trkpt>
   <trkpt lat="51.05290890" lon="13.59277010">
    <ele>309</ele>
    <extensions>
     <ql:flags>2147483656</ql:flags>
    </extensions>
   </trkpt>
   <trkpt lat="51.05252266" lon="13.59219074">
    <ele>308</ele>
    <extensions>
     <ql:flags>2147483656</ql:flags>
    </extensions>
   </trkpt>
   <trkpt lat="51.05243683" lon="13.59201908">
    <ele>309</ele>
    <extensions>
     <ql:flags>2147483656</ql:flags>
    </extensions>
   </trkpt>
   <trkpt lat="51.05232954" lon="13.59186888">
    <ele>309</ele>
    <extensions>
     <ql:flags>2147483656</ql:flags>
    </extensions>
   </trkpt>
   <trkpt lat="51.05172873" lon="13.59081745">
    <ele>312</ele>
    <extensions>
     <ql:flags>2147483656</ql:flags>
    </extensions>
   </trkpt>
   <trkpt lat="51.05102062" lon="13.58916521">
    <ele>312</ele>
    <extensions>
     <ql:flags>2147483656</ql:flags>
    </extensions>
   </trkpt>
   <trkpt lat="51.05054855" lon="13.58809233">
    <ele>310</ele>
    <extensions>
     <ql:flags>2147483656</ql:flags>
    </extensions>
   </trkpt>
   <trkpt lat="51.05029106" lon="13.58768463">
    <ele>309</ele>
    <extensions>
     <ql:flags>2147483656</ql:flags>
    </extensions>
   </trkpt>
   <trkpt lat="51.05011940" lon="13.58751297">
    <ele>308</ele>
    <extensions>
     <ql:flags>2147483656</ql:flags>
    </extensions>
   </trkpt>
   <trkpt lat="51.04992628" lon="13.58734131">
    <ele>308</ele>
    <extensions>
     <ql:flags>2147483656</ql:flags>
    </extensions>
   </trkpt>
   <trkpt lat="51.04958296" lon="13.58708382">
    <ele>307</ele>
    <extensions>
     <ql:flags>2147483656</ql:flags>
    </extensions>
   </trkpt>
   <trkpt lat="51.04881048" lon="13.58652592">
    <ele>307</ele>
    <extensions>
     <ql:flags>2147483656</ql:flags>
    </extensions>
   </trkpt>
   <trkpt lat="51.04874611" lon="13.58650446">
    <ele>307</ele>
    <extensions>
     <ql:flags>2147483656</ql:flags>
    </extensions>
   </trkpt>
   <trkpt lat="51.04870319" lon="13.58646427">
    <ele>307</ele>
    <extensions>
     <ql:flags>2147483648</ql:flags>
    </extensions>
   </trkpt>
   <trkpt lat="51.04866028" lon="13.58665466">
    <ele>307</ele>
    <extensions>
     <ql:flags>2147483656</ql:flags>
    </extensions>
   </trkpt>
   <trkpt lat="51.04851007" lon="13.58721256">
    <ele>308</ele>
    <extensions>
     <ql:flags>2147483656</ql:flags>
    </extensions>
   </trkpt>
   <trkpt lat="51.04840279" lon="13.58751297">
    <ele>308</ele>
    <extensions>
     <ql:flags>2147483656</ql:flags>
    </extensions>
   </trkpt>
   <trkpt lat="51.04814529" lon="13.58834982">
    <ele>307</ele>
    <extensions>
     <ql:flags>2147483656</ql:flags>
    </extensions>
   </trkpt>
   <trkpt lat="51.04795218" lon="13.58922958">
    <ele>307</ele>
    <extensions>
     <ql:flags>2147483656</ql:flags>
    </extensions>
   </trkpt>
   <trkpt lat="51.04775906" lon="13.59032393">
    <ele>307</ele>
    <extensions>
     <ql:flags>2147483656</ql:flags>
    </extensions>
   </trkpt>
   <trkpt lat="51.04763031" lon="13.59156847">
    <ele>306</ele>
    <extensions>
     <ql:flags>2147483656</ql:flags>
    </extensions>
   </trkpt>
   <trkpt lat="51.04745865" lon="13.59399319">
    <ele>304</ele>
    <extensions>
     <ql:flags>2147483656</ql:flags>
    </extensions>
   </trkpt>
   <trkpt lat="51.04735136" lon="13.59457254">
    <ele>302</ele>
    <extensions>
     <ql:flags>2147483656</ql:flags>
    </extensions>
   </trkpt>
   <trkpt lat="51.04724407" lon="13.59508753">
    <ele>301</ele>
    <extensions>
     <ql:flags>2147483656</ql:flags>
    </extensions>
   </trkpt>
   <trkpt lat="51.04627848" lon="13.59834909">
    <ele>292</ele>
    <extensions>
     <ql:flags>2147483656</ql:flags>
    </extensions>
   </trkpt>
   <trkpt lat="51.04597807" lon="13.59905720">
    <ele>289</ele>
    <extensions>
     <ql:flags>2147483656</ql:flags>
    </extensions>
   </trkpt>
   <trkpt lat="51.04533434" lon="13.60032320">
    <ele>286</ele>
    <extensions>
     <ql:flags>2147483656</ql:flags>
    </extensions>
   </trkpt>
   <trkpt lat="51.04499102" lon="13.60073090">
    <ele>283</ele>
    <extensions>
     <ql:flags>2147483656</ql:flags>
    </extensions>
   </trkpt>
   <trkpt lat="51.04460647" lon="13.60107694">
    <ele>282</ele>
    <extensions>
     <ql:flags>2147483648</ql:flags>
    </extensions>
   </trkpt>
   <trkpt lat="51.04445457" lon="13.60120296">
    <ele>281</ele>
    <extensions>
     <ql:flags>2147483656</ql:flags>
    </extensions>
   </trkpt>
   <trkpt lat="51.04432583" lon="13.60137463">
    <ele>281</ele>
    <extensions>
     <ql:flags>2147483656</ql:flags>
    </extensions>
   </trkpt>
   <trkpt lat="51.04404680" lon="13.60186551">
    <ele>279</ele>
    <extensions>
     <ql:flags>2147483648</ql:flags>
    </extensions>
   </trkpt>
   <trkpt lat="51.04404688" lon="13.60186815">
    <ele>279</ele>
    <extensions>
     <ql:flags>2147483656</ql:flags>
    </extensions>
   </trkpt>
   <trkpt lat="51.04400791" lon="13.60196475">
    <ele>279</ele>
    <extensions>
     <ql:flags>2147483648</ql:flags>
    </extensions>
   </trkpt>
   <trkpt lat="51.04383230" lon="13.60229731">
    <ele>277</ele>
    <extensions>
     <ql:flags>2147483656</ql:flags>
    </extensions>
   </trkpt>
   <trkpt lat="51.04381084" lon="13.60236168">
    <ele>277</ele>
    <extensions>
     <ql:flags>2147483656</ql:flags>
    </extensions>
   </trkpt>
   <trkpt lat="51.04381093" lon="13.60247035">
    <ele>277</ele>
    <extensions>
     <ql:flags>2147483648</ql:flags>
    </extensions>
   </trkpt>
   <trkpt lat="51.04376793" lon="13.60249043">
    <ele>277</ele>
    <extensions>
     <ql:flags>2147483656</ql:flags>
    </extensions>
   </trkpt>
   <trkpt lat="51.04368210" lon="13.60264063">
    <ele>276</ele>
    <extensions>
     <ql:flags>2147483656</ql:flags>
    </extensions>
   </trkpt>
   <trkpt lat="51.04336023" lon="13.60343456">
    <ele>275</ele>
    <extensions>
     <ql:flags>2147483656</ql:flags>
    </extensions>
   </trkpt>
   <trkpt lat="51.04331732" lon="13.60360622">
    <ele>275</ele>
    <extensions>
     <ql:flags>2147483656</ql:flags>
    </extensions>
   </trkpt>
   <trkpt lat="51.04329586" lon="13.60375643">
    <ele>274</ele>
    <extensions>
     <ql:flags>2147483656</ql:flags>
    </extensions>
   </trkpt>
   <trkpt lat="51.04329586" lon="13.60409975">
    <ele>273</ele>
    <extensions>
     <ql:flags>2147483656</ql:flags>
    </extensions>
   </trkpt>
   <trkpt lat="51.04329586" lon="13.60440016">
    <ele>273</ele>
    <extensions>
     <ql:flags>2147483656</ql:flags>
    </extensions>
   </trkpt>
   <trkpt lat="51.04327440" lon="13.60525846">
    <ele>273</ele>
    <extensions>
     <ql:flags>2147483656</ql:flags>
    </extensions>
   </trkpt>
   <trkpt lat="51.04327440" lon="13.60549450">
    <ele>273</ele>
    <extensions>
     <ql:flags>2147483656</ql:flags>
    </extensions>
   </trkpt>
   <trkpt lat="51.04333878" lon="13.60579491">
    <ele>274</ele>
    <extensions>
     <ql:flags>2147483656</ql:flags>
    </extensions>
   </trkpt>
   <trkpt lat="51.04342461" lon="13.60600948">
    <ele>274</ele>
    <extensions>
     <ql:flags>2147483656</ql:flags>
    </extensions>
   </trkpt>
   <trkpt lat="51.04351044" lon="13.60618114">
    <ele>274</ele>
    <extensions>
     <ql:flags>2147483656</ql:flags>
    </extensions>
   </trkpt>
   <trkpt lat="51.04357481" lon="13.60633135">
    <ele>275</ele>
    <extensions>
     <ql:flags>2147483656</ql:flags>
    </extensions>
   </trkpt>
   <trkpt lat="51.04378939" lon="13.60678196">
    <ele>274</ele>
    <extensions>
     <ql:flags>2147483656</ql:flags>
    </extensions>
   </trkpt>
   <trkpt lat="51.04430437" lon="13.60813379">
    <ele>270</ele>
    <extensions>
     <ql:flags>2147483656</ql:flags>
    </extensions>
   </trkpt>
   <trkpt lat="51.04443312" lon="13.60852003">
    <ele>269</ele>
    <extensions>
     <ql:flags>2147483656</ql:flags>
    </extensions>
   </trkpt>
   <trkpt lat="51.04447603" lon="13.60877752">
    <ele>268</ele>
    <extensions>
     <ql:flags>2147483656</ql:flags>
    </extensions>
   </trkpt>
   <trkpt lat="51.04458332" lon="13.60980749">
    <ele>268</ele>
    <extensions>
     <ql:flags>2147483656</ql:flags>
    </extensions>
   </trkpt>
   <trkpt lat="51.04458332" lon="13.61008644">
    <ele>268</ele>
    <extensions>
     <ql:flags>2147483656</ql:flags>
    </extensions>
   </trkpt>
   <trkpt lat="51.04451895" lon="13.61079454">
    <ele>269</ele>
    <extensions>
     <ql:flags>2147483656</ql:flags>
    </extensions>
   </trkpt>
   <trkpt lat="51.04451895" lon="13.61118078">
    <ele>269</ele>
    <extensions>
     <ql:flags>2147483656</ql:flags>
    </extensions>
   </trkpt>
   <trkpt lat="51.04456186" lon="13.61150265">
    <ele>269</ele>
    <extensions>
     <ql:flags>2147483656</ql:flags>
    </extensions>
   </trkpt>
   <trkpt lat="51.04460309" lon="13.61171592">
    <ele>269</ele>
    <extensions>
     <ql:flags>2147483648</ql:flags>
    </extensions>
   </trkpt>
   <trkpt lat="51.04466915" lon="13.61171722">
    <ele>269</ele>
    <extensions>
     <ql:flags>2147483656</ql:flags>
    </extensions>
   </trkpt>
   <trkpt lat="51.04484081" lon="13.61176014">
    <ele>269</ele>
    <extensions>
     <ql:flags>2147483656</ql:flags>
    </extensions>
   </trkpt>
   <trkpt lat="51.04484319" lon="13.61175750">
    <ele>269</ele>
    <extensions>
     <ql:flags>2147483648</ql:flags>
    </extensions>
   </trkpt>
   <trkpt lat="51.04486227" lon="13.61191034">
    <ele>270</ele>
    <extensions>
     <ql:flags>2147483656</ql:flags>
    </extensions>
   </trkpt>
   <trkpt lat="51.04518414" lon="13.61227512">
    <ele>270</ele>
    <extensions>
     <ql:flags>2147483656</ql:flags>
    </extensions>
   </trkpt>
   <trkpt lat="51.04550600" lon="13.61244678">
    <ele>270</ele>
    <extensions>
     <ql:flags>2147483656</ql:flags>
    </extensions>
   </trkpt>
   <trkpt lat="51.04595661" lon="13.61253262">
    <ele>270</ele>
    <extensions>
     <ql:flags>2147483656</ql:flags>
    </extensions>
   </trkpt>
   <trkpt lat="51.04636431" lon="13.61266136">
    <ele>269</ele>
    <extensions>
     <ql:flags>2147483656</ql:flags>
    </extensions>
   </trkpt>
   <trkpt lat="51.04660077" lon="13.61278881">
    <ele>268</ele>
    <extensions>
     <ql:flags>2147483648</ql:flags>
    </extensions>
   </trkpt>
   <trkpt lat="51.04655743" lon="13.61283302">
    <ele>268</ele>
    <extensions>
     <ql:flags>2147483656</ql:flags>
    </extensions>
   </trkpt>
   <trkpt lat="51.04651451" lon="13.61315489">
    <ele>269</ele>
    <extensions>
     <ql:flags>2147483656</ql:flags>
    </extensions>
   </trkpt>
   <trkpt lat="51.04653597" lon="13.61334801">
    <ele>269</ele>
    <extensions>
     <ql:flags>2147483656</ql:flags>
    </extensions>
   </trkpt>
   <trkpt lat="51.04679346" lon="13.61461401">
    <ele>269</ele>
    <extensions>
     <ql:flags>2147483656</ql:flags>
    </extensions>
   </trkpt>
   <trkpt lat="51.04694366" lon="13.61515045">
    <ele>267</ele>
    <extensions>
     <ql:flags>2147483656</ql:flags>
    </extensions>
   </trkpt>
   <trkpt lat="51.04698658" lon="13.61536503">
    <ele>267</ele>
    <extensions>
     <ql:flags>2147483656</ql:flags>
    </extensions>
   </trkpt>
   <trkpt lat="51.04705095" lon="13.61570835">
    <ele>266</ele>
    <extensions>
     <ql:flags>2147483656</ql:flags>
    </extensions>
   </trkpt>
   <trkpt lat="51.04711533" lon="13.61648083">
    <ele>265</ele>
    <extensions>
     <ql:flags>2147483656</ql:flags>
    </extensions>
   </trkpt>
   <trkpt lat="51.04724407" lon="13.61684561">
    <ele>266</ele>
    <extensions>
     <ql:flags>2147483656</ql:flags>
    </extensions>
   </trkpt>
   <trkpt lat="51.04732990" lon="13.61723185">
    <ele>267</ele>
    <extensions>
     <ql:flags>2147483656</ql:flags>
    </extensions>
   </trkpt>
   <trkpt lat="51.04750194" lon="13.61776565">
    <ele>268</ele>
    <extensions>
     <ql:flags>2147483648</ql:flags>
    </extensions>
   </trkpt>
   <trkpt lat="51.04717970" lon="13.61809015">
    <ele>270</ele>
    <extensions>
     <ql:flags>2147483656</ql:flags>
    </extensions>
   </trkpt>
   <trkpt lat="51.04720116" lon="13.61830473">
    <ele>271</ele>
    <extensions>
     <ql:flags>2147483656</ql:flags>
    </extensions>
   </trkpt>
   <trkpt lat="51.04748011" lon="13.61875534">
    <ele>271</ele>
    <extensions>
     <ql:flags>2147483656</ql:flags>
    </extensions>
   </trkpt>
   <trkpt lat="51.04756594" lon="13.61892700">
    <ele>271</ele>
    <extensions>
     <ql:flags>2147483656</ql:flags>
    </extensions>
   </trkpt>
   <trkpt lat="51.04763031" lon="13.61912012">
    <ele>271</ele>
    <extensions>
     <ql:flags>2147483656</ql:flags>
    </extensions>
   </trkpt>
   <trkpt lat="51.04778051" lon="13.61922741">
    <ele>270</ele>
    <extensions>
     <ql:flags>2147483656</ql:flags>
    </extensions>
   </trkpt>
   <trkpt lat="51.04788780" lon="13.61931324">
    <ele>270</ele>
    <extensions>
     <ql:flags>2147483656</ql:flags>
    </extensions>
   </trkpt>
   <trkpt lat="51.04793072" lon="13.61967802">
    <ele>270</ele>
    <extensions>
     <ql:flags>2147483656</ql:flags>
    </extensions>
   </trkpt>
   <trkpt lat="51.04793072" lon="13.62090111">
    <ele>271</ele>
    <extensions>
     <ql:flags>2147483656</ql:flags>
    </extensions>
   </trkpt>
   <trkpt lat="51.04797450" lon="13.62114791">
    <ele>271</ele>
    <extensions>
     <ql:flags>2147483648</ql:flags>
    </extensions>
   </trkpt>
   <trkpt lat="51.04790926" lon="13.62137318">
    <ele>271</ele>
    <extensions>
     <ql:flags>2147483656</ql:flags>
    </extensions>
   </trkpt>
   <trkpt lat="51.04773949" lon="13.62156634">
    <ele>272</ele>
    <extensions>
     <ql:flags>2147483648</ql:flags>
    </extensions>
   </trkpt>
   <trkpt lat="51.04745865" lon="13.62195253">
    <ele>272</ele>
    <extensions>
     <ql:flags>2147483656</ql:flags>
    </extensions>
   </trkpt>
   <trkpt lat="51.04715824" lon="13.62283230">
    <ele>272</ele>
    <extensions>
     <ql:flags>2147483656</ql:flags>
    </extensions>
   </trkpt>
   <trkpt lat="51.04668617" lon="13.62354040">
    <ele>276</ele>
    <extensions>
     <ql:flags>2147483656</ql:flags>
    </extensions>
   </trkpt>
   <trkpt lat="51.04652553" lon="13.62368394">
    <ele>277</ele>
    <extensions>
     <ql:flags>2147483648</ql:flags>
    </extensions>
   </trkpt>
   <trkpt lat="51.04640722" lon="13.62371206">
    <ele>277</ele>
    <extensions>
     <ql:flags>2147483656</ql:flags>
    </extensions>
   </trkpt>
   <trkpt lat="51.04602098" lon="13.62371206">
    <ele>279</ele>
    <extensions>
     <ql:flags>2147483656</ql:flags>
    </extensions>
   </trkpt>
   <trkpt lat="51.04572058" lon="13.62358332">
    <ele>281</ele>
    <extensions>
     <ql:flags>2147483656</ql:flags>
    </extensions>
   </trkpt>
   <trkpt lat="51.04524851" lon="13.62330437">
    <ele>284</ele>
    <extensions>
     <ql:flags>2147483656</ql:flags>
    </extensions>
   </trkpt>
   <trkpt lat="51.04503393" lon="13.62321854">
    <ele>285</ele>
    <extensions>
     <ql:flags>2147483656</ql:flags>
    </extensions>
   </trkpt>
   <trkpt lat="51.04466915" lon="13.62311125">
    <ele>286</ele>
    <extensions>
     <ql:flags>2147483656</ql:flags>
    </extensions>
   </trkpt>
   <trkpt lat="51.04398251" lon="13.62306833">
    <ele>288</ele>
    <extensions>
     <ql:flags>2147483656</ql:flags>
    </extensions>
   </trkpt>
   <trkpt lat="51.04342709" lon="13.62296109">
    <ele>291</ele>
    <extensions>
     <ql:flags>2147483648</ql:flags>
    </extensions>
   </trkpt>
   <trkpt lat="51.04342461" lon="13.62296104">
    <ele>291</ele>
    <extensions>
     <ql:flags>2147483656</ql:flags>
    </extensions>
   </trkpt>
   <trkpt lat="51.04338169" lon="13.62328291">
    <ele>291</ele>
    <extensions>
     <ql:flags>2147483656</ql:flags>
    </extensions>
   </trkpt>
   <trkpt lat="51.04327440" lon="13.62435579">
    <ele>290</ele>
    <extensions>
     <ql:flags>2147483656</ql:flags>
    </extensions>
   </trkpt>
   <trkpt lat="51.04325294" lon="13.62469912">
    <ele>290</ele>
    <extensions>
     <ql:flags>2147483656</ql:flags>
    </extensions>
   </trkpt>
   <trkpt lat="51.04325209" lon="13.62518866">
    <ele>290</ele>
    <extensions>
     <ql:flags>2147483648</ql:flags>
    </extensions>
   </trkpt>
   <trkpt lat="51.04282379" lon="13.62538576">
    <ele>293</ele>
    <extensions>
     <ql:flags>2147483656</ql:flags>
    </extensions>
   </trkpt>
   <trkpt lat="51.04271650" lon="13.62540722">
    <ele>294</ele>
    <extensions>
     <ql:flags>2147483656</ql:flags>
    </extensions>
   </trkpt>
   <trkpt lat="51.04250193" lon="13.62536430">
    <ele>295</ele>
    <extensions>
     <ql:flags>2147483656</ql:flags>
    </extensions>
   </trkpt>
   <trkpt lat="51.04213715" lon="13.62534285">
    <ele>297</ele>
    <extensions>
     <ql:flags>2147483656</ql:flags>
    </extensions>
   </trkpt>
   <trkpt lat="51.04134321" lon="13.62532139">
    <ele>298</ele>
    <extensions>
     <ql:flags>2147483656</ql:flags>
    </extensions>
   </trkpt>
   <trkpt lat="51.04072094" lon="13.62545013">
    <ele>297</ele>
    <extensions>
     <ql:flags>2147483656</ql:flags>
    </extensions>
   </trkpt>
   <trkpt lat="51.04070300" lon="13.62545018">
    <ele>297</ele>
    <extensions>
     <ql:flags>2147483648</ql:flags>
    </extensions>
   </trkpt>
   <trkpt lat="51.04067848" lon="13.62556149">
    <ele>297</ele>
    <extensions>
     <ql:flags>2147483648</ql:flags>
    </extensions>
   </trkpt>
   <trkpt lat="51.04073344" lon="13.62606574">
    <ele>297</ele>
    <extensions>
     <ql:flags>2147483648</ql:flags>
    </extensions>
   </trkpt>
  </trkseg>
 </trk>
 <trk>
  <name>Track (Rundweg Umspannstation)</name>
  <extensions>
   <ql:key>195d51264a07ecbe1e4f706453fb3771</ql:key>
   <ql:flags>1</ql:flags>
   <ql:history>
    <ql:event>
     <ql:icon>://icons/48x48/Start.png</ql:icon>
     <ql:time>2020-06-30T04:57:20.401Z</ql:time>
     <ql:comment>Erstversion.</ql:comment>
    </ql:event>
    <ql:event>
     <ql:icon>://icons/48x48/ActFoot.png</ql:icon>
     <ql:time>2020-06-30T16:42:33.305Z</ql:time>
     <ql:comment>Die Aktivität wurde für den gesamten Track auf 'Fußgänger' geändert.</ql:comment>
    </ql:event>
   </ql:history>
   <gpxx:TrackExtension>
    <gpxx:DisplayColor>DarkRed</gpxx:DisplayColor>
   </gpxx:TrackExtension>
  </extensions>
  <trkseg>
   <trkpt lat="51.09367805" lon="13.60550795">
    <ele>109</ele>
    <extensions>
     <ql:flags>2147483648</ql:flags>
    </extensions>
   </trkpt>
   <trkpt lat="51.09344244" lon="13.60566616">
    <ele>110</ele>
    <extensions>
     <ql:flags>2147483656</ql:flags>
    </extensions>
   </trkpt>
   <trkpt lat="51.09339952" lon="13.60575199">
    <ele>110</ele>
    <extensions>
     <ql:flags>2147483656</ql:flags>
    </extensions>
   </trkpt>
   <trkpt lat="51.09335661" lon="13.60585928">
    <ele>110</ele>
    <extensions>
     <ql:flags>2147483656</ql:flags>
    </extensions>
   </trkpt>
   <trkpt lat="51.09333515" lon="13.60592365">
    <ele>110</ele>
    <extensions>
     <ql:flags>2147483656</ql:flags>
    </extensions>
   </trkpt>
   <trkpt lat="51.09331369" lon="13.60600948">
    <ele>110</ele>
    <extensions>
     <ql:flags>2147483656</ql:flags>
    </extensions>
   </trkpt>
   <trkpt lat="51.09331369" lon="13.60628843">
    <ele>108</ele>
    <extensions>
     <ql:flags>2147483656</ql:flags>
    </extensions>
   </trkpt>
   <trkpt lat="51.09333515" lon="13.60641718">
    <ele>108</ele>
    <extensions>
     <ql:flags>2147483656</ql:flags>
    </extensions>
   </trkpt>
   <trkpt lat="51.09337807" lon="13.60650301">
    <ele>108</ele>
    <extensions>
     <ql:flags>2147483656</ql:flags>
    </extensions>
   </trkpt>
   <trkpt lat="51.09342098" lon="13.60671759">
    <ele>108</ele>
    <extensions>
     <ql:flags>2147483656</ql:flags>
    </extensions>
   </trkpt>
   <trkpt lat="51.09354973" lon="13.60716820">
    <ele>108</ele>
    <extensions>
     <ql:flags>2147483656</ql:flags>
    </extensions>
   </trkpt>
   <trkpt lat="51.09357119" lon="13.60725403">
    <ele>108</ele>
    <extensions>
     <ql:flags>2147483656</ql:flags>
    </extensions>
   </trkpt>
   <trkpt lat="51.09365702" lon="13.60731840">
    <ele>108</ele>
    <extensions>
     <ql:flags>2147483656</ql:flags>
    </extensions>
   </trkpt>
   <trkpt lat="51.09385014" lon="13.60738277">
    <ele>108</ele>
    <extensions>
     <ql:flags>2147483656</ql:flags>
    </extensions>
   </trkpt>
   <trkpt lat="51.09395742" lon="13.60740423">
    <ele>108</ele>
    <extensions>
     <ql:flags>2147483656</ql:flags>
    </extensions>
   </trkpt>
   <trkpt lat="51.09406471" lon="13.60740423">
    <ele>108</ele>
    <extensions>
     <ql:flags>2147483656</ql:flags>
    </extensions>
   </trkpt>
   <trkpt lat="51.09427929" lon="13.60738277">
    <ele>108</ele>
    <extensions>
     <ql:flags>2147483656</ql:flags>
    </extensions>
   </trkpt>
   <trkpt lat="51.09434099" lon="13.60734258">
    <ele>108</ele>
    <extensions>
     <ql:flags>2147483648</ql:flags>
    </extensions>
   </trkpt>
   <trkpt lat="51.09432220" lon="13.60723257">
    <ele>108</ele>
    <extensions>
     <ql:flags>2147483656</ql:flags>
    </extensions>
   </trkpt>
   <trkpt lat="51.09438658" lon="13.60682487">
    <ele>109</ele>
    <extensions>
     <ql:flags>2147483656</ql:flags>
    </extensions>
   </trkpt>
   <trkpt lat="51.09438658" lon="13.60669613">
    <ele>109</ele>
    <extensions>
     <ql:flags>2147483656</ql:flags>
    </extensions>
   </trkpt>
   <trkpt lat="51.09436512" lon="13.60661030">
    <ele>109</ele>
    <extensions>
     <ql:flags>2147483656</ql:flags>
    </extensions>
   </trkpt>
   <trkpt lat="51.09430075" lon="13.60656738">
    <ele>109</ele>
    <extensions>
     <ql:flags>2147483656</ql:flags>
    </extensions>
   </trkpt>
   <trkpt lat="51.09423637" lon="13.60656738">
    <ele>109</ele>
    <extensions>
     <ql:flags>2147483656</ql:flags>
    </extensions>
   </trkpt>
   <trkpt lat="51.09404325" lon="13.60680342">
    <ele>108</ele>
    <extensions>
     <ql:flags>2147483656</ql:flags>
    </extensions>
   </trkpt>
   <trkpt lat="51.09400034" lon="13.60688925">
    <ele>108</ele>
    <extensions>
     <ql:flags>2147483656</ql:flags>
    </extensions>
   </trkpt>
   <trkpt lat="51.09395742" lon="13.60695362">
    <ele>108</ele>
    <extensions>
     <ql:flags>2147483656</ql:flags>
    </extensions>
   </trkpt>
   <trkpt lat="51.09389305" lon="13.60699654">
    <ele>108</ele>
    <extensions>
     <ql:flags>2147483656</ql:flags>
    </extensions>
   </trkpt>
   <trkpt lat="51.09380722" lon="13.60703945">
    <ele>108</ele>
    <extensions>
     <ql:flags>2147483656</ql:flags>
    </extensions>
   </trkpt>
   <trkpt lat="51.09363556" lon="13.60710382">
    <ele>108</ele>
    <extensions>
     <ql:flags>2147483656</ql:flags>
    </extensions>
   </trkpt>
   <trkpt lat="51.09355728" lon="13.60716690">
    <ele>108</ele>
    <extensions>
     <ql:flags>2147483648</ql:flags>
    </extensions>
   </trkpt>
   <trkpt lat="51.09354973" lon="13.60716820">
    <ele>108</ele>
    <extensions>
     <ql:flags>2147483656</ql:flags>
    </extensions>
   </trkpt>
   <trkpt lat="51.09342098" lon="13.60671759">
    <ele>108</ele>
    <extensions>
     <ql:flags>2147483656</ql:flags>
    </extensions>
   </trkpt>
   <trkpt lat="51.09337807" lon="13.60650301">
    <ele>108</ele>
    <extensions>
     <ql:flags>2147483656</ql:flags>
    </extensions>
   </trkpt>
   <trkpt lat="51.09333515" lon="13.60641718">
    <ele>108</ele>
    <extensions>
     <ql:flags>2147483656</ql:flags>
    </extensions>
   </trkpt>
   <trkpt lat="51.09331369" lon="13.60628843">
    <ele>108</ele>
    <extensions>
     <ql:flags>2147483656</ql:flags>
    </extensions>
   </trkpt>
   <trkpt lat="51.09331369" lon="13.60600948">
    <ele>110</ele>
    <extensions>
     <ql:flags>2147483656</ql:flags>
    </extensions>
   </trkpt>
   <trkpt lat="51.09333515" lon="13.60592365">
    <ele>110</ele>
    <extensions>
     <ql:flags>2147483656</ql:flags>
    </extensions>
   </trkpt>
   <trkpt lat="51.09335661" lon="13.60585928">
    <ele>110</ele>
    <extensions>
     <ql:flags>2147483656</ql:flags>
    </extensions>
   </trkpt>
   <trkpt lat="51.09339952" lon="13.60575199">
    <ele>110</ele>
    <extensions>
     <ql:flags>2147483656</ql:flags>
    </extensions>
   </trkpt>
   <trkpt lat="51.09344244" lon="13.60566616">
    <ele>110</ele>
    <extensions>
     <ql:flags>2147483656</ql:flags>
    </extensions>
   </trkpt>
   <trkpt lat="51.09367551" lon="13.60550929">
    <ele>109</ele>
    <extensions>
     <ql:flags>2147483648</ql:flags>
    </extensions>
   </trkpt>
  </trkseg>
 </trk>
 <extensions>
  <ql:key>f147492a111df7b4e6b986095ee665b7</ql:key>
  <ql:sortingRoadbook>0</ql:sortingRoadbook>
  <ql:sortingFolder>0</ql:sortingFolder>
  <ql:correlation>1</ql:correlation>
 </extensions>
</gpx>
