<?xml version="1.0" encoding="UTF-8" standalone="no" ?>
<gpx version="1.1" xmlns:gpxx="http://www.garmin.com/xmlschemas/GpxExtensions/v3" creator="QMapShack 1.10.0 http://www.qlandkarte.org/" xsi:schemaLocation="http://www.topografix.com/GPX/1/1 http://www.topografix.com/GPX/1/1/gpx.xsd http://www.garmin.com/xmlschemas/GpxExtensions/v3 http://www.garmin.com/xmlschemas/GpxExtensionsv3.xsd http://www.garmin.com/xmlschemas/TrackPointExtension/v1 http://www.garmin.com/xmlschemas/TrackPointExtensionv1.xsd http://www.garmin.com/xmlschemas/WaypointExtension/v1 http://www.garmin.com/xmlschemas/WaypointExtensionv1.xsd http://www.qlandkarte.org/xmlschemas/v1.1 http://www.qlandkarte.org/xmlschemas/v1.1/ql-extensions.xsd http://www.cluetrust.com/XML/GPXDATA/1/0 http://www.cluetrust.com/Schemas/gpxdata10.xsd" xmlns:xsi="http://www.w3.org/2001/XMLSchema-instance" xmlns:tp1="http://www.garmin.com/xmlschemas/TrackPointExtension/v1" xmlns="http://www.topografix.com/GPX/1/1" xmlns:rmc="urn:net:trekbuddy:1.0:nmea:rmc" xmlns:gpxdata="http://www.cluetrust.com/XML/GPXDATA/1/0" xmlns:ql="http://www.qlandkarte.org/xmlschemas/v1.1" xmlns:gpxtpx="http://www.garmin.com/xmlschemas/TrackPointExtension/v1" xmlns:wptx1="http://www.garmin.com/xmlschemas/WaypointExtension/v1">
 <metadata>
  <name>Streifzug 18: Der Reblaus auf der Spur: Von Wilder Mann nach Oberlößnitz</name>
  <link href="https://www.dvb.de/de-de/entdecken/wandertipps/von-wilder-mann-nach-oberloessnitz/">
   <text>Webseite</text>
   <type>Link</type>
  </link>
  <time>2020-06-30T16:28:38.000Z</time>
 </metadata>
 <wpt lat="51.09658333" lon="13.71901667">
  <ele>117</ele>
  <time>2020-07-30T15:08:18.096Z</time>
  <name>Wegpunkt 1 Rechts</name>
  <sym>Flag, Blue</sym>
  <extensions>
   <ql:key>2394f458cad272402b71fa28890e1a2c</ql:key>
   <ql:flags>3</ql:flags>
   <ql:bubble yoff="-150" xoff="-320" width="300"/>
   <ql:history>
    <ql:event>
     <ql:icon>://icons/48x48/Start.png</ql:icon>
     <ql:time>2020-07-30T15:08:18.097Z</ql:time>
     <ql:comment>Erstversion.</ql:comment>
    </ql:event>
    <ql:event>
     <ql:icon>://icons/48x48/WptEditProx.png</ql:icon>
     <ql:time>2020-07-30T15:08:20.949Z</ql:time>
     <ql:comment>Abstandsalarm geändert</ql:comment>
    </ql:event>
   </ql:history>
   <wptx1:WaypointExtension>
    <wptx1:Proximity>10.00000000</wptx1:Proximity>
   </wptx1:WaypointExtension>
  </extensions>
 </wpt>
 <wpt lat="51.09821359" lon="13.72160536">
  <ele>137</ele>
  <time>2020-07-30T15:09:12.998Z</time>
  <name>Wegpunkt 2 Voraus</name>
  <sym>Flag, Blue</sym>
  <extensions>
   <ql:key>3c3abeb7024f7ecc88515f35ee6f96d5</ql:key>
   <ql:flags>3</ql:flags>
   <ql:bubble yoff="-150" xoff="-320" width="300"/>
   <ql:history>
    <ql:event>
     <ql:icon>://icons/48x48/Start.png</ql:icon>
     <ql:time>2020-07-30T15:09:12.998Z</ql:time>
     <ql:comment>Erstversion.</ql:comment>
    </ql:event>
    <ql:event>
     <ql:icon>://icons/48x48/WptEditProx.png</ql:icon>
     <ql:time>2020-07-30T15:09:20.558Z</ql:time>
     <ql:comment>Abstandsalarm geändert</ql:comment>
    </ql:event>
    <ql:event>
     <ql:icon>://icons/48x48/WptMove.png</ql:icon>
     <ql:time>2020-07-30T15:09:44.377Z</ql:time>
     <ql:comment>Position geändert</ql:comment>
    </ql:event>
    <ql:event>
     <ql:icon>://icons/48x48/WptMove.png</ql:icon>
     <ql:time>2020-07-30T15:09:50.944Z</ql:time>
     <ql:comment>Position geändert</ql:comment>
    </ql:event>
   </ql:history>
   <wptx1:WaypointExtension>
    <wptx1:Proximity>10.00000000</wptx1:Proximity>
   </wptx1:WaypointExtension>
  </extensions>
 </wpt>
 <wpt lat="51.09864171" lon="13.72786832">
  <ele>149</ele>
  <time>2020-07-30T15:10:46.730Z</time>
  <name>Wegpunkt 3 Links</name>
  <sym>Flag, Blue</sym>
  <extensions>
   <ql:key>a80c4148c0fd6433d728ec3f9e315978</ql:key>
   <ql:flags>3</ql:flags>
   <ql:bubble yoff="-150" xoff="-320" width="300"/>
   <ql:history>
    <ql:event>
     <ql:icon>://icons/48x48/Start.png</ql:icon>
     <ql:time>2020-07-30T15:10:46.731Z</ql:time>
     <ql:comment>Erstversion.</ql:comment>
    </ql:event>
    <ql:event>
     <ql:icon>://icons/48x48/WptEditProx.png</ql:icon>
     <ql:time>2020-07-30T15:10:51.107Z</ql:time>
     <ql:comment>Abstandsalarm geändert</ql:comment>
    </ql:event>
    <ql:event>
     <ql:icon>://icons/48x48/WptMove.png</ql:icon>
     <ql:time>2020-07-30T15:10:58.853Z</ql:time>
     <ql:comment>Position geändert</ql:comment>
    </ql:event>
   </ql:history>
   <wptx1:WaypointExtension>
    <wptx1:Proximity>10.00000000</wptx1:Proximity>
   </wptx1:WaypointExtension>
  </extensions>
 </wpt>
 <wpt lat="51.11006667" lon="13.71153333">
  <ele>204</ele>
  <time>2020-07-30T15:12:01.951Z</time>
  <name>Wegpunkt 4 Rechts</name>
  <sym>Flag, Blue</sym>
  <extensions>
   <ql:key>473dba4142b540efe49347bbb85a46d9</ql:key>
   <ql:flags>3</ql:flags>
   <ql:bubble yoff="-150" xoff="-320" width="300"/>
   <ql:history>
    <ql:event>
     <ql:icon>://icons/48x48/Start.png</ql:icon>
     <ql:time>2020-07-30T15:12:01.951Z</ql:time>
     <ql:comment>Erstversion.</ql:comment>
    </ql:event>
    <ql:event>
     <ql:icon>://icons/48x48/WptEditProx.png</ql:icon>
     <ql:time>2020-07-30T15:12:05.267Z</ql:time>
     <ql:comment>Abstandsalarm geändert</ql:comment>
    </ql:event>
   </ql:history>
   <wptx1:WaypointExtension>
    <wptx1:Proximity>10.00000000</wptx1:Proximity>
   </wptx1:WaypointExtension>
  </extensions>
 </wpt>
 <wpt lat="51.11148333" lon="13.70136667">
  <ele>171</ele>
  <time>2020-07-30T15:13:15.001Z</time>
  <name>Wegpunkt 5 Voraus</name>
  <sym>Flag, Blue</sym>
  <extensions>
   <ql:key>7fbd00ad66f3eefd7027a8cd5e029320</ql:key>
   <ql:flags>3</ql:flags>
   <ql:bubble yoff="-150" xoff="-320" width="300"/>
   <ql:history>
    <ql:event>
     <ql:icon>://icons/48x48/Start.png</ql:icon>
     <ql:time>2020-07-30T15:13:15.002Z</ql:time>
     <ql:comment>Erstversion.</ql:comment>
    </ql:event>
    <ql:event>
     <ql:icon>://icons/48x48/WptEditProx.png</ql:icon>
     <ql:time>2020-07-30T15:13:17.212Z</ql:time>
     <ql:comment>Abstandsalarm geändert</ql:comment>
    </ql:event>
   </ql:history>
   <wptx1:WaypointExtension>
    <wptx1:Proximity>10.00000000</wptx1:Proximity>
   </wptx1:WaypointExtension>
  </extensions>
 </wpt>
 <wpt lat="51.11185000" lon="13.69175000">
  <ele>173</ele>
  <time>2020-07-30T15:15:50.669Z</time>
  <name>Wegpunkt 6 Links</name>
  <sym>Flag, Blue</sym>
  <extensions>
   <ql:key>632dae5b72842c4d8e2417c2bdcf1865</ql:key>
   <ql:flags>3</ql:flags>
   <ql:bubble yoff="-150" xoff="-320" width="300"/>
   <ql:history>
    <ql:event>
     <ql:icon>://icons/48x48/Start.png</ql:icon>
     <ql:time>2020-07-30T15:15:50.670Z</ql:time>
     <ql:comment>Erstversion.</ql:comment>
    </ql:event>
    <ql:event>
     <ql:icon>://icons/48x48/WptEditProx.png</ql:icon>
     <ql:time>2020-07-30T15:15:52.848Z</ql:time>
     <ql:comment>Abstandsalarm geändert</ql:comment>
    </ql:event>
   </ql:history>
   <wptx1:WaypointExtension>
    <wptx1:Proximity>10.00000000</wptx1:Proximity>
   </wptx1:WaypointExtension>
  </extensions>
 </wpt>
 <wpt lat="51.11360000" lon="13.69196667">
  <ele>194</ele>
  <time>2020-07-30T15:16:38.592Z</time>
  <name>Wegpunkt 7 Voraus</name>
  <sym>Flag, Blue</sym>
  <extensions>
   <ql:key>89d97115ab667392233acef53669e8dc</ql:key>
   <ql:flags>3</ql:flags>
   <ql:bubble yoff="-150" xoff="-320" width="300"/>
   <ql:history>
    <ql:event>
     <ql:icon>://icons/48x48/Start.png</ql:icon>
     <ql:time>2020-07-30T15:16:38.592Z</ql:time>
     <ql:comment>Erstversion.</ql:comment>
    </ql:event>
    <ql:event>
     <ql:icon>://icons/48x48/WptEditProx.png</ql:icon>
     <ql:time>2020-07-30T15:16:40.714Z</ql:time>
     <ql:comment>Abstandsalarm geändert</ql:comment>
    </ql:event>
   </ql:history>
   <wptx1:WaypointExtension>
    <wptx1:Proximity>10.00000000</wptx1:Proximity>
   </wptx1:WaypointExtension>
  </extensions>
 </wpt>
 <wpt lat="51.11246667" lon="13.68701667">
  <ele>218</ele>
  <time>2020-07-30T15:17:06.431Z</time>
  <name>Wegpunkt 8 Hier</name>
  <sym>Flag, Blue</sym>
  <extensions>
   <ql:key>bee564f1c80118005aa9ae35d38aef90</ql:key>
   <ql:flags>3</ql:flags>
   <ql:bubble yoff="-150" xoff="-320" width="300"/>
   <ql:history>
    <ql:event>
     <ql:icon>://icons/48x48/Start.png</ql:icon>
     <ql:time>2020-07-30T15:17:06.432Z</ql:time>
     <ql:comment>Erstversion.</ql:comment>
    </ql:event>
    <ql:event>
     <ql:icon>://icons/48x48/WptEditProx.png</ql:icon>
     <ql:time>2020-07-30T15:17:10.021Z</ql:time>
     <ql:comment>Abstandsalarm geändert</ql:comment>
    </ql:event>
   </ql:history>
   <wptx1:WaypointExtension>
    <wptx1:Proximity>10.00000000</wptx1:Proximity>
   </wptx1:WaypointExtension>
  </extensions>
 </wpt>
 <wpt lat="51.11003333" lon="13.67650000">
  <ele>156</ele>
  <time>2020-07-30T15:22:24.806Z</time>
  <name>Wegpunkt 9 Rechts</name>
  <sym>Flag, Blue</sym>
  <extensions>
   <ql:key>bb3a59f4ccf0d2ad9253bbc5af20550a</ql:key>
   <ql:flags>3</ql:flags>
   <ql:bubble yoff="-150" xoff="-320" width="300"/>
   <ql:history>
    <ql:event>
     <ql:icon>://icons/48x48/Start.png</ql:icon>
     <ql:time>2020-07-30T15:22:24.807Z</ql:time>
     <ql:comment>Erstversion.</ql:comment>
    </ql:event>
    <ql:event>
     <ql:icon>://icons/48x48/WptEditProx.png</ql:icon>
     <ql:time>2020-07-30T15:22:28.465Z</ql:time>
     <ql:comment>Abstandsalarm geändert</ql:comment>
    </ql:event>
   </ql:history>
   <wptx1:WaypointExtension>
    <wptx1:Proximity>10.00000000</wptx1:Proximity>
   </wptx1:WaypointExtension>
  </extensions>
 </wpt>
 <wpt lat="51.10998333" lon="13.67656667">
  <ele>156</ele>
  <time>2020-07-30T15:34:08.521Z</time>
  <name>Wegpunkt 10 Links</name>
  <sym>Flag, Blue</sym>
  <extensions>
   <ql:key>e039074bd19e78ebe7181a3e142b078b</ql:key>
   <ql:flags>3</ql:flags>
   <ql:bubble yoff="-150" xoff="-320" width="300"/>
   <ql:history>
    <ql:event>
     <ql:icon>://icons/48x48/Start.png</ql:icon>
     <ql:time>2020-07-30T15:34:08.522Z</ql:time>
     <ql:comment>Erstversion.</ql:comment>
    </ql:event>
    <ql:event>
     <ql:icon>://icons/48x48/WptEditProx.png</ql:icon>
     <ql:time>2020-07-30T15:34:11.035Z</ql:time>
     <ql:comment>Abstandsalarm geändert</ql:comment>
    </ql:event>
   </ql:history>
   <wptx1:WaypointExtension>
    <wptx1:Proximity>10.00000000</wptx1:Proximity>
   </wptx1:WaypointExtension>
  </extensions>
 </wpt>
 <wpt lat="51.10860000" lon="13.67615000">
  <ele>143</ele>
  <time>2020-07-30T15:36:06.155Z</time>
  <name>Wegpunkt 11 Rechts</name>
  <sym>Flag, Blue</sym>
  <extensions>
   <ql:key>742481dd5677c54a97dd934212ec33c7</ql:key>
   <ql:flags>3</ql:flags>
   <ql:bubble yoff="-150" xoff="-320" width="300"/>
   <ql:history>
    <ql:event>
     <ql:icon>://icons/48x48/Start.png</ql:icon>
     <ql:time>2020-07-30T15:36:06.156Z</ql:time>
     <ql:comment>Erstversion.</ql:comment>
    </ql:event>
    <ql:event>
     <ql:icon>://icons/48x48/WptEditProx.png</ql:icon>
     <ql:time>2020-07-30T15:36:08.710Z</ql:time>
     <ql:comment>Abstandsalarm geändert</ql:comment>
    </ql:event>
   </ql:history>
   <wptx1:WaypointExtension>
    <wptx1:Proximity>10.00000000</wptx1:Proximity>
   </wptx1:WaypointExtension>
  </extensions>
 </wpt>
 <trk>
  <name>Track</name>
  <extensions>
   <ql:key>bde8e7241e84dd6fd32eeb8d40e38991</ql:key>
   <ql:flags>1</ql:flags>
   <ql:history>
    <ql:event>
     <ql:icon>://icons/48x48/Start.png</ql:icon>
     <ql:time>2020-06-30T16:32:53.863Z</ql:time>
     <ql:comment>Erstversion.</ql:comment>
    </ql:event>
    <ql:event>
     <ql:icon>://icons/48x48/ActFoot.png</ql:icon>
     <ql:time>2020-06-30T16:42:47.725Z</ql:time>
     <ql:comment>Die Aktivität wurde für den gesamten Track auf 'Fußgänger' geändert.</ql:comment>
    </ql:event>
   </ql:history>
   <gpxx:TrackExtension>
    <gpxx:DisplayColor>DarkBlue</gpxx:DisplayColor>
   </gpxx:TrackExtension>
  </extensions>
  <trkseg>
   <trkpt lat="51.09588891" lon="13.71947367">
    <ele>114</ele>
    <extensions>
     <ql:flags>2147483648</ql:flags>
    </extensions>
   </trkpt>
   <trkpt lat="51.09584838" lon="13.71939321">
    <ele>114</ele>
    <extensions>
     <ql:flags>2147483648</ql:flags>
    </extensions>
   </trkpt>
   <trkpt lat="51.09584753" lon="13.71922557">
    <ele>114</ele>
    <extensions>
     <ql:flags>2147483648</ql:flags>
    </extensions>
   </trkpt>
   <trkpt lat="51.09597445" lon="13.71917725">
    <ele>114</ele>
    <extensions>
     <ql:flags>2147483656</ql:flags>
    </extensions>
   </trkpt>
   <trkpt lat="51.09603882" lon="13.71915579">
    <ele>114</ele>
    <extensions>
     <ql:flags>2147483656</ql:flags>
    </extensions>
   </trkpt>
   <trkpt lat="51.09621048" lon="13.71911287">
    <ele>115</ele>
    <extensions>
     <ql:flags>2147483656</ql:flags>
    </extensions>
   </trkpt>
   <trkpt lat="51.09661818" lon="13.71898413">
    <ele>117</ele>
    <extensions>
     <ql:flags>2147483656</ql:flags>
    </extensions>
   </trkpt>
   <trkpt lat="51.09706879" lon="13.71883392">
    <ele>119</ele>
    <extensions>
     <ql:flags>2147483656</ql:flags>
    </extensions>
   </trkpt>
   <trkpt lat="51.09721899" lon="13.71876955">
    <ele>121</ele>
    <extensions>
     <ql:flags>2147483656</ql:flags>
    </extensions>
   </trkpt>
   <trkpt lat="51.09736919" lon="13.71866226">
    <ele>123</ele>
    <extensions>
     <ql:flags>2147483656</ql:flags>
    </extensions>
   </trkpt>
   <trkpt lat="51.09745502" lon="13.71857643">
    <ele>124</ele>
    <extensions>
     <ql:flags>2147483656</ql:flags>
    </extensions>
   </trkpt>
   <trkpt lat="51.09760523" lon="13.71838331">
    <ele>126</ele>
    <extensions>
     <ql:flags>2147483656</ql:flags>
    </extensions>
   </trkpt>
   <trkpt lat="51.09775432" lon="13.71810172">
    <ele>128</ele>
    <extensions>
     <ql:flags>2147483648</ql:flags>
    </extensions>
   </trkpt>
   <trkpt lat="51.09786272" lon="13.71825457">
    <ele>129</ele>
    <extensions>
     <ql:flags>2147483656</ql:flags>
    </extensions>
   </trkpt>
   <trkpt lat="51.09814167" lon="13.71891975">
    <ele>134</ele>
    <extensions>
     <ql:flags>2147483656</ql:flags>
    </extensions>
   </trkpt>
   <trkpt lat="51.09833479" lon="13.72001410">
    <ele>142</ele>
    <extensions>
     <ql:flags>2147483656</ql:flags>
    </extensions>
   </trkpt>
   <trkpt lat="51.09835625" lon="13.72029305">
    <ele>143</ele>
    <extensions>
     <ql:flags>2147483656</ql:flags>
    </extensions>
   </trkpt>
   <trkpt lat="51.09826943" lon="13.72095827">
    <ele>144</ele>
    <extensions>
     <ql:flags>2147483648</ql:flags>
    </extensions>
   </trkpt>
   <trkpt lat="51.09827042" lon="13.72100115">
    <ele>144</ele>
    <extensions>
     <ql:flags>2147483656</ql:flags>
    </extensions>
   </trkpt>
   <trkpt lat="51.09829187" lon="13.72115135">
    <ele>144</ele>
    <extensions>
     <ql:flags>2147483656</ql:flags>
    </extensions>
   </trkpt>
   <trkpt lat="51.09835303" lon="13.72125332">
    <ele>145</ele>
    <extensions>
     <ql:flags>2147483648</ql:flags>
    </extensions>
   </trkpt>
   <trkpt lat="51.09822750" lon="13.72153759">
    <ele>144</ele>
    <extensions>
     <ql:flags>2147483656</ql:flags>
    </extensions>
   </trkpt>
   <trkpt lat="51.09807730" lon="13.72177362">
    <ele>143</ele>
    <extensions>
     <ql:flags>2147483656</ql:flags>
    </extensions>
   </trkpt>
   <trkpt lat="51.09792709" lon="13.72196674">
    <ele>143</ele>
    <extensions>
     <ql:flags>2147483656</ql:flags>
    </extensions>
   </trkpt>
   <trkpt lat="51.09779835" lon="13.72261047">
    <ele>139</ele>
    <extensions>
     <ql:flags>2147483656</ql:flags>
    </extensions>
   </trkpt>
   <trkpt lat="51.09773397" lon="13.72349024">
    <ele>137</ele>
    <extensions>
     <ql:flags>2147483656</ql:flags>
    </extensions>
   </trkpt>
   <trkpt lat="51.09760523" lon="13.72458458">
    <ele>136</ele>
    <extensions>
     <ql:flags>2147483656</ql:flags>
    </extensions>
   </trkpt>
   <trkpt lat="51.09751940" lon="13.72514248">
    <ele>138</ele>
    <extensions>
     <ql:flags>2147483656</ql:flags>
    </extensions>
   </trkpt>
   <trkpt lat="51.09803438" lon="13.72550726">
    <ele>148</ele>
    <extensions>
     <ql:flags>2147483656</ql:flags>
    </extensions>
   </trkpt>
   <trkpt lat="51.09805579" lon="13.72559447">
    <ele>148</ele>
    <extensions>
     <ql:flags>2147483648</ql:flags>
    </extensions>
   </trkpt>
   <trkpt lat="51.09797001" lon="13.72587204">
    <ele>148</ele>
    <extensions>
     <ql:flags>2147483656</ql:flags>
    </extensions>
   </trkpt>
   <trkpt lat="51.09803299" lon="13.72593645">
    <ele>148</ele>
    <extensions>
     <ql:flags>2147483648</ql:flags>
    </extensions>
   </trkpt>
   <trkpt lat="51.09792709" lon="13.72638702">
    <ele>149</ele>
    <extensions>
     <ql:flags>2147483656</ql:flags>
    </extensions>
   </trkpt>
   <trkpt lat="51.09773397" lon="13.72724533">
    <ele>148</ele>
    <extensions>
     <ql:flags>2147483656</ql:flags>
    </extensions>
   </trkpt>
   <trkpt lat="51.09775543" lon="13.72737408">
    <ele>148</ele>
    <extensions>
     <ql:flags>2147483656</ql:flags>
    </extensions>
   </trkpt>
   <trkpt lat="51.09839916" lon="13.72776031">
    <ele>150</ele>
    <extensions>
     <ql:flags>2147483656</ql:flags>
    </extensions>
   </trkpt>
   <trkpt lat="51.09919310" lon="13.72821093">
    <ele>150</ele>
    <extensions>
     <ql:flags>2147483656</ql:flags>
    </extensions>
   </trkpt>
   <trkpt lat="51.09910727" lon="13.73052835">
    <ele>150</ele>
    <extensions>
     <ql:flags>2147483656</ql:flags>
    </extensions>
   </trkpt>
   <trkpt lat="51.09912821" lon="13.73065312">
    <ele>151</ele>
    <extensions>
     <ql:flags>2147483648</ql:flags>
    </extensions>
   </trkpt>
   <trkpt lat="51.10191471" lon="13.72834374">
    <ele>154</ele>
    <extensions>
     <ql:flags>2147483648</ql:flags>
    </extensions>
   </trkpt>
   <trkpt lat="51.10213280" lon="13.72814655">
    <ele>154</ele>
    <extensions>
     <ql:flags>2147483656</ql:flags>
    </extensions>
   </trkpt>
   <trkpt lat="51.10230446" lon="13.72801781">
    <ele>156</ele>
    <extensions>
     <ql:flags>2147483656</ql:flags>
    </extensions>
   </trkpt>
   <trkpt lat="51.10269070" lon="13.72769594">
    <ele>161</ele>
    <extensions>
     <ql:flags>2147483656</ql:flags>
    </extensions>
   </trkpt>
   <trkpt lat="51.10277653" lon="13.72765303">
    <ele>162</ele>
    <extensions>
     <ql:flags>2147483656</ql:flags>
    </extensions>
   </trkpt>
   <trkpt lat="51.10314131" lon="13.72743845">
    <ele>166</ele>
    <extensions>
     <ql:flags>2147483656</ql:flags>
    </extensions>
   </trkpt>
   <trkpt lat="51.10367096" lon="13.72696106">
    <ele>172</ele>
    <extensions>
     <ql:flags>2147483648</ql:flags>
    </extensions>
   </trkpt>
   <trkpt lat="51.10350609" lon="13.72655869">
    <ele>171</ele>
    <extensions>
     <ql:flags>2147483656</ql:flags>
    </extensions>
   </trkpt>
   <trkpt lat="51.10329151" lon="13.72612953">
    <ele>170</ele>
    <extensions>
     <ql:flags>2147483656</ql:flags>
    </extensions>
   </trkpt>
   <trkpt lat="51.10327005" lon="13.72593641">
    <ele>170</ele>
    <extensions>
     <ql:flags>2147483656</ql:flags>
    </extensions>
   </trkpt>
   <trkpt lat="51.10331297" lon="13.72537851">
    <ele>170</ele>
    <extensions>
     <ql:flags>2147483656</ql:flags>
    </extensions>
   </trkpt>
   <trkpt lat="51.10331297" lon="13.72490644">
    <ele>170</ele>
    <extensions>
     <ql:flags>2147483656</ql:flags>
    </extensions>
   </trkpt>
   <trkpt lat="51.10318422" lon="13.72428417">
    <ele>169</ele>
    <extensions>
     <ql:flags>2147483656</ql:flags>
    </extensions>
   </trkpt>
   <trkpt lat="51.10296965" lon="13.72349024">
    <ele>168</ele>
    <extensions>
     <ql:flags>2147483656</ql:flags>
    </extensions>
   </trkpt>
   <trkpt lat="51.10292673" lon="13.72310400">
    <ele>168</ele>
    <extensions>
     <ql:flags>2147483656</ql:flags>
    </extensions>
   </trkpt>
   <trkpt lat="51.10281944" lon="13.72254610">
    <ele>167</ele>
    <extensions>
     <ql:flags>2147483656</ql:flags>
    </extensions>
   </trkpt>
   <trkpt lat="51.10282155" lon="13.72254480">
    <ele>167</ele>
    <extensions>
     <ql:flags>2147483648</ql:flags>
    </extensions>
   </trkpt>
   <trkpt lat="51.10292673" lon="13.72246027">
    <ele>167</ele>
    <extensions>
     <ql:flags>2147483656</ql:flags>
    </extensions>
   </trkpt>
   <trkpt lat="51.10328932" lon="13.72224574">
    <ele>167</ele>
    <extensions>
     <ql:flags>2147483648</ql:flags>
    </extensions>
   </trkpt>
   <trkpt lat="51.10337734" lon="13.72220278">
    <ele>167</ele>
    <extensions>
     <ql:flags>2147483656</ql:flags>
    </extensions>
   </trkpt>
   <trkpt lat="51.10344214" lon="13.72199093">
    <ele>167</ele>
    <extensions>
     <ql:flags>2147483648</ql:flags>
    </extensions>
   </trkpt>
   <trkpt lat="51.10350609" lon="13.72226715">
    <ele>168</ele>
    <extensions>
     <ql:flags>2147483656</ql:flags>
    </extensions>
   </trkpt>
   <trkpt lat="51.10354900" lon="13.72241735">
    <ele>168</ele>
    <extensions>
     <ql:flags>2147483656</ql:flags>
    </extensions>
   </trkpt>
   <trkpt lat="51.10369921" lon="13.72265339">
    <ele>169</ele>
    <extensions>
     <ql:flags>2147483656</ql:flags>
    </extensions>
   </trkpt>
   <trkpt lat="51.10397816" lon="13.72316837">
    <ele>174</ele>
    <extensions>
     <ql:flags>2147483656</ql:flags>
    </extensions>
   </trkpt>
   <trkpt lat="51.10408545" lon="13.72329712">
    <ele>176</ele>
    <extensions>
     <ql:flags>2147483656</ql:flags>
    </extensions>
   </trkpt>
   <trkpt lat="51.10440731" lon="13.72452021">
    <ele>181</ele>
    <extensions>
     <ql:flags>2147483656</ql:flags>
    </extensions>
   </trkpt>
   <trkpt lat="51.10451460" lon="13.72488499">
    <ele>182</ele>
    <extensions>
     <ql:flags>2147483656</ql:flags>
    </extensions>
   </trkpt>
   <trkpt lat="51.10453606" lon="13.72529268">
    <ele>182</ele>
    <extensions>
     <ql:flags>2147483656</ql:flags>
    </extensions>
   </trkpt>
   <trkpt lat="51.10462189" lon="13.72563601">
    <ele>183</ele>
    <extensions>
     <ql:flags>2147483656</ql:flags>
    </extensions>
   </trkpt>
   <trkpt lat="51.10462082" lon="13.72563605">
    <ele>183</ele>
    <extensions>
     <ql:flags>2147483648</ql:flags>
    </extensions>
   </trkpt>
   <trkpt lat="51.10468626" lon="13.72563601">
    <ele>184</ele>
    <extensions>
     <ql:flags>2147483656</ql:flags>
    </extensions>
   </trkpt>
   <trkpt lat="51.10477209" lon="13.72552872">
    <ele>186</ele>
    <extensions>
     <ql:flags>2147483656</ql:flags>
    </extensions>
   </trkpt>
   <trkpt lat="51.10496521" lon="13.72522831">
    <ele>190</ele>
    <extensions>
     <ql:flags>2147483656</ql:flags>
    </extensions>
   </trkpt>
   <trkpt lat="51.10528708" lon="13.72492790">
    <ele>196</ele>
    <extensions>
     <ql:flags>2147483656</ql:flags>
    </extensions>
   </trkpt>
   <trkpt lat="51.10530853" lon="13.72486353">
    <ele>197</ele>
    <extensions>
     <ql:flags>2147483656</ql:flags>
    </extensions>
   </trkpt>
   <trkpt lat="51.10597340" lon="13.72449879">
    <ele>204</ele>
    <extensions>
     <ql:flags>2147483648</ql:flags>
    </extensions>
   </trkpt>
   <trkpt lat="51.10663891" lon="13.72411251">
    <ele>208</ele>
    <extensions>
     <ql:flags>2147483656</ql:flags>
    </extensions>
   </trkpt>
   <trkpt lat="51.10681057" lon="13.72391939">
    <ele>209</ele>
    <extensions>
     <ql:flags>2147483656</ql:flags>
    </extensions>
   </trkpt>
   <trkpt lat="51.10710558" lon="13.72355868">
    <ele>211</ele>
    <extensions>
     <ql:flags>2147483648</ql:flags>
    </extensions>
   </trkpt>
   <trkpt lat="51.10711098" lon="13.72355461">
    <ele>211</ele>
    <extensions>
     <ql:flags>2147483656</ql:flags>
    </extensions>
   </trkpt>
   <trkpt lat="51.10745430" lon="13.72286797">
    <ele>211</ele>
    <extensions>
     <ql:flags>2147483656</ql:flags>
    </extensions>
   </trkpt>
   <trkpt lat="51.10747576" lon="13.72280359">
    <ele>211</ele>
    <extensions>
     <ql:flags>2147483656</ql:flags>
    </extensions>
   </trkpt>
   <trkpt lat="51.10751867" lon="13.72226715">
    <ele>209</ele>
    <extensions>
     <ql:flags>2147483656</ql:flags>
    </extensions>
   </trkpt>
   <trkpt lat="51.10822678" lon="13.72020721">
    <ele>195</ele>
    <extensions>
     <ql:flags>2147483656</ql:flags>
    </extensions>
   </trkpt>
   <trkpt lat="51.10839983" lon="13.71962924">
    <ele>193</ele>
    <extensions>
     <ql:flags>2147483648</ql:flags>
    </extensions>
   </trkpt>
   <trkpt lat="51.10844135" lon="13.71949911">
    <ele>192</ele>
    <extensions>
     <ql:flags>2147483656</ql:flags>
    </extensions>
   </trkpt>
   <trkpt lat="51.10854864" lon="13.71915579">
    <ele>190</ele>
    <extensions>
     <ql:flags>2147483656</ql:flags>
    </extensions>
   </trkpt>
   <trkpt lat="51.10865593" lon="13.71906996">
    <ele>189</ele>
    <extensions>
     <ql:flags>2147483656</ql:flags>
    </extensions>
   </trkpt>
   <trkpt lat="51.10882759" lon="13.71864080">
    <ele>187</ele>
    <extensions>
     <ql:flags>2147483656</ql:flags>
    </extensions>
   </trkpt>
   <trkpt lat="51.10852718" lon="13.71825457">
    <ele>187</ele>
    <extensions>
     <ql:flags>2147483656</ql:flags>
    </extensions>
   </trkpt>
   <trkpt lat="51.10839983" lon="13.71778924">
    <ele>186</ele>
    <extensions>
     <ql:flags>2147483648</ql:flags>
    </extensions>
   </trkpt>
   <trkpt lat="51.10824823" lon="13.71724606">
    <ele>185</ele>
    <extensions>
     <ql:flags>2147483656</ql:flags>
    </extensions>
   </trkpt>
   <trkpt lat="51.10839814" lon="13.71694703">
    <ele>185</ele>
    <extensions>
     <ql:flags>2147483648</ql:flags>
    </extensions>
   </trkpt>
   <trkpt lat="51.10857010" lon="13.71660233">
    <ele>186</ele>
    <extensions>
     <ql:flags>2147483656</ql:flags>
    </extensions>
   </trkpt>
   <trkpt lat="51.10874259" lon="13.71570383">
    <ele>188</ele>
    <extensions>
     <ql:flags>2147483648</ql:flags>
    </extensions>
   </trkpt>
   <trkpt lat="51.10889196" lon="13.71516466">
    <ele>189</ele>
    <extensions>
     <ql:flags>2147483656</ql:flags>
    </extensions>
   </trkpt>
   <trkpt lat="51.10927820" lon="13.71385574">
    <ele>194</ele>
    <extensions>
     <ql:flags>2147483656</ql:flags>
    </extensions>
   </trkpt>
   <trkpt lat="51.10936403" lon="13.71351242">
    <ele>195</ele>
    <extensions>
     <ql:flags>2147483656</ql:flags>
    </extensions>
   </trkpt>
   <trkpt lat="51.10960007" lon="13.71282578">
    <ele>197</ele>
    <extensions>
     <ql:flags>2147483656</ql:flags>
    </extensions>
   </trkpt>
   <trkpt lat="51.10970736" lon="13.71241808">
    <ele>199</ele>
    <extensions>
     <ql:flags>2147483656</ql:flags>
    </extensions>
   </trkpt>
   <trkpt lat="51.10996335" lon="13.71186425">
    <ele>202</ele>
    <extensions>
     <ql:flags>2147483648</ql:flags>
    </extensions>
   </trkpt>
   <trkpt lat="51.10996485" lon="13.71186018">
    <ele>202</ele>
    <extensions>
     <ql:flags>2147483656</ql:flags>
    </extensions>
   </trkpt>
   <trkpt lat="51.11006972" lon="13.71143107">
    <ele>205</ele>
    <extensions>
     <ql:flags>2147483648</ql:flags>
    </extensions>
   </trkpt>
   <trkpt lat="51.11015797" lon="13.71119499">
    <ele>206</ele>
    <extensions>
     <ql:flags>2147483656</ql:flags>
    </extensions>
   </trkpt>
   <trkpt lat="51.11041546" lon="13.71012211">
    <ele>208</ele>
    <extensions>
     <ql:flags>2147483656</ql:flags>
    </extensions>
   </trkpt>
   <trkpt lat="51.11045837" lon="13.70980024">
    <ele>207</ele>
    <extensions>
     <ql:flags>2147483656</ql:flags>
    </extensions>
   </trkpt>
   <trkpt lat="51.11056612" lon="13.70939795">
    <ele>207</ele>
    <extensions>
     <ql:flags>2147483648</ql:flags>
    </extensions>
   </trkpt>
   <trkpt lat="51.11060858" lon="13.70889902">
    <ele>206</ele>
    <extensions>
     <ql:flags>2147483656</ql:flags>
    </extensions>
   </trkpt>
   <trkpt lat="51.11069441" lon="13.70862007">
    <ele>206</ele>
    <extensions>
     <ql:flags>2147483656</ql:flags>
    </extensions>
   </trkpt>
   <trkpt lat="51.11084461" lon="13.70784760">
    <ele>202</ele>
    <extensions>
     <ql:flags>2147483656</ql:flags>
    </extensions>
   </trkpt>
   <trkpt lat="51.11095190" lon="13.70718241">
    <ele>198</ele>
    <extensions>
     <ql:flags>2147483656</ql:flags>
    </extensions>
   </trkpt>
   <trkpt lat="51.11112356" lon="13.70666742">
    <ele>197</ele>
    <extensions>
     <ql:flags>2147483656</ql:flags>
    </extensions>
   </trkpt>
   <trkpt lat="51.11116648" lon="13.70608807">
    <ele>194</ele>
    <extensions>
     <ql:flags>2147483656</ql:flags>
    </extensions>
   </trkpt>
   <trkpt lat="51.11118793" lon="13.70589495">
    <ele>192</ele>
    <extensions>
     <ql:flags>2147483656</ql:flags>
    </extensions>
   </trkpt>
   <trkpt lat="51.11129522" lon="13.70568037">
    <ele>191</ele>
    <extensions>
     <ql:flags>2147483656</ql:flags>
    </extensions>
   </trkpt>
   <trkpt lat="51.11129551" lon="13.70542963">
    <ele>189</ele>
    <extensions>
     <ql:flags>2147483648</ql:flags>
    </extensions>
   </trkpt>
   <trkpt lat="51.11108065" lon="13.70454311">
    <ele>180</ele>
    <extensions>
     <ql:flags>2147483656</ql:flags>
    </extensions>
   </trkpt>
   <trkpt lat="51.11116648" lon="13.70437145">
    <ele>179</ele>
    <extensions>
     <ql:flags>2147483656</ql:flags>
    </extensions>
   </trkpt>
   <trkpt lat="51.11138105" lon="13.70392084">
    <ele>175</ele>
    <extensions>
     <ql:flags>2147483656</ql:flags>
    </extensions>
   </trkpt>
   <trkpt lat="51.11144543" lon="13.70372772">
    <ele>173</ele>
    <extensions>
     <ql:flags>2147483656</ql:flags>
    </extensions>
   </trkpt>
   <trkpt lat="51.11150980" lon="13.70344877">
    <ele>171</ele>
    <extensions>
     <ql:flags>2147483656</ql:flags>
    </extensions>
   </trkpt>
   <trkpt lat="51.11153126" lon="13.70301962">
    <ele>168</ele>
    <extensions>
     <ql:flags>2147483656</ql:flags>
    </extensions>
   </trkpt>
   <trkpt lat="51.11155272" lon="13.70256901">
    <ele>167</ele>
    <extensions>
     <ql:flags>2147483656</ql:flags>
    </extensions>
   </trkpt>
   <trkpt lat="51.11153126" lon="13.70248318">
    <ele>167</ele>
    <extensions>
     <ql:flags>2147483656</ql:flags>
    </extensions>
   </trkpt>
   <trkpt lat="51.11148834" lon="13.70196819">
    <ele>167</ele>
    <extensions>
     <ql:flags>2147483656</ql:flags>
    </extensions>
   </trkpt>
   <trkpt lat="51.11146688" lon="13.70171070">
    <ele>168</ele>
    <extensions>
     <ql:flags>2147483656</ql:flags>
    </extensions>
   </trkpt>
   <trkpt lat="51.11146688" lon="13.70160341">
    <ele>169</ele>
    <extensions>
     <ql:flags>2147483656</ql:flags>
    </extensions>
   </trkpt>
   <trkpt lat="51.11144662" lon="13.70143582">
    <ele>170</ele>
    <extensions>
     <ql:flags>2147483648</ql:flags>
    </extensions>
   </trkpt>
   <trkpt lat="51.11144543" lon="13.70143175">
    <ele>170</ele>
    <extensions>
     <ql:flags>2147483656</ql:flags>
    </extensions>
   </trkpt>
   <trkpt lat="51.11146688" lon="13.70126281">
    <ele>171</ele>
    <extensions>
     <ql:flags>2147483648</ql:flags>
    </extensions>
   </trkpt>
   <trkpt lat="51.11161461" lon="13.70109115">
    <ele>172</ele>
    <extensions>
     <ql:flags>2147483648</ql:flags>
    </extensions>
   </trkpt>
   <trkpt lat="51.11176729" lon="13.70065928">
    <ele>175</ele>
    <extensions>
     <ql:flags>2147483656</ql:flags>
    </extensions>
   </trkpt>
   <trkpt lat="51.11185312" lon="13.70020866">
    <ele>177</ele>
    <extensions>
     <ql:flags>2147483656</ql:flags>
    </extensions>
   </trkpt>
   <trkpt lat="51.11189604" lon="13.69986534">
    <ele>177</ele>
    <extensions>
     <ql:flags>2147483656</ql:flags>
    </extensions>
   </trkpt>
   <trkpt lat="51.11191750" lon="13.69969368">
    <ele>178</ele>
    <extensions>
     <ql:flags>2147483656</ql:flags>
    </extensions>
   </trkpt>
   <trkpt lat="51.11200333" lon="13.69930744">
    <ele>178</ele>
    <extensions>
     <ql:flags>2147483656</ql:flags>
    </extensions>
   </trkpt>
   <trkpt lat="51.11206770" lon="13.69870663">
    <ele>179</ele>
    <extensions>
     <ql:flags>2147483656</ql:flags>
    </extensions>
   </trkpt>
   <trkpt lat="51.11219645" lon="13.69769812">
    <ele>177</ele>
    <extensions>
     <ql:flags>2147483656</ql:flags>
    </extensions>
   </trkpt>
   <trkpt lat="51.11226082" lon="13.69707584">
    <ele>178</ele>
    <extensions>
     <ql:flags>2147483656</ql:flags>
    </extensions>
   </trkpt>
   <trkpt lat="51.11211061" lon="13.69658232">
    <ele>174</ele>
    <extensions>
     <ql:flags>2147483656</ql:flags>
    </extensions>
   </trkpt>
   <trkpt lat="51.11238956" lon="13.69596004">
    <ele>180</ele>
    <extensions>
     <ql:flags>2147483656</ql:flags>
    </extensions>
   </trkpt>
   <trkpt lat="51.11239041" lon="13.69596411">
    <ele>180</ele>
    <extensions>
     <ql:flags>2147483648</ql:flags>
    </extensions>
   </trkpt>
   <trkpt lat="51.11185312" lon="13.69490862">
    <ele>173</ele>
    <extensions>
     <ql:flags>2147483656</ql:flags>
    </extensions>
   </trkpt>
   <trkpt lat="51.11163909" lon="13.69463239">
    <ele>174</ele>
    <extensions>
     <ql:flags>2147483648</ql:flags>
    </extensions>
   </trkpt>
   <trkpt lat="51.11163855" lon="13.69462967">
    <ele>174</ele>
    <extensions>
     <ql:flags>2147483656</ql:flags>
    </extensions>
   </trkpt>
   <trkpt lat="51.11159563" lon="13.69441509">
    <ele>175</ele>
    <extensions>
     <ql:flags>2147483656</ql:flags>
    </extensions>
   </trkpt>
   <trkpt lat="51.11150980" lon="13.69409323">
    <ele>176</ele>
    <extensions>
     <ql:flags>2147483656</ql:flags>
    </extensions>
   </trkpt>
   <trkpt lat="51.11103887" lon="13.69194750">
    <ele>175</ele>
    <extensions>
     <ql:flags>2147483648</ql:flags>
    </extensions>
   </trkpt>
   <trkpt lat="51.11138105" lon="13.69192600">
    <ele>175</ele>
    <extensions>
     <ql:flags>2147483656</ql:flags>
    </extensions>
   </trkpt>
   <trkpt lat="51.11185267" lon="13.69177584">
    <ele>173</ele>
    <extensions>
     <ql:flags>2147483648</ql:flags>
    </extensions>
   </trkpt>
   <trkpt lat="51.11204624" lon="13.69173288">
    <ele>173</ele>
    <extensions>
     <ql:flags>2147483656</ql:flags>
    </extensions>
   </trkpt>
   <trkpt lat="51.11238956" lon="13.69186163">
    <ele>176</ele>
    <extensions>
     <ql:flags>2147483656</ql:flags>
    </extensions>
   </trkpt>
   <trkpt lat="51.11316204" lon="13.69166851">
    <ele>186</ele>
    <extensions>
     <ql:flags>2147483656</ql:flags>
    </extensions>
   </trkpt>
   <trkpt lat="51.11318140" lon="13.69166989">
    <ele>186</ele>
    <extensions>
     <ql:flags>2147483648</ql:flags>
    </extensions>
   </trkpt>
   <trkpt lat="51.11326750" lon="13.69167392">
    <ele>188</ele>
    <extensions>
     <ql:flags>2147483648</ql:flags>
    </extensions>
   </trkpt>
   <trkpt lat="51.11333370" lon="13.69168997">
    <ele>189</ele>
    <extensions>
     <ql:flags>2147483656</ql:flags>
    </extensions>
   </trkpt>
   <trkpt lat="51.11350536" lon="13.69181871">
    <ele>192</ele>
    <extensions>
     <ql:flags>2147483656</ql:flags>
    </extensions>
   </trkpt>
   <trkpt lat="51.11356974" lon="13.69199038">
    <ele>193</ele>
    <extensions>
     <ql:flags>2147483656</ql:flags>
    </extensions>
   </trkpt>
   <trkpt lat="51.11371994" lon="13.69216204">
    <ele>197</ele>
    <extensions>
     <ql:flags>2147483656</ql:flags>
    </extensions>
   </trkpt>
   <trkpt lat="51.11380577" lon="13.69222641">
    <ele>199</ele>
    <extensions>
     <ql:flags>2147483656</ql:flags>
    </extensions>
   </trkpt>
   <trkpt lat="51.11395597" lon="13.69237661">
    <ele>201</ele>
    <extensions>
     <ql:flags>2147483656</ql:flags>
    </extensions>
   </trkpt>
   <trkpt lat="51.11404181" lon="13.69248390">
    <ele>203</ele>
    <extensions>
     <ql:flags>2147483656</ql:flags>
    </extensions>
   </trkpt>
   <trkpt lat="51.11417055" lon="13.69261265">
    <ele>205</ele>
    <extensions>
     <ql:flags>2147483656</ql:flags>
    </extensions>
   </trkpt>
   <trkpt lat="51.11423492" lon="13.69269848">
    <ele>206</ele>
    <extensions>
     <ql:flags>2147483656</ql:flags>
    </extensions>
   </trkpt>
   <trkpt lat="51.11468554" lon="13.69276285">
    <ele>210</ele>
    <extensions>
     <ql:flags>2147483656</ql:flags>
    </extensions>
   </trkpt>
   <trkpt lat="51.11476839" lon="13.69276155">
    <ele>211</ele>
    <extensions>
     <ql:flags>2147483648</ql:flags>
    </extensions>
   </trkpt>
   <trkpt lat="51.11494303" lon="13.69274139">
    <ele>211</ele>
    <extensions>
     <ql:flags>2147483656</ql:flags>
    </extensions>
   </trkpt>
   <trkpt lat="51.11498594" lon="13.69267702">
    <ele>211</ele>
    <extensions>
     <ql:flags>2147483656</ql:flags>
    </extensions>
   </trkpt>
   <trkpt lat="51.11505032" lon="13.69237661">
    <ele>210</ele>
    <extensions>
     <ql:flags>2147483656</ql:flags>
    </extensions>
   </trkpt>
   <trkpt lat="51.11505032" lon="13.69218349">
    <ele>209</ele>
    <extensions>
     <ql:flags>2147483656</ql:flags>
    </extensions>
   </trkpt>
   <trkpt lat="51.11502886" lon="13.69201183">
    <ele>209</ele>
    <extensions>
     <ql:flags>2147483656</ql:flags>
    </extensions>
   </trkpt>
   <trkpt lat="51.11526489" lon="13.69121790">
    <ele>218</ele>
    <extensions>
     <ql:flags>2147483656</ql:flags>
    </extensions>
   </trkpt>
   <trkpt lat="51.11524448" lon="13.69117771">
    <ele>218</ele>
    <extensions>
     <ql:flags>2147483648</ql:flags>
    </extensions>
   </trkpt>
   <trkpt lat="51.11522198" lon="13.69115353">
    <ele>217</ele>
    <extensions>
     <ql:flags>2147483656</ql:flags>
    </extensions>
   </trkpt>
   <trkpt lat="51.11477137" lon="13.69216204">
    <ele>207</ele>
    <extensions>
     <ql:flags>2147483656</ql:flags>
    </extensions>
   </trkpt>
   <trkpt lat="51.11470699" lon="13.69222641">
    <ele>206</ele>
    <extensions>
     <ql:flags>2147483656</ql:flags>
    </extensions>
   </trkpt>
   <trkpt lat="51.11451387" lon="13.69218349">
    <ele>204</ele>
    <extensions>
     <ql:flags>2147483656</ql:flags>
    </extensions>
   </trkpt>
   <trkpt lat="51.11444950" lon="13.69203329">
    <ele>203</ele>
    <extensions>
     <ql:flags>2147483656</ql:flags>
    </extensions>
   </trkpt>
   <trkpt lat="51.11462116" lon="13.69087458">
    <ele>214</ele>
    <extensions>
     <ql:flags>2147483656</ql:flags>
    </extensions>
   </trkpt>
   <trkpt lat="51.11466408" lon="13.68999481">
    <ele>221</ele>
    <extensions>
     <ql:flags>2147483656</ql:flags>
    </extensions>
   </trkpt>
   <trkpt lat="51.11464262" lon="13.68954420">
    <ele>224</ele>
    <extensions>
     <ql:flags>2147483656</ql:flags>
    </extensions>
   </trkpt>
   <trkpt lat="51.11449242" lon="13.68838549">
    <ele>232</ele>
    <extensions>
     <ql:flags>2147483656</ql:flags>
    </extensions>
   </trkpt>
   <trkpt lat="51.11423492" lon="13.68754864">
    <ele>239</ele>
    <extensions>
     <ql:flags>2147483656</ql:flags>
    </extensions>
   </trkpt>
   <trkpt lat="51.11404581" lon="13.68731801">
    <ele>238</ele>
    <extensions>
     <ql:flags>2147483648</ql:flags>
    </extensions>
   </trkpt>
   <trkpt lat="51.11307841" lon="13.68677620">
    <ele>237</ele>
    <extensions>
     <ql:flags>2147483648</ql:flags>
    </extensions>
   </trkpt>
   <trkpt lat="51.11273652" lon="13.68660722">
    <ele>230</ele>
    <extensions>
     <ql:flags>2147483648</ql:flags>
    </extensions>
   </trkpt>
   <trkpt lat="51.11247567" lon="13.68699212">
    <ele>219</ele>
    <extensions>
     <ql:flags>2147483648</ql:flags>
    </extensions>
   </trkpt>
   <trkpt lat="51.11247540" lon="13.68699074">
    <ele>219</ele>
    <extensions>
     <ql:flags>2147483656</ql:flags>
    </extensions>
   </trkpt>
   <trkpt lat="51.11243248" lon="13.68699074">
    <ele>217</ele>
    <extensions>
     <ql:flags>2147483656</ql:flags>
    </extensions>
   </trkpt>
   <trkpt lat="51.11234665" lon="13.68688345">
    <ele>214</ele>
    <extensions>
     <ql:flags>2147483656</ql:flags>
    </extensions>
   </trkpt>
   <trkpt lat="51.11236811" lon="13.68681908">
    <ele>215</ele>
    <extensions>
     <ql:flags>2147483656</ql:flags>
    </extensions>
   </trkpt>
   <trkpt lat="51.11241102" lon="13.68658304">
    <ele>218</ele>
    <extensions>
     <ql:flags>2147483656</ql:flags>
    </extensions>
   </trkpt>
   <trkpt lat="51.11249685" lon="13.68641138">
    <ele>223</ele>
    <extensions>
     <ql:flags>2147483656</ql:flags>
    </extensions>
   </trkpt>
   <trkpt lat="51.11245394" lon="13.68621826">
    <ele>222</ele>
    <extensions>
     <ql:flags>2147483656</ql:flags>
    </extensions>
   </trkpt>
   <trkpt lat="51.11249685" lon="13.68604660">
    <ele>224</ele>
    <extensions>
     <ql:flags>2147483656</ql:flags>
    </extensions>
   </trkpt>
   <trkpt lat="51.11253977" lon="13.68585348">
    <ele>226</ele>
    <extensions>
     <ql:flags>2147483656</ql:flags>
    </extensions>
   </trkpt>
   <trkpt lat="51.11245394" lon="13.68548870">
    <ele>223</ele>
    <extensions>
     <ql:flags>2147483656</ql:flags>
    </extensions>
   </trkpt>
   <trkpt lat="51.11234665" lon="13.68553162">
    <ele>220</ele>
    <extensions>
     <ql:flags>2147483656</ql:flags>
    </extensions>
   </trkpt>
   <trkpt lat="51.11226082" lon="13.68529558">
    <ele>218</ele>
    <extensions>
     <ql:flags>2147483656</ql:flags>
    </extensions>
   </trkpt>
   <trkpt lat="51.11232519" lon="13.68508101">
    <ele>221</ele>
    <extensions>
     <ql:flags>2147483656</ql:flags>
    </extensions>
   </trkpt>
   <trkpt lat="51.11236811" lon="13.68501663">
    <ele>223</ele>
    <extensions>
     <ql:flags>2147483656</ql:flags>
    </extensions>
   </trkpt>
   <trkpt lat="51.11223936" lon="13.68411541">
    <ele>227</ele>
    <extensions>
     <ql:flags>2147483656</ql:flags>
    </extensions>
   </trkpt>
   <trkpt lat="51.11215353" lon="13.68377209">
    <ele>229</ele>
    <extensions>
     <ql:flags>2147483656</ql:flags>
    </extensions>
   </trkpt>
   <trkpt lat="51.11202478" lon="13.68355751">
    <ele>228</ele>
    <extensions>
     <ql:flags>2147483656</ql:flags>
    </extensions>
   </trkpt>
   <trkpt lat="51.11183167" lon="13.68325710">
    <ele>226</ele>
    <extensions>
     <ql:flags>2147483656</ql:flags>
    </extensions>
   </trkpt>
   <trkpt lat="51.11159563" lon="13.68317127">
    <ele>220</ele>
    <extensions>
     <ql:flags>2147483656</ql:flags>
    </extensions>
   </trkpt>
   <trkpt lat="51.11129522" lon="13.68312836">
    <ele>213</ele>
    <extensions>
     <ql:flags>2147483656</ql:flags>
    </extensions>
   </trkpt>
   <trkpt lat="51.11118793" lon="13.68308544">
    <ele>209</ele>
    <extensions>
     <ql:flags>2147483656</ql:flags>
    </extensions>
   </trkpt>
   <trkpt lat="51.11105919" lon="13.68297815">
    <ele>204</ele>
    <extensions>
     <ql:flags>2147483656</ql:flags>
    </extensions>
   </trkpt>
   <trkpt lat="51.11108065" lon="13.68282795">
    <ele>206</ele>
    <extensions>
     <ql:flags>2147483656</ql:flags>
    </extensions>
   </trkpt>
   <trkpt lat="51.11112356" lon="13.68257046">
    <ele>209</ele>
    <extensions>
     <ql:flags>2147483656</ql:flags>
    </extensions>
   </trkpt>
   <trkpt lat="51.11114502" lon="13.68235588">
    <ele>211</ele>
    <extensions>
     <ql:flags>2147483656</ql:flags>
    </extensions>
   </trkpt>
   <trkpt lat="51.11114692" lon="13.68235458">
    <ele>211</ele>
    <extensions>
     <ql:flags>2147483648</ql:flags>
    </extensions>
   </trkpt>
   <trkpt lat="51.11114502" lon="13.68235588">
    <ele>211</ele>
    <extensions>
     <ql:flags>2147483656</ql:flags>
    </extensions>
   </trkpt>
   <trkpt lat="51.11108065" lon="13.68227005">
    <ele>208</ele>
    <extensions>
     <ql:flags>2147483656</ql:flags>
    </extensions>
   </trkpt>
   <trkpt lat="51.11108065" lon="13.68214130">
    <ele>209</ele>
    <extensions>
     <ql:flags>2147483656</ql:flags>
    </extensions>
   </trkpt>
   <trkpt lat="51.11105919" lon="13.68188381">
    <ele>208</ele>
    <extensions>
     <ql:flags>2147483656</ql:flags>
    </extensions>
   </trkpt>
   <trkpt lat="51.11103773" lon="13.68177652">
    <ele>207</ele>
    <extensions>
     <ql:flags>2147483656</ql:flags>
    </extensions>
   </trkpt>
   <trkpt lat="51.11097555" lon="13.68169610">
    <ele>205</ele>
    <extensions>
     <ql:flags>2147483648</ql:flags>
    </extensions>
   </trkpt>
   <trkpt lat="51.11097336" lon="13.68169069">
    <ele>205</ele>
    <extensions>
     <ql:flags>2147483656</ql:flags>
    </extensions>
   </trkpt>
   <trkpt lat="51.11071587" lon="13.68145466">
    <ele>194</ele>
    <extensions>
     <ql:flags>2147483656</ql:flags>
    </extensions>
   </trkpt>
   <trkpt lat="51.11056611" lon="13.68139167">
    <ele>188</ele>
    <extensions>
     <ql:flags>2147483648</ql:flags>
    </extensions>
   </trkpt>
   <trkpt lat="51.11054420" lon="13.68143320">
    <ele>187</ele>
    <extensions>
     <ql:flags>2147483656</ql:flags>
    </extensions>
   </trkpt>
   <trkpt lat="51.11052275" lon="13.68145466">
    <ele>186</ele>
    <extensions>
     <ql:flags>2147483656</ql:flags>
    </extensions>
   </trkpt>
   <trkpt lat="51.11050026" lon="13.68143592">
    <ele>185</ele>
    <extensions>
     <ql:flags>2147483648</ql:flags>
    </extensions>
   </trkpt>
   <trkpt lat="51.11052275" lon="13.68145466">
    <ele>186</ele>
    <extensions>
     <ql:flags>2147483656</ql:flags>
    </extensions>
   </trkpt>
   <trkpt lat="51.11054420" lon="13.68143320">
    <ele>187</ele>
    <extensions>
     <ql:flags>2147483656</ql:flags>
    </extensions>
   </trkpt>
   <trkpt lat="51.11056566" lon="13.68139029">
    <ele>188</ele>
    <extensions>
     <ql:flags>2147483656</ql:flags>
    </extensions>
   </trkpt>
   <trkpt lat="51.11047983" lon="13.68057489">
    <ele>184</ele>
    <extensions>
     <ql:flags>2147483656</ql:flags>
    </extensions>
   </trkpt>
   <trkpt lat="51.11045837" lon="13.68046761">
    <ele>183</ele>
    <extensions>
     <ql:flags>2147483656</ql:flags>
    </extensions>
   </trkpt>
   <trkpt lat="51.11028836" lon="13.68016992">
    <ele>177</ele>
    <extensions>
     <ql:flags>2147483648</ql:flags>
    </extensions>
   </trkpt>
   <trkpt lat="51.11028671" lon="13.68016720">
    <ele>177</ele>
    <extensions>
     <ql:flags>2147483656</ql:flags>
    </extensions>
   </trkpt>
   <trkpt lat="51.11011505" lon="13.68016720">
    <ele>171</ele>
    <extensions>
     <ql:flags>2147483656</ql:flags>
    </extensions>
   </trkpt>
   <trkpt lat="51.10998631" lon="13.68010283">
    <ele>167</ele>
    <extensions>
     <ql:flags>2147483656</ql:flags>
    </extensions>
   </trkpt>
   <trkpt lat="51.10977173" lon="13.68001699">
    <ele>161</ele>
    <extensions>
     <ql:flags>2147483656</ql:flags>
    </extensions>
   </trkpt>
   <trkpt lat="51.10964298" lon="13.68001699">
    <ele>158</ele>
    <extensions>
     <ql:flags>2147483656</ql:flags>
    </extensions>
   </trkpt>
   <trkpt lat="51.10940695" lon="13.67997408">
    <ele>153</ele>
    <extensions>
     <ql:flags>2147483656</ql:flags>
    </extensions>
   </trkpt>
   <trkpt lat="51.10917230" lon="13.67988963">
    <ele>150</ele>
    <extensions>
     <ql:flags>2147483648</ql:flags>
    </extensions>
   </trkpt>
   <trkpt lat="51.10902287" lon="13.67993121">
    <ele>148</ele>
    <extensions>
     <ql:flags>2147483648</ql:flags>
    </extensions>
   </trkpt>
   <trkpt lat="51.10906363" lon="13.67963076">
    <ele>150</ele>
    <extensions>
     <ql:flags>2147483656</ql:flags>
    </extensions>
   </trkpt>
   <trkpt lat="51.10914946" lon="13.67933035">
    <ele>151</ele>
    <extensions>
     <ql:flags>2147483656</ql:flags>
    </extensions>
   </trkpt>
   <trkpt lat="51.10923529" lon="13.67872953">
    <ele>153</ele>
    <extensions>
     <ql:flags>2147483656</ql:flags>
    </extensions>
   </trkpt>
   <trkpt lat="51.10927867" lon="13.67854048">
    <ele>153</ele>
    <extensions>
     <ql:flags>2147483648</ql:flags>
    </extensions>
   </trkpt>
   <trkpt lat="51.10927820" lon="13.67853642">
    <ele>153</ele>
    <extensions>
     <ql:flags>2147483656</ql:flags>
    </extensions>
   </trkpt>
   <trkpt lat="51.10912840" lon="13.67830176">
    <ele>150</ele>
    <extensions>
     <ql:flags>2147483648</ql:flags>
    </extensions>
   </trkpt>
  </trkseg>
  <trkseg>
   <trkpt lat="51.10913009" lon="13.67830042">
    <ele>150</ele>
    <extensions>
     <ql:flags>2147483648</ql:flags>
    </extensions>
   </trkpt>
   <trkpt lat="51.10955727" lon="13.67827762">
    <ele>157</ele>
    <extensions>
     <ql:flags>2147483648</ql:flags>
    </extensions>
   </trkpt>
   <trkpt lat="51.10964298" lon="13.67821455">
    <ele>158</ele>
    <extensions>
     <ql:flags>2147483656</ql:flags>
    </extensions>
   </trkpt>
   <trkpt lat="51.10976917" lon="13.67797722">
    <ele>159</ele>
    <extensions>
     <ql:flags>2147483648</ql:flags>
    </extensions>
   </trkpt>
   <trkpt lat="51.10981464" lon="13.67750645">
    <ele>158</ele>
    <extensions>
     <ql:flags>2147483656</ql:flags>
    </extensions>
   </trkpt>
   <trkpt lat="51.10987976" lon="13.67741932">
    <ele>158</ele>
    <extensions>
     <ql:flags>2147483648</ql:flags>
    </extensions>
   </trkpt>
   <trkpt lat="51.10992193" lon="13.67731333">
    <ele>158</ele>
    <extensions>
     <ql:flags>2147483656</ql:flags>
    </extensions>
   </trkpt>
   <trkpt lat="51.11002922" lon="13.67634773">
    <ele>156</ele>
    <extensions>
     <ql:flags>2147483656</ql:flags>
    </extensions>
   </trkpt>
   <trkpt lat="51.10996587" lon="13.67611174">
    <ele>155</ele>
    <extensions>
     <ql:flags>2147483648</ql:flags>
    </extensions>
   </trkpt>
   <trkpt lat="51.10996485" lon="13.67611170">
    <ele>155</ele>
    <extensions>
     <ql:flags>2147483656</ql:flags>
    </extensions>
   </trkpt>
   <trkpt lat="51.10966444" lon="13.67632627">
    <ele>152</ele>
    <extensions>
     <ql:flags>2147483656</ql:flags>
    </extensions>
   </trkpt>
   <trkpt lat="51.10955715" lon="13.67634773">
    <ele>151</ele>
    <extensions>
     <ql:flags>2147483656</ql:flags>
    </extensions>
   </trkpt>
   <trkpt lat="51.10839897" lon="13.67615466">
    <ele>142</ele>
    <extensions>
     <ql:flags>2147483648</ql:flags>
    </extensions>
   </trkpt>
   <trkpt lat="51.10839844" lon="13.67615461">
    <ele>142</ele>
    <extensions>
     <ql:flags>2147483656</ql:flags>
    </extensions>
   </trkpt>
   <trkpt lat="51.10826896" lon="13.67613320">
    <ele>142</ele>
    <extensions>
     <ql:flags>2147483648</ql:flags>
    </extensions>
   </trkpt>
   <trkpt lat="51.10803341" lon="13.67613320">
    <ele>141</ele>
    <extensions>
     <ql:flags>2147483648</ql:flags>
    </extensions>
   </trkpt>
   <trkpt lat="51.10794783" lon="13.67609024">
    <ele>140</ele>
    <extensions>
     <ql:flags>2147483656</ql:flags>
    </extensions>
   </trkpt>
   <trkpt lat="51.10788482" lon="13.67598568">
    <ele>140</ele>
    <extensions>
     <ql:flags>2147483648</ql:flags>
    </extensions>
   </trkpt>
   <trkpt lat="51.10488086" lon="13.67694993">
    <ele>127</ele>
    <extensions>
     <ql:flags>2147483648</ql:flags>
    </extensions>
   </trkpt>
   <trkpt lat="51.10483646" lon="13.67724895">
    <ele>127</ele>
    <extensions>
     <ql:flags>2147483656</ql:flags>
    </extensions>
   </trkpt>
   <trkpt lat="51.10481500" lon="13.67733751">
    <ele>127</ele>
    <extensions>
     <ql:flags>2147483648</ql:flags>
    </extensions>
   </trkpt>
   <trkpt lat="51.10342026" lon="13.67830038">
    <ele>123</ele>
    <extensions>
     <ql:flags>2147483656</ql:flags>
    </extensions>
   </trkpt>
   <trkpt lat="51.10296965" lon="13.67860079">
    <ele>123</ele>
    <extensions>
     <ql:flags>2147483656</ql:flags>
    </extensions>
   </trkpt>
   <trkpt lat="51.10288486" lon="13.67858071">
    <ele>123</ele>
    <extensions>
     <ql:flags>2147483648</ql:flags>
    </extensions>
   </trkpt>
   <trkpt lat="51.10281944" lon="13.67890120">
    <ele>123</ele>
    <extensions>
     <ql:flags>2147483656</ql:flags>
    </extensions>
   </trkpt>
   <trkpt lat="51.10262632" lon="13.67982388">
    <ele>123</ele>
    <extensions>
     <ql:flags>2147483656</ql:flags>
    </extensions>
   </trkpt>
   <trkpt lat="51.10249758" lon="13.68044615">
    <ele>123</ele>
    <extensions>
     <ql:flags>2147483656</ql:flags>
    </extensions>
   </trkpt>
   <trkpt lat="51.10226154" lon="13.68115425">
    <ele>123</ele>
    <extensions>
     <ql:flags>2147483656</ql:flags>
    </extensions>
   </trkpt>
   <trkpt lat="51.10221863" lon="13.68136883">
    <ele>123</ele>
    <extensions>
     <ql:flags>2147483656</ql:flags>
    </extensions>
   </trkpt>
   <trkpt lat="51.10213760" lon="13.68163441">
    <ele>123</ele>
    <extensions>
     <ql:flags>2147483648</ql:flags>
    </extensions>
   </trkpt>
  </trkseg>
 </trk>
 <extensions>
  <ql:key>ab16e2e256d1893f27635649d0a69ea0</ql:key>
  <ql:sortingRoadbook>0</ql:sortingRoadbook>
  <ql:sortingFolder>0</ql:sortingFolder>
  <ql:correlation>1</ql:correlation>
 </extensions>
</gpx>
