<?xml version='1.0' encoding='UTF-8'?>
<gpx version="1.1" creator="https://www.komoot.de" xmlns="http://www.topografix.com/GPX/1/1" xmlns:xsi="http://www.w3.org/2001/XMLSchema-instance" xsi:schemaLocation="http://www.topografix.com/GPX/1/1 http://www.topografix.com/GPX/1/1/gpx.xsd">
  <metadata>
    <name>Streifzug 21 | Auf Treidelwegen von Pieschen nach Kötzschenbroda</name>
    <author>
      <link href="https://www.komoot.de">
        <text>komoot</text>
        <type>text/html</type>
      </link>
    </author>
  </metadata>
  <trk>
    <name>Streifzug 21 | Auf Treidelwegen von Pieschen nach Kötzschenbroda</name>
    <trkseg>
      <trkpt lat="51.077399" lon="13.721717">
        <ele>115.599998</ele>
        <time>2021-12-01T12:00:59.000Z</time>
      </trkpt>
      <trkpt lat="51.077396" lon="13.721792">
        <ele>115.599998</ele>
        <time>2021-12-01T12:01:03.840Z</time>
      </trkpt>
      <trkpt lat="51.077388" lon="13.722088">
        <ele>115.599998</ele>
        <time>2021-12-01T12:01:22.811Z</time>
      </trkpt>
      <trkpt lat="51.077387" lon="13.722126">
        <ele>115.599998</ele>
        <time>2021-12-01T12:01:25.246Z</time>
      </trkpt>
      <trkpt lat="51.077382" lon="13.722275">
        <ele>115.599998</ele>
        <time>2021-12-01T12:01:34.682Z</time>
      </trkpt>
      <trkpt lat="51.077393" lon="13.722276">
        <ele>115.599998</ele>
        <time>2021-12-01T12:01:35.855Z</time>
      </trkpt>
      <trkpt lat="51.077450" lon="13.722278">
        <ele>115.599998</ele>
        <time>2021-12-01T12:01:41.664Z</time>
      </trkpt>
      <trkpt lat="51.077462" lon="13.722279">
        <ele>115.599998</ele>
        <time>2021-12-01T12:01:42.891Z</time>
      </trkpt>
      <trkpt lat="51.077813" lon="13.722288">
        <ele>115.599998</ele>
        <time>2021-12-01T12:02:18.513Z</time>
      </trkpt>
      <trkpt lat="51.077881" lon="13.722290">
        <ele>115.599998</ele>
        <time>2021-12-01T12:02:25.383Z</time>
      </trkpt>
      <trkpt lat="51.077915" lon="13.722254">
        <ele>115.599998</ele>
        <time>2021-12-01T12:02:29.482Z</time>
      </trkpt>
      <trkpt lat="51.077930" lon="13.722290">
        <ele>115.598534</ele>
        <time>2021-12-01T12:02:32.255Z</time>
      </trkpt>
      <trkpt lat="51.077978" lon="13.722284">
        <ele>115.594773</ele>
        <time>2021-12-01T12:02:37.077Z</time>
      </trkpt>
      <trkpt lat="51.078128" lon="13.722267">
        <ele>115.583027</ele>
        <time>2021-12-01T12:02:52.188Z</time>
      </trkpt>
      <trkpt lat="51.078702" lon="13.722198">
        <ele>115.538066</ele>
        <time>2021-12-01T12:03:50.068Z</time>
      </trkpt>
      <trkpt lat="51.078791" lon="13.722187">
        <ele>115.531093</ele>
        <time>2021-12-01T12:03:58.949Z</time>
      </trkpt>
      <trkpt lat="51.079100" lon="13.722151">
        <ele>115.506893</ele>
        <time>2021-12-01T12:04:29.983Z</time>
      </trkpt>
      <trkpt lat="51.079205" lon="13.722138">
        <ele>115.498667</ele>
        <time>2021-12-01T12:04:40.585Z</time>
      </trkpt>
      <trkpt lat="51.079179" lon="13.721988">
        <ele>115.491032</ele>
        <time>2021-12-01T12:04:50.397Z</time>
      </trkpt>
      <trkpt lat="51.079128" lon="13.721703">
        <ele>115.476490</ele>
        <time>2021-12-01T12:05:09.143Z</time>
      </trkpt>
      <trkpt lat="51.079016" lon="13.721067">
        <ele>115.376216</ele>
        <time>2021-12-01T12:05:51.015Z</time>
      </trkpt>
      <trkpt lat="51.078814" lon="13.719921">
        <ele>115.060974</ele>
        <time>2021-12-01T12:07:06.471Z</time>
      </trkpt>
      <trkpt lat="51.078798" lon="13.719834">
        <ele>115.036964</ele>
        <time>2021-12-01T12:07:12.268Z</time>
      </trkpt>
      <trkpt lat="51.078759" lon="13.719723">
        <ele>115.003281</ele>
        <time>2021-12-01T12:07:20.290Z</time>
      </trkpt>
      <trkpt lat="51.078670" lon="13.719472">
        <ele>114.926945</ele>
        <time>2021-12-01T12:07:38.506Z</time>
      </trkpt>
      <trkpt lat="51.078592" lon="13.719279">
        <ele>114.866165</ele>
        <time>2021-12-01T12:07:53.162Z</time>
      </trkpt>
      <trkpt lat="51.078476" lon="13.718931">
        <ele>114.761825</ele>
        <time>2021-12-01T12:08:18.159Z</time>
      </trkpt>
      <trkpt lat="51.078413" lon="13.718755">
        <ele>114.708175</ele>
        <time>2021-12-01T12:08:31.115Z</time>
      </trkpt>
      <trkpt lat="51.078357" lon="13.718598">
        <ele>114.658718</ele>
        <time>2021-12-01T12:08:42.527Z</time>
      </trkpt>
      <trkpt lat="51.078214" lon="13.718197">
        <ele>114.531696</ele>
        <time>2021-12-01T12:09:12.138Z</time>
      </trkpt>
      <trkpt lat="51.078050" lon="13.717735">
        <ele>114.385514</ele>
        <time>2021-12-01T12:09:46.101Z</time>
      </trkpt>
      <trkpt lat="51.077979" lon="13.717538">
        <ele>114.322948</ele>
        <time>2021-12-01T12:10:00.431Z</time>
      </trkpt>
      <trkpt lat="51.078082" lon="13.717516">
        <ele>114.277380</ele>
        <time>2021-12-01T12:10:11.285Z</time>
      </trkpt>
      <trkpt lat="51.078325" lon="13.717525">
        <ele>114.170800</ele>
        <time>2021-12-01T12:10:35.793Z</time>
      </trkpt>
      <trkpt lat="51.078702" lon="13.717447">
        <ele>114.004102</ele>
        <time>2021-12-01T12:11:14.074Z</time>
      </trkpt>
      <trkpt lat="51.078945" lon="13.717395">
        <ele>113.902223</ele>
        <time>2021-12-01T12:11:38.835Z</time>
      </trkpt>
      <trkpt lat="51.079168" lon="13.717348">
        <ele>113.838328</ele>
        <time>2021-12-01T12:12:01.417Z</time>
      </trkpt>
      <trkpt lat="51.079168" lon="13.717348">
        <ele>113.838328</ele>
        <time>2021-12-01T12:12:01.510Z</time>
      </trkpt>
      <trkpt lat="51.079168" lon="13.717348">
        <ele>113.838328</ele>
        <time>2021-12-01T12:12:01.639Z</time>
      </trkpt>
      <trkpt lat="51.078945" lon="13.717395">
        <ele>113.774434</ele>
        <time>2021-12-01T12:12:24.725Z</time>
      </trkpt>
      <trkpt lat="51.078702" lon="13.717447">
        <ele>113.704790</ele>
        <time>2021-12-01T12:12:49.460Z</time>
      </trkpt>
      <trkpt lat="51.078325" lon="13.717525">
        <ele>113.596805</ele>
        <time>2021-12-01T12:13:27.764Z</time>
      </trkpt>
      <trkpt lat="51.078082" lon="13.717516">
        <ele>113.527763</ele>
        <time>2021-12-01T12:13:52.084Z</time>
      </trkpt>
      <trkpt lat="51.077979" lon="13.717538">
        <ele>113.498245</ele>
        <time>2021-12-01T12:14:02.563Z</time>
      </trkpt>
      <trkpt lat="51.077898" lon="13.717255">
        <ele>113.442748</ele>
        <time>2021-12-01T12:14:22.636Z</time>
      </trkpt>
      <trkpt lat="51.077741" lon="13.717299">
        <ele>113.376927</ele>
        <time>2021-12-01T12:14:38.723Z</time>
      </trkpt>
      <trkpt lat="51.077727" lon="13.717303">
        <ele>113.353212</ele>
        <time>2021-12-01T12:14:40.145Z</time>
      </trkpt>
      <trkpt lat="51.077701" lon="13.717309">
        <ele>113.309408</ele>
        <time>2021-12-01T12:14:42.833Z</time>
      </trkpt>
      <trkpt lat="51.077691" lon="13.717312">
        <ele>113.292442</ele>
        <time>2021-12-01T12:14:43.818Z</time>
      </trkpt>
      <trkpt lat="51.077656" lon="13.717320">
        <ele>113.233487</ele>
        <time>2021-12-01T12:14:47.347Z</time>
      </trkpt>
      <trkpt lat="51.077641" lon="13.717324">
        <ele>113.208129</ele>
        <time>2021-12-01T12:14:48.925Z</time>
      </trkpt>
      <trkpt lat="51.077515" lon="13.717354">
        <ele>112.995710</ele>
        <time>2021-12-01T12:15:01.696Z</time>
      </trkpt>
      <trkpt lat="51.077502" lon="13.717358">
        <ele>112.973634</ele>
        <time>2021-12-01T12:15:03.073Z</time>
      </trkpt>
      <trkpt lat="51.077505" lon="13.717413">
        <ele>112.915804</ele>
        <time>2021-12-01T12:15:06.709Z</time>
      </trkpt>
      <trkpt lat="51.077495" lon="13.717414">
        <ele>112.899098</ele>
        <time>2021-12-01T12:15:07.719Z</time>
      </trkpt>
      <trkpt lat="51.077318" lon="13.717492">
        <ele>112.592881</ele>
        <time>2021-12-01T12:15:26.379Z</time>
      </trkpt>
      <trkpt lat="51.077248" lon="13.717407">
        <ele>112.446083</ele>
        <time>2021-12-01T12:15:35.174Z</time>
      </trkpt>
      <trkpt lat="51.077243" lon="13.717399">
        <ele>112.434263</ele>
        <time>2021-12-01T12:15:35.987Z</time>
      </trkpt>
      <trkpt lat="51.077138" lon="13.717632">
        <ele>112.133895</ele>
        <time>2021-12-01T12:15:54.800Z</time>
      </trkpt>
      <trkpt lat="51.077138" lon="13.717632">
        <ele>112.133895</ele>
        <time>2021-12-01T12:15:54.821Z</time>
      </trkpt>
      <trkpt lat="51.077112" lon="13.717599">
        <ele>112.078450</ele>
        <time>2021-12-01T12:15:58.249Z</time>
      </trkpt>
      <trkpt lat="51.077102" lon="13.717586">
        <ele>112.056922</ele>
        <time>2021-12-01T12:15:59.558Z</time>
      </trkpt>
      <trkpt lat="51.076968" lon="13.717890">
        <ele>111.667915</ele>
        <time>2021-12-01T12:16:23.472Z</time>
      </trkpt>
      <trkpt lat="51.076964" lon="13.717898">
        <ele>111.657205</ele>
        <time>2021-12-01T12:16:24.268Z</time>
      </trkpt>
      <trkpt lat="51.076936" lon="13.717934">
        <ele>111.597192</ele>
        <time>2021-12-01T12:16:28.106Z</time>
      </trkpt>
      <trkpt lat="51.076937" lon="13.717813">
        <ele>111.470429</ele>
        <time>2021-12-01T12:16:36.420Z</time>
      </trkpt>
      <trkpt lat="51.077006" lon="13.717542">
        <ele>111.164123</ele>
        <time>2021-12-01T12:16:55.692Z</time>
      </trkpt>
      <trkpt lat="51.077021" lon="13.717483">
        <ele>111.097450</ele>
        <time>2021-12-01T12:16:59.812Z</time>
      </trkpt>
      <trkpt lat="51.077146" lon="13.716838">
        <ele>110.387841</ele>
        <time>2021-12-01T12:17:45.101Z</time>
      </trkpt>
      <trkpt lat="51.077252" lon="13.716272">
        <ele>109.642529</ele>
        <time>2021-12-01T12:18:24.742Z</time>
      </trkpt>
      <trkpt lat="51.077255" lon="13.716255">
        <ele>109.620246</ele>
        <time>2021-12-01T12:18:26.387Z</time>
      </trkpt>
      <trkpt lat="51.077336" lon="13.715605">
        <ele>108.784011</ele>
        <time>2021-12-01T12:19:10.675Z</time>
      </trkpt>
      <trkpt lat="51.077353" lon="13.715472">
        <ele>108.612736</ele>
        <time>2021-12-01T12:19:19.696Z</time>
      </trkpt>
      <trkpt lat="51.077400" lon="13.715116">
        <ele>108.153678</ele>
        <time>2021-12-01T12:19:43.659Z</time>
      </trkpt>
      <trkpt lat="51.077433" lon="13.715018">
        <ele>108.013366</ele>
        <time>2021-12-01T12:19:51.082Z</time>
      </trkpt>
      <trkpt lat="51.077487" lon="13.714856">
        <ele>107.781942</ele>
        <time>2021-12-01T12:20:02.827Z</time>
      </trkpt>
      <trkpt lat="51.077487" lon="13.714823">
        <ele>107.740299</ele>
        <time>2021-12-01T12:20:04.928Z</time>
      </trkpt>
      <trkpt lat="51.077493" lon="13.714688">
        <ele>107.569513</ele>
        <time>2021-12-01T12:20:13.559Z</time>
      </trkpt>
      <trkpt lat="51.077425" lon="13.714685">
        <ele>107.432877</ele>
        <time>2021-12-01T12:20:21.094Z</time>
      </trkpt>
      <trkpt lat="51.077375" lon="13.714684">
        <ele>107.332441</ele>
        <time>2021-12-01T12:20:26.358Z</time>
      </trkpt>
      <trkpt lat="51.077347" lon="13.714671">
        <ele>107.273857</ele>
        <time>2021-12-01T12:20:29.525Z</time>
      </trkpt>
      <trkpt lat="51.077360" lon="13.714633">
        <ele>107.219255</ele>
        <time>2021-12-01T12:20:32.384Z</time>
      </trkpt>
      <trkpt lat="51.077367" lon="13.714286">
        <ele>106.790724</ele>
        <time>2021-12-01T12:20:54.407Z</time>
      </trkpt>
      <trkpt lat="51.077276" lon="13.714076">
        <ele>106.814204</ele>
        <time>2021-12-01T12:21:11.564Z</time>
      </trkpt>
      <trkpt lat="51.077336" lon="13.713799">
        <ele>106.841170</ele>
        <time>2021-12-01T12:21:30.473Z</time>
      </trkpt>
      <trkpt lat="51.077358" lon="13.713082">
        <ele>106.907239</ele>
        <time>2021-12-01T12:22:15.920Z</time>
      </trkpt>
      <trkpt lat="51.077404" lon="13.713019">
        <ele>106.916129</ele>
        <time>2021-12-01T12:22:22.098Z</time>
      </trkpt>
      <trkpt lat="51.077409" lon="13.712914">
        <ele>106.925821</ele>
        <time>2021-12-01T12:22:29.373Z</time>
      </trkpt>
      <trkpt lat="51.077410" lon="13.712863">
        <ele>106.930517</ele>
        <time>2021-12-01T12:22:32.844Z</time>
      </trkpt>
      <trkpt lat="51.077446" lon="13.712864">
        <ele>106.935791</ele>
        <time>2021-12-01T12:22:36.777Z</time>
      </trkpt>
      <trkpt lat="51.077443" lon="13.712839">
        <ele>106.938134</ele>
        <time>2021-12-01T12:22:38.515Z</time>
      </trkpt>
      <trkpt lat="51.077416" lon="13.712836">
        <ele>106.942099</ele>
        <time>2021-12-01T12:22:41.414Z</time>
      </trkpt>
      <trkpt lat="51.077421" lon="13.712234">
        <ele>106.997509</ele>
        <time>2021-12-01T12:23:20.273Z</time>
      </trkpt>
      <trkpt lat="51.077411" lon="13.712191">
        <ele>107.001729</ele>
        <time>2021-12-01T12:23:23.201Z</time>
      </trkpt>
      <trkpt lat="51.077366" lon="13.712156">
        <ele>107.009066</ele>
        <time>2021-12-01T12:23:28.376Z</time>
      </trkpt>
      <trkpt lat="51.077338" lon="13.712113">
        <ele>107.014766</ele>
        <time>2021-12-01T12:23:32.310Z</time>
      </trkpt>
      <trkpt lat="51.077379" lon="13.711194">
        <ele>107.253581</ele>
        <time>2021-12-01T12:24:34.212Z</time>
      </trkpt>
      <trkpt lat="51.077393" lon="13.710710">
        <ele>107.447478</ele>
        <time>2021-12-01T12:25:06.874Z</time>
      </trkpt>
      <trkpt lat="51.077409" lon="13.710487">
        <ele>107.537300</ele>
        <time>2021-12-01T12:25:22.214Z</time>
      </trkpt>
      <trkpt lat="51.077373" lon="13.710235">
        <ele>107.640723</ele>
        <time>2021-12-01T12:25:39.960Z</time>
      </trkpt>
      <trkpt lat="51.077336" lon="13.709894">
        <ele>107.779208</ele>
        <time>2021-12-01T12:26:03.595Z</time>
      </trkpt>
      <trkpt lat="51.077301" lon="13.709571">
        <ele>107.910378</ele>
        <time>2021-12-01T12:26:24.808Z</time>
      </trkpt>
      <trkpt lat="51.077289" lon="13.709490">
        <ele>107.943682</ele>
        <time>2021-12-01T12:26:30.365Z</time>
      </trkpt>
      <trkpt lat="51.077184" lon="13.708742">
        <ele>108.072482</ele>
        <time>2021-12-01T12:27:19.004Z</time>
      </trkpt>
      <trkpt lat="51.077220" lon="13.708721">
        <ele>108.011971</ele>
        <time>2021-12-01T12:27:23.019Z</time>
      </trkpt>
      <trkpt lat="51.077263" lon="13.708700">
        <ele>107.940986</ele>
        <time>2021-12-01T12:27:27.862Z</time>
      </trkpt>
      <trkpt lat="51.077296" lon="13.708688">
        <ele>107.887563</ele>
        <time>2021-12-01T12:27:31.279Z</time>
      </trkpt>
      <trkpt lat="51.077290" lon="13.708643">
        <ele>107.841950</ele>
        <time>2021-12-01T12:27:34.288Z</time>
      </trkpt>
      <trkpt lat="51.077290" lon="13.708642">
        <ele>107.840959</ele>
        <time>2021-12-01T12:27:34.438Z</time>
      </trkpt>
      <trkpt lat="51.077290" lon="13.708643">
        <ele>107.839967</ele>
        <time>2021-12-01T12:27:34.555Z</time>
      </trkpt>
      <trkpt lat="51.077190" lon="13.708230">
        <ele>107.401102</ele>
        <time>2021-12-01T12:28:03.173Z</time>
      </trkpt>
      <trkpt lat="51.077173" lon="13.708163">
        <ele>107.329456</ele>
        <time>2021-12-01T12:28:08.023Z</time>
      </trkpt>
      <trkpt lat="51.077092" lon="13.707851">
        <ele>106.994723</ele>
        <time>2021-12-01T12:28:30.013Z</time>
      </trkpt>
      <trkpt lat="51.077065" lon="13.707867">
        <ele>106.949254</ele>
        <time>2021-12-01T12:28:33.017Z</time>
      </trkpt>
      <trkpt lat="51.077033" lon="13.707888">
        <ele>106.894627</ele>
        <time>2021-12-01T12:28:36.721Z</time>
      </trkpt>
      <trkpt lat="51.076996" lon="13.707918">
        <ele>106.829094</ele>
        <time>2021-12-01T12:28:41.135Z</time>
      </trkpt>
      <trkpt lat="51.076660" lon="13.708131">
        <ele>106.258306</ele>
        <time>2021-12-01T12:29:19.021Z</time>
      </trkpt>
      <trkpt lat="51.076660" lon="13.708131">
        <ele>106.258306</ele>
        <time>2021-12-01T12:29:19.439Z</time>
      </trkpt>
      <trkpt lat="51.076570" lon="13.707817">
        <ele>105.916089</ele>
        <time>2021-12-01T12:29:42.044Z</time>
      </trkpt>
      <trkpt lat="51.076273" lon="13.706952">
        <ele>105.056246</ele>
        <time>2021-12-01T12:30:47.986Z</time>
      </trkpt>
      <trkpt lat="51.075779" lon="13.705667">
        <ele>103.978719</ele>
        <time>2021-12-01T12:32:27.971Z</time>
      </trkpt>
      <trkpt lat="51.075517" lon="13.704994">
        <ele>103.412423</ele>
        <time>2021-12-01T12:33:17.998Z</time>
      </trkpt>
      <trkpt lat="51.074725" lon="13.703242">
        <ele>105.389885</ele>
        <time>2021-12-01T12:35:42.752Z</time>
      </trkpt>
      <trkpt lat="51.074440" lon="13.702698">
        <ele>106.118394</ele>
        <time>2021-12-01T12:36:32.856Z</time>
      </trkpt>
      <trkpt lat="51.074360" lon="13.702567">
        <ele>106.309736</ele>
        <time>2021-12-01T12:36:45.779Z</time>
      </trkpt>
      <trkpt lat="51.074111" lon="13.702172">
        <ele>106.925760</ele>
        <time>2021-12-01T12:37:25.322Z</time>
      </trkpt>
      <trkpt lat="51.073946" lon="13.701903">
        <ele>107.339645</ele>
        <time>2021-12-01T12:37:51.850Z</time>
      </trkpt>
      <trkpt lat="51.073899" lon="13.701581">
        <ele>107.703597</ele>
        <time>2021-12-01T12:38:14.606Z</time>
      </trkpt>
      <trkpt lat="51.073883" lon="13.701490">
        <ele>107.807633</ele>
        <time>2021-12-01T12:38:21.782Z</time>
      </trkpt>
      <trkpt lat="51.073880" lon="13.701363">
        <ele>107.947555</ele>
        <time>2021-12-01T12:38:30.367Z</time>
      </trkpt>
      <trkpt lat="51.073918" lon="13.701200">
        <ele>108.138967</ele>
        <time>2021-12-01T12:38:42.020Z</time>
      </trkpt>
      <trkpt lat="51.073918" lon="13.701069">
        <ele>108.283194</ele>
        <time>2021-12-01T12:38:50.444Z</time>
      </trkpt>
      <trkpt lat="51.073909" lon="13.700714">
        <ele>108.674355</ele>
        <time>2021-12-01T12:39:14.415Z</time>
      </trkpt>
      <trkpt lat="51.073901" lon="13.700401">
        <ele>109.019243</ele>
        <time>2021-12-01T12:39:34.943Z</time>
      </trkpt>
      <trkpt lat="51.073901" lon="13.700374">
        <ele>109.048969</ele>
        <time>2021-12-01T12:39:36.856Z</time>
      </trkpt>
      <trkpt lat="51.073896" lon="13.700198">
        <ele>109.242937</ele>
        <time>2021-12-01T12:39:48.335Z</time>
      </trkpt>
      <trkpt lat="51.073896" lon="13.700198">
        <ele>109.242937</ele>
        <time>2021-12-01T12:39:48.407Z</time>
      </trkpt>
      <trkpt lat="51.073896" lon="13.700198">
        <ele>109.242937</ele>
        <time>2021-12-01T12:39:48.457Z</time>
      </trkpt>
      <trkpt lat="51.073901" lon="13.700401">
        <ele>109.377008</ele>
        <time>2021-12-01T12:40:01.236Z</time>
      </trkpt>
      <trkpt lat="51.073909" lon="13.700714">
        <ele>109.185491</ele>
        <time>2021-12-01T12:40:21.212Z</time>
      </trkpt>
      <trkpt lat="51.073918" lon="13.701069">
        <ele>108.968279</ele>
        <time>2021-12-01T12:40:44.079Z</time>
      </trkpt>
      <trkpt lat="51.073918" lon="13.701200">
        <ele>108.888190</ele>
        <time>2021-12-01T12:40:52.882Z</time>
      </trkpt>
      <trkpt lat="51.073880" lon="13.701363">
        <ele>108.781898</ele>
        <time>2021-12-01T12:41:04.062Z</time>
      </trkpt>
      <trkpt lat="51.073883" lon="13.701490">
        <ele>108.704200</ele>
        <time>2021-12-01T12:41:12.319Z</time>
      </trkpt>
      <trkpt lat="51.073669" lon="13.701410">
        <ele>108.490306</ele>
        <time>2021-12-01T12:41:35.355Z</time>
      </trkpt>
      <trkpt lat="51.072867" lon="13.700827">
        <ele>107.621664</ele>
        <time>2021-12-01T12:43:08.875Z</time>
      </trkpt>
      <trkpt lat="51.071755" lon="13.700331">
        <ele>106.042691</ele>
        <time>2021-12-01T12:45:07.355Z</time>
      </trkpt>
      <trkpt lat="51.071428" lon="13.700241">
        <ele>105.588961</ele>
        <time>2021-12-01T12:45:41.671Z</time>
      </trkpt>
      <trkpt lat="51.071418" lon="13.700122">
        <ele>105.485816</ele>
        <time>2021-12-01T12:45:49.649Z</time>
      </trkpt>
      <trkpt lat="51.071428" lon="13.699858">
        <ele>105.258597</ele>
        <time>2021-12-01T12:46:07.035Z</time>
      </trkpt>
      <trkpt lat="51.071427" lon="13.699808">
        <ele>105.215620</ele>
        <time>2021-12-01T12:46:10.194Z</time>
      </trkpt>
      <trkpt lat="51.071424" lon="13.699481">
        <ele>105.003748</ele>
        <time>2021-12-01T12:46:30.785Z</time>
      </trkpt>
      <trkpt lat="51.071427" lon="13.699808">
        <ele>104.796035</ele>
        <time>2021-12-01T12:46:52.178Z</time>
      </trkpt>
      <trkpt lat="51.071428" lon="13.699858">
        <ele>104.764262</ele>
        <time>2021-12-01T12:46:55.484Z</time>
      </trkpt>
      <trkpt lat="51.071418" lon="13.700122">
        <ele>104.596281</ele>
        <time>2021-12-01T12:47:12.290Z</time>
      </trkpt>
      <trkpt lat="51.071428" lon="13.700241">
        <ele>104.520027</ele>
        <time>2021-12-01T12:47:20.394Z</time>
      </trkpt>
      <trkpt lat="51.071192" lon="13.700275">
        <ele>104.280502</ele>
        <time>2021-12-01T12:47:44.262Z</time>
      </trkpt>
      <trkpt lat="51.070298" lon="13.699931">
        <ele>103.368282</ele>
        <time>2021-12-01T12:49:18.795Z</time>
      </trkpt>
      <trkpt lat="51.070229" lon="13.699922">
        <ele>103.338028</ele>
        <time>2021-12-01T12:49:26.092Z</time>
      </trkpt>
      <trkpt lat="51.069776" lon="13.699866">
        <ele>103.139472</ele>
        <time>2021-12-01T12:50:12.713Z</time>
      </trkpt>
      <trkpt lat="51.069379" lon="13.699682">
        <ele>102.958777</ele>
        <time>2021-12-01T12:50:54.346Z</time>
      </trkpt>
      <trkpt lat="51.069120" lon="13.699571">
        <ele>102.841562</ele>
        <time>2021-12-01T12:51:21.182Z</time>
      </trkpt>
      <trkpt lat="51.069098" lon="13.699562">
        <ele>102.831635</ele>
        <time>2021-12-01T12:51:23.467Z</time>
      </trkpt>
      <trkpt lat="51.068618" lon="13.699389">
        <ele>102.616564</ele>
        <time>2021-12-01T12:52:13.066Z</time>
      </trkpt>
      <trkpt lat="51.068265" lon="13.699083">
        <ele>102.621404</ele>
        <time>2021-12-01T12:52:53.336Z</time>
      </trkpt>
      <trkpt lat="51.068077" lon="13.698921">
        <ele>102.636995</ele>
        <time>2021-12-01T12:53:14.817Z</time>
      </trkpt>
      <trkpt lat="51.068057" lon="13.698810">
        <ele>102.642286</ele>
        <time>2021-12-01T12:53:22.381Z</time>
      </trkpt>
      <trkpt lat="51.067673" lon="13.698585">
        <ele>102.672127</ele>
        <time>2021-12-01T12:54:03.420Z</time>
      </trkpt>
      <trkpt lat="51.066910" lon="13.697879">
        <ele>102.768475</ele>
        <time>2021-12-01T12:55:31.830Z</time>
      </trkpt>
      <trkpt lat="51.066318" lon="13.696976">
        <ele>103.024740</ele>
        <time>2021-12-01T12:56:54.511Z</time>
      </trkpt>
      <trkpt lat="51.065965" lon="13.696351">
        <ele>103.189767</ele>
        <time>2021-12-01T12:57:48.196Z</time>
      </trkpt>
      <trkpt lat="51.065862" lon="13.695645">
        <ele>103.362096</ele>
        <time>2021-12-01T12:58:34.757Z</time>
      </trkpt>
      <trkpt lat="51.066118" lon="13.694388">
        <ele>103.801474</ele>
        <time>2021-12-01T12:59:59.814Z</time>
      </trkpt>
      <trkpt lat="51.066406" lon="13.692954">
        <ele>104.271806</ele>
        <time>2021-12-01T13:01:36.937Z</time>
      </trkpt>
      <trkpt lat="51.066429" lon="13.692601">
        <ele>104.331766</ele>
        <time>2021-12-01T13:01:59.657Z</time>
      </trkpt>
      <trkpt lat="51.066393" lon="13.692342">
        <ele>104.376582</ele>
        <time>2021-12-01T13:02:16.376Z</time>
      </trkpt>
      <trkpt lat="51.066378" lon="13.692236">
        <ele>104.394940</ele>
        <time>2021-12-01T13:02:23.212Z</time>
      </trkpt>
      <trkpt lat="51.066315" lon="13.692075">
        <ele>104.426983</ele>
        <time>2021-12-01T13:02:35.224Z</time>
      </trkpt>
      <trkpt lat="51.065984" lon="13.690586">
        <ele>104.693831</ele>
        <time>2021-12-01T13:04:14.584Z</time>
      </trkpt>
      <trkpt lat="51.065704" lon="13.690135">
        <ele>104.801080</ele>
        <time>2021-12-01T13:04:54.599Z</time>
      </trkpt>
      <trkpt lat="51.065601" lon="13.689802">
        <ele>104.863898</ele>
        <time>2021-12-01T13:05:18.287Z</time>
      </trkpt>
      <trkpt lat="51.065564" lon="13.689374">
        <ele>104.937021</ele>
        <time>2021-12-01T13:05:45.543Z</time>
      </trkpt>
      <trkpt lat="51.065616" lon="13.689110">
        <ele>104.983848</ele>
        <time>2021-12-01T13:06:03.127Z</time>
      </trkpt>
      <trkpt lat="51.065688" lon="13.688983">
        <ele>105.012798</ele>
        <time>2021-12-01T13:06:13.941Z</time>
      </trkpt>
      <trkpt lat="51.065741" lon="13.688771">
        <ele>105.051414</ele>
        <time>2021-12-01T13:06:28.603Z</time>
      </trkpt>
      <trkpt lat="51.065760" lon="13.688354">
        <ele>105.122178</ele>
        <time>2021-12-01T13:06:54.898Z</time>
      </trkpt>
      <trkpt lat="51.065901" lon="13.687843">
        <ele>105.225987</ele>
        <time>2021-12-01T13:07:30.418Z</time>
      </trkpt>
      <trkpt lat="51.065953" lon="13.686628">
        <ele>105.670380</ele>
        <time>2021-12-01T13:08:49.141Z</time>
      </trkpt>
      <trkpt lat="51.066121" lon="13.685257">
        <ele>106.180094</ele>
        <time>2021-12-01T13:10:19.363Z</time>
      </trkpt>
      <trkpt lat="51.066273" lon="13.684478">
        <ele>106.384212</ele>
        <time>2021-12-01T13:11:11.667Z</time>
      </trkpt>
      <trkpt lat="51.066571" lon="13.683393">
        <ele>106.636494</ele>
        <time>2021-12-01T13:12:27.237Z</time>
      </trkpt>
      <trkpt lat="51.067038" lon="13.682128">
        <ele>106.850438</ele>
        <time>2021-12-01T13:14:00.355Z</time>
      </trkpt>
      <trkpt lat="51.067040" lon="13.682123">
        <ele>106.850257</ele>
        <time>2021-12-01T13:14:00.746Z</time>
      </trkpt>
      <trkpt lat="51.067454" lon="13.681330">
        <ele>106.818833</ele>
        <time>2021-12-01T13:15:05.773Z</time>
      </trkpt>
      <trkpt lat="51.068027" lon="13.680525">
        <ele>106.781759</ele>
        <time>2021-12-01T13:16:22.704Z</time>
      </trkpt>
      <trkpt lat="51.068449" lon="13.680128">
        <ele>106.732165</ele>
        <time>2021-12-01T13:17:12.002Z</time>
      </trkpt>
      <trkpt lat="51.068512" lon="13.680087">
        <ele>106.724010</ele>
        <time>2021-12-01T13:17:18.877Z</time>
      </trkpt>
      <trkpt lat="51.068601" lon="13.679922">
        <ele>106.707639</ele>
        <time>2021-12-01T13:17:32.586Z</time>
      </trkpt>
      <trkpt lat="51.068703" lon="13.679774">
        <ele>106.691101</ele>
        <time>2021-12-01T13:17:46.421Z</time>
      </trkpt>
      <trkpt lat="51.069019" lon="13.679366">
        <ele>106.642347</ele>
        <time>2021-12-01T13:18:27.359Z</time>
      </trkpt>
      <trkpt lat="51.069898" lon="13.678508">
        <ele>106.605639</ele>
        <time>2021-12-01T13:20:10.751Z</time>
      </trkpt>
      <trkpt lat="51.071283" lon="13.677372">
        <ele>106.825794</ele>
        <time>2021-12-01T13:22:47.799Z</time>
      </trkpt>
      <trkpt lat="51.073077" lon="13.675876">
        <ele>107.229799</ele>
        <time>2021-12-01T13:26:13.556Z</time>
      </trkpt>
      <trkpt lat="51.073395" lon="13.675603">
        <ele>107.179870</ele>
        <time>2021-12-01T13:26:50.007Z</time>
      </trkpt>
      <trkpt lat="51.073557" lon="13.675434">
        <ele>107.153103</ele>
        <time>2021-12-01T13:27:09.439Z</time>
      </trkpt>
      <trkpt lat="51.073673" lon="13.675279">
        <ele>107.132173</ele>
        <time>2021-12-01T13:27:24.771Z</time>
      </trkpt>
      <trkpt lat="51.073882" lon="13.675110">
        <ele>107.099778</ele>
        <time>2021-12-01T13:27:48.402Z</time>
      </trkpt>
      <trkpt lat="51.074036" lon="13.674965">
        <ele>107.075052</ele>
        <time>2021-12-01T13:28:06.366Z</time>
      </trkpt>
      <trkpt lat="51.074073" lon="13.674945">
        <ele>107.069652</ele>
        <time>2021-12-01T13:28:10.251Z</time>
      </trkpt>
      <trkpt lat="51.074181" lon="13.674843">
        <ele>107.052298</ele>
        <time>2021-12-01T13:28:23.078Z</time>
      </trkpt>
      <trkpt lat="51.074290" lon="13.674742">
        <ele>107.034869</ele>
        <time>2021-12-01T13:28:35.732Z</time>
      </trkpt>
      <trkpt lat="51.074404" lon="13.674652">
        <ele>106.952157</ele>
        <time>2021-12-01T13:28:48.712Z</time>
      </trkpt>
      <trkpt lat="51.074883" lon="13.674275">
        <ele>106.378689</ele>
        <time>2021-12-01T13:29:43.289Z</time>
      </trkpt>
      <trkpt lat="51.075821" lon="13.673544">
        <ele>105.257862</ele>
        <time>2021-12-01T13:31:31.351Z</time>
      </trkpt>
      <trkpt lat="51.076853" lon="13.672803">
        <ele>104.292942</ele>
        <time>2021-12-01T13:33:27.874Z</time>
      </trkpt>
      <trkpt lat="51.077022" lon="13.672605">
        <ele>104.121181</ele>
        <time>2021-12-01T13:33:49.310Z</time>
      </trkpt>
      <trkpt lat="51.077141" lon="13.672460">
        <ele>103.998515</ele>
        <time>2021-12-01T13:34:04.445Z</time>
      </trkpt>
      <trkpt lat="51.077243" lon="13.672342">
        <ele>103.895306</ele>
        <time>2021-12-01T13:34:17.190Z</time>
      </trkpt>
      <trkpt lat="51.077540" lon="13.672184">
        <ele>103.638993</ele>
        <time>2021-12-01T13:34:48.648Z</time>
      </trkpt>
      <trkpt lat="51.077881" lon="13.672195">
        <ele>103.666072</ele>
        <time>2021-12-01T13:35:23.242Z</time>
      </trkpt>
      <trkpt lat="51.078694" lon="13.671769">
        <ele>103.776197</ele>
        <time>2021-12-01T13:36:50.554Z</time>
      </trkpt>
      <trkpt lat="51.078987" lon="13.671741">
        <ele>103.813964</ele>
        <time>2021-12-01T13:37:20.102Z</time>
      </trkpt>
      <trkpt lat="51.079145" lon="13.671688">
        <ele>103.834739</ele>
        <time>2021-12-01T13:37:36.905Z</time>
      </trkpt>
      <trkpt lat="51.079538" lon="13.671663">
        <ele>103.990331</ele>
        <time>2021-12-01T13:38:16.488Z</time>
      </trkpt>
      <trkpt lat="51.079748" lon="13.671734">
        <ele>104.116412</ele>
        <time>2021-12-01T13:38:38.143Z</time>
      </trkpt>
      <trkpt lat="51.079858" lon="13.671792">
        <ele>104.184466</ele>
        <time>2021-12-01T13:38:50.196Z</time>
      </trkpt>
      <trkpt lat="51.079953" lon="13.671759">
        <ele>104.241571</ele>
        <time>2021-12-01T13:39:00.277Z</time>
      </trkpt>
      <trkpt lat="51.080289" lon="13.671444">
        <ele>104.470582</ele>
        <time>2021-12-01T13:39:39.742Z</time>
      </trkpt>
      <trkpt lat="51.080820" lon="13.670727">
        <ele>104.879519</ele>
        <time>2021-12-01T13:40:51.195Z</time>
      </trkpt>
      <trkpt lat="51.081155" lon="13.670535">
        <ele>105.434618</ele>
        <time>2021-12-01T13:41:28.469Z</time>
      </trkpt>
      <trkpt lat="51.081261" lon="13.670473">
        <ele>105.631014</ele>
        <time>2021-12-01T13:41:40.445Z</time>
      </trkpt>
      <trkpt lat="51.081261" lon="13.670473">
        <ele>105.631014</ele>
        <time>2021-12-01T13:41:40.779Z</time>
      </trkpt>
      <trkpt lat="51.081261" lon="13.670473">
        <ele>105.631014</ele>
        <time>2021-12-01T13:41:41.007Z</time>
      </trkpt>
      <trkpt lat="51.081272" lon="13.670603">
        <ele>105.774326</ele>
        <time>2021-12-01T13:41:49.528Z</time>
      </trkpt>
      <trkpt lat="51.081331" lon="13.670750">
        <ele>105.964909</ele>
        <time>2021-12-01T13:42:01.500Z</time>
      </trkpt>
      <trkpt lat="51.081453" lon="13.671216">
        <ele>106.516471</ele>
        <time>2021-12-01T13:42:35.479Z</time>
      </trkpt>
      <trkpt lat="51.081519" lon="13.671414">
        <ele>106.761358</ele>
        <time>2021-12-01T13:42:51.127Z</time>
      </trkpt>
      <trkpt lat="51.081549" lon="13.671473">
        <ele>106.844286</ele>
        <time>2021-12-01T13:42:56.244Z</time>
      </trkpt>
      <trkpt lat="51.081565" lon="13.671544">
        <ele>106.926695</ele>
        <time>2021-12-01T13:43:01.294Z</time>
      </trkpt>
      <trkpt lat="51.081594" lon="13.671617">
        <ele>107.021059</ele>
        <time>2021-12-01T13:43:06.909Z</time>
      </trkpt>
      <trkpt lat="51.081624" lon="13.671680">
        <ele>107.107427</ele>
        <time>2021-12-01T13:43:12.281Z</time>
      </trkpt>
      <trkpt lat="51.081744" lon="13.671929">
        <ele>107.450295</ele>
        <time>2021-12-01T13:43:34.230Z</time>
      </trkpt>
      <trkpt lat="51.081853" lon="13.672148">
        <ele>107.755550</ele>
        <time>2021-12-01T13:43:53.122Z</time>
      </trkpt>
      <trkpt lat="51.081936" lon="13.672320">
        <ele>107.992505</ele>
        <time>2021-12-01T13:44:08.369Z</time>
      </trkpt>
      <trkpt lat="51.082193" lon="13.672854">
        <ele>108.451996</ele>
        <time>2021-12-01T13:44:54.311Z</time>
      </trkpt>
      <trkpt lat="51.082284" lon="13.673044">
        <ele>108.608397</ele>
        <time>2021-12-01T13:45:10.027Z</time>
      </trkpt>
      <trkpt lat="51.082381" lon="13.672858">
        <ele>108.766643</ele>
        <time>2021-12-01T13:45:26.718Z</time>
      </trkpt>
      <trkpt lat="51.082402" lon="13.672816">
        <ele>108.801782</ele>
        <time>2021-12-01T13:45:30.404Z</time>
      </trkpt>
      <trkpt lat="51.082477" lon="13.672673">
        <ele>108.923727</ele>
        <time>2021-12-01T13:45:42.532Z</time>
      </trkpt>
      <trkpt lat="51.082517" lon="13.672596">
        <ele>108.989133</ele>
        <time>2021-12-01T13:45:49.220Z</time>
      </trkpt>
      <trkpt lat="51.082555" lon="13.672524">
        <ele>109.050691</ele>
        <time>2021-12-01T13:45:55.456Z</time>
      </trkpt>
      <trkpt lat="51.082583" lon="13.672470">
        <ele>109.096526</ele>
        <time>2021-12-01T13:46:00.195Z</time>
      </trkpt>
      <trkpt lat="51.082636" lon="13.672369">
        <ele>109.182673</ele>
        <time>2021-12-01T13:46:08.955Z</time>
      </trkpt>
      <trkpt lat="51.082654" lon="13.672333">
        <ele>109.212793</ele>
        <time>2021-12-01T13:46:11.961Z</time>
      </trkpt>
      <trkpt lat="51.082691" lon="13.672263">
        <ele>109.272678</ele>
        <time>2021-12-01T13:46:17.781Z</time>
      </trkpt>
      <trkpt lat="51.082728" lon="13.672192">
        <ele>109.333065</ele>
        <time>2021-12-01T13:46:23.706Z</time>
      </trkpt>
      <trkpt lat="51.082749" lon="13.672152">
        <ele>109.367189</ele>
        <time>2021-12-01T13:46:27.098Z</time>
      </trkpt>
      <trkpt lat="51.082777" lon="13.672099">
        <ele>109.412521</ele>
        <time>2021-12-01T13:46:31.539Z</time>
      </trkpt>
      <trkpt lat="51.082797" lon="13.672063">
        <ele>109.443980</ele>
        <time>2021-12-01T13:46:34.784Z</time>
      </trkpt>
      <trkpt lat="51.082903" lon="13.671875">
        <ele>109.609346</ele>
        <time>2021-12-01T13:46:51.127Z</time>
      </trkpt>
      <trkpt lat="51.082947" lon="13.671796">
        <ele>109.678458</ele>
        <time>2021-12-01T13:46:57.791Z</time>
      </trkpt>
      <trkpt lat="51.082965" lon="13.671772">
        <ele>109.702925</ele>
        <time>2021-12-01T13:47:00.231Z</time>
      </trkpt>
      <trkpt lat="51.082997" lon="13.671728">
        <ele>109.746987</ele>
        <time>2021-12-01T13:47:04.556Z</time>
      </trkpt>
      <trkpt lat="51.083024" lon="13.671692">
        <ele>109.783687</ele>
        <time>2021-12-01T13:47:08.107Z</time>
      </trkpt>
      <trkpt lat="51.083049" lon="13.671658">
        <ele>109.817951</ele>
        <time>2021-12-01T13:47:11.372Z</time>
      </trkpt>
      <trkpt lat="51.083089" lon="13.671647">
        <ele>109.860250</ele>
        <time>2021-12-01T13:47:15.479Z</time>
      </trkpt>
      <trkpt lat="51.083165" lon="13.671626">
        <ele>109.880614</ele>
        <time>2021-12-01T13:47:23.206Z</time>
      </trkpt>
      <trkpt lat="51.083289" lon="13.671650">
        <ele>109.711832</ele>
        <time>2021-12-01T13:47:35.933Z</time>
      </trkpt>
      <trkpt lat="51.083322" lon="13.671670">
        <ele>109.664120</ele>
        <time>2021-12-01T13:47:39.485Z</time>
      </trkpt>
      <trkpt lat="51.083399" lon="13.671422">
        <ele>109.429308</ele>
        <time>2021-12-01T13:47:57.230Z</time>
      </trkpt>
      <trkpt lat="51.083403" lon="13.671250">
        <ele>109.283214</ele>
        <time>2021-12-01T13:48:08.366Z</time>
      </trkpt>
      <trkpt lat="51.083406" lon="13.671122">
        <ele>109.174491</ele>
        <time>2021-12-01T13:48:16.590Z</time>
      </trkpt>
      <trkpt lat="51.083635" lon="13.671116">
        <ele>108.865025</ele>
        <time>2021-12-01T13:48:40.217Z</time>
      </trkpt>
      <trkpt lat="51.084165" lon="13.671102">
        <ele>108.148793</ele>
        <time>2021-12-01T13:49:35.214Z</time>
      </trkpt>
      <trkpt lat="51.084225" lon="13.671056">
        <ele>108.058809</ele>
        <time>2021-12-01T13:49:42.250Z</time>
      </trkpt>
      <trkpt lat="51.084187" lon="13.670914">
        <ele>107.927799</ele>
        <time>2021-12-01T13:49:52.299Z</time>
      </trkpt>
      <trkpt lat="51.084091" lon="13.670487">
        <ele>107.542852</ele>
        <time>2021-12-01T13:50:22.631Z</time>
      </trkpt>
      <trkpt lat="51.083663" lon="13.668598">
        <ele>104.784217</ele>
        <time>2021-12-01T13:52:36.487Z</time>
      </trkpt>
      <trkpt lat="51.083612" lon="13.668420">
        <ele>104.511794</ele>
        <time>2021-12-01T13:52:49.534Z</time>
      </trkpt>
      <trkpt lat="51.083553" lon="13.668269">
        <ele>104.264177</ele>
        <time>2021-12-01T13:53:01.283Z</time>
      </trkpt>
      <trkpt lat="51.083538" lon="13.668232">
        <ele>104.202859</ele>
        <time>2021-12-01T13:53:04.274Z</time>
      </trkpt>
      <trkpt lat="51.083950" lon="13.667986">
        <ele>103.382466</ele>
        <time>2021-12-01T13:53:49.938Z</time>
      </trkpt>
      <trkpt lat="51.084121" lon="13.667884">
        <ele>103.210262</ele>
        <time>2021-12-01T13:54:08.782Z</time>
      </trkpt>
      <trkpt lat="51.084719" lon="13.667518">
        <ele>102.606097</ele>
        <time>2021-12-01T13:55:14.429Z</time>
      </trkpt>
      <trkpt lat="51.085429" lon="13.667084">
        <ele>101.888896</ele>
        <time>2021-12-01T13:56:30.735Z</time>
      </trkpt>
      <trkpt lat="51.087279" lon="13.665954">
        <ele>101.362702</ele>
        <time>2021-12-01T13:59:49.384Z</time>
      </trkpt>
      <trkpt lat="51.087531" lon="13.665821">
        <ele>101.283260</ele>
        <time>2021-12-01T14:00:16.138Z</time>
      </trkpt>
      <trkpt lat="51.087622" lon="13.665771">
        <ele>101.254454</ele>
        <time>2021-12-01T14:00:25.863Z</time>
      </trkpt>
      <trkpt lat="51.088318" lon="13.665152">
        <ele>101.015894</ele>
        <time>2021-12-01T14:01:45.938Z</time>
      </trkpt>
      <trkpt lat="51.089784" lon="13.663445">
        <ele>100.446217</ele>
        <time>2021-12-01T14:04:49.558Z</time>
      </trkpt>
      <trkpt lat="51.090711" lon="13.662026">
        <ele>100.581774</ele>
        <time>2021-12-01T14:06:59.699Z</time>
      </trkpt>
      <trkpt lat="51.090713" lon="13.662024">
        <ele>100.582732</ele>
        <time>2021-12-01T14:06:59.926Z</time>
      </trkpt>
      <trkpt lat="51.091511" lon="13.660552">
        <ele>101.322053</ele>
        <time>2021-12-01T14:09:04.662Z</time>
      </trkpt>
      <trkpt lat="51.091931" lon="13.659574">
        <ele>102.638932</ele>
        <time>2021-12-01T14:10:25.850Z</time>
      </trkpt>
      <trkpt lat="51.091971" lon="13.659564">
        <ele>102.710587</ele>
        <time>2021-12-01T14:10:30.165Z</time>
      </trkpt>
      <trkpt lat="51.092056" lon="13.659647">
        <ele>102.887050</ele>
        <time>2021-12-01T14:10:41.051Z</time>
      </trkpt>
      <trkpt lat="51.092157" lon="13.659709">
        <ele>103.078616</ele>
        <time>2021-12-01T14:10:52.532Z</time>
      </trkpt>
      <trkpt lat="51.092241" lon="13.659741">
        <ele>103.231467</ele>
        <time>2021-12-01T14:11:02.135Z</time>
      </trkpt>
      <trkpt lat="51.092315" lon="13.659796">
        <ele>103.375992</ele>
        <time>2021-12-01T14:11:10.830Z</time>
      </trkpt>
      <trkpt lat="51.092502" lon="13.659972">
        <ele>103.760424</ele>
        <time>2021-12-01T14:11:34.128Z</time>
      </trkpt>
      <trkpt lat="51.092745" lon="13.660188">
        <ele>104.256187</ele>
        <time>2021-12-01T14:12:04.136Z</time>
      </trkpt>
      <trkpt lat="51.092881" lon="13.660309">
        <ele>104.545878</ele>
        <time>2021-12-01T14:12:21.363Z</time>
      </trkpt>
      <trkpt lat="51.092981" lon="13.660425">
        <ele>104.775940</ele>
        <time>2021-12-01T14:12:34.919Z</time>
      </trkpt>
      <trkpt lat="51.092981" lon="13.660425">
        <ele>104.775940</ele>
        <time>2021-12-01T14:12:34.975Z</time>
      </trkpt>
      <trkpt lat="51.092981" lon="13.660425">
        <ele>104.775940</ele>
        <time>2021-12-01T14:12:35.022Z</time>
      </trkpt>
      <trkpt lat="51.093199" lon="13.660099">
        <ele>105.332058</ele>
        <time>2021-12-01T14:13:07.431Z</time>
      </trkpt>
      <trkpt lat="51.093295" lon="13.659950">
        <ele>105.581347</ele>
        <time>2021-12-01T14:13:21.986Z</time>
      </trkpt>
      <trkpt lat="51.093485" lon="13.659650">
        <ele>106.078908</ele>
        <time>2021-12-01T14:13:51.224Z</time>
      </trkpt>
      <trkpt lat="51.093558" lon="13.659526">
        <ele>106.277393</ele>
        <time>2021-12-01T14:14:02.439Z</time>
      </trkpt>
      <trkpt lat="51.093687" lon="13.659316">
        <ele>106.620444</ele>
        <time>2021-12-01T14:14:22.202Z</time>
      </trkpt>
      <trkpt lat="51.093781" lon="13.659164">
        <ele>106.869565</ele>
        <time>2021-12-01T14:14:36.406Z</time>
      </trkpt>
      <trkpt lat="51.093814" lon="13.659044">
        <ele>107.022551</ele>
        <time>2021-12-01T14:14:44.898Z</time>
      </trkpt>
      <trkpt lat="51.093852" lon="13.658907">
        <ele>107.197452</ele>
        <time>2021-12-01T14:14:54.630Z</time>
      </trkpt>
      <trkpt lat="51.093999" lon="13.658763">
        <ele>107.518382</ele>
        <time>2021-12-01T14:15:12.405Z</time>
      </trkpt>
      <trkpt lat="51.094577" lon="13.658398">
        <ele>108.128192</ele>
        <time>2021-12-01T14:16:16.508Z</time>
      </trkpt>
      <trkpt lat="51.094855" lon="13.658350">
        <ele>108.399178</ele>
        <time>2021-12-01T14:16:45.785Z</time>
      </trkpt>
      <trkpt lat="51.094988" lon="13.658524">
        <ele>108.565992</ele>
        <time>2021-12-01T14:17:04.145Z</time>
      </trkpt>
      <trkpt lat="51.095386" lon="13.658934">
        <ele>109.025371</ele>
        <time>2021-12-01T14:17:53.437Z</time>
      </trkpt>
      <trkpt lat="51.095511" lon="13.659000">
        <ele>109.152993</ele>
        <time>2021-12-01T14:18:07.195Z</time>
      </trkpt>
      <trkpt lat="51.095767" lon="13.659272">
        <ele>109.207947</ele>
        <time>2021-12-01T14:18:38.484Z</time>
      </trkpt>
      <trkpt lat="51.095820" lon="13.659350">
        <ele>109.180491</ele>
        <time>2021-12-01T14:18:46.017Z</time>
      </trkpt>
      <trkpt lat="51.095955" lon="13.659551">
        <ele>109.110180</ele>
        <time>2021-12-01T14:19:04.597Z</time>
      </trkpt>
      <trkpt lat="51.096085" lon="13.659806">
        <ele>109.031710</ele>
        <time>2021-12-01T14:19:25.735Z</time>
      </trkpt>
      <trkpt lat="51.096085" lon="13.659806">
        <ele>109.031710</ele>
        <time>2021-12-01T14:19:25.784Z</time>
      </trkpt>
      <trkpt lat="51.096085" lon="13.659806">
        <ele>109.031710</ele>
        <time>2021-12-01T14:19:25.850Z</time>
      </trkpt>
      <trkpt lat="51.095955" lon="13.659551">
        <ele>108.953240</ele>
        <time>2021-12-01T14:19:46.786Z</time>
      </trkpt>
      <trkpt lat="51.095820" lon="13.659350">
        <ele>108.882928</ele>
        <time>2021-12-01T14:20:05.337Z</time>
      </trkpt>
      <trkpt lat="51.095767" lon="13.659272">
        <ele>108.855473</ele>
        <time>2021-12-01T14:20:12.730Z</time>
      </trkpt>
      <trkpt lat="51.095511" lon="13.659000">
        <ele>108.738392</ele>
        <time>2021-12-01T14:20:43.829Z</time>
      </trkpt>
      <trkpt lat="51.095386" lon="13.658934">
        <ele>108.688292</ele>
        <time>2021-12-01T14:20:57.348Z</time>
      </trkpt>
      <trkpt lat="51.094988" lon="13.658524">
        <ele>108.146399</ele>
        <time>2021-12-01T14:21:45.870Z</time>
      </trkpt>
      <trkpt lat="51.094855" lon="13.658350">
        <ele>107.800118</ele>
        <time>2021-12-01T14:22:03.850Z</time>
      </trkpt>
      <trkpt lat="51.094577" lon="13.658398">
        <ele>107.237593</ele>
        <time>2021-12-01T14:22:32.937Z</time>
      </trkpt>
      <trkpt lat="51.093999" lon="13.658763">
        <ele>105.986734</ele>
        <time>2021-12-01T14:23:38.432Z</time>
      </trkpt>
      <trkpt lat="51.093852" lon="13.658907">
        <ele>105.639533</ele>
        <time>2021-12-01T14:23:56.664Z</time>
      </trkpt>
      <trkpt lat="51.093702" lon="13.658239">
        <ele>104.734563</ele>
        <time>2021-12-01T14:24:44.027Z</time>
      </trkpt>
      <trkpt lat="51.093613" lon="13.657761">
        <ele>104.080977</ele>
        <time>2021-12-01T14:25:17.369Z</time>
      </trkpt>
      <trkpt lat="51.093137" lon="13.656707">
        <ele>102.379105</ele>
        <time>2021-12-01T14:26:43.166Z</time>
      </trkpt>
      <trkpt lat="51.093047" lon="13.656507">
        <ele>102.056561</ele>
        <time>2021-12-01T14:26:59.306Z</time>
      </trkpt>
      <trkpt lat="51.092888" lon="13.656155">
        <ele>101.488151</ele>
        <time>2021-12-01T14:27:27.588Z</time>
      </trkpt>
      <trkpt lat="51.092874" lon="13.656060">
        <ele>101.360227</ele>
        <time>2021-12-01T14:27:33.958Z</time>
      </trkpt>
      <trkpt lat="51.092953" lon="13.655820">
        <ele>101.175558</ele>
        <time>2021-12-01T14:27:51.612Z</time>
      </trkpt>
      <trkpt lat="51.093138" lon="13.655215">
        <ele>100.994384</ele>
        <time>2021-12-01T14:28:34.970Z</time>
      </trkpt>
      <trkpt lat="51.093138" lon="13.655215">
        <ele>100.994384</ele>
        <time>2021-12-01T14:28:35.065Z</time>
      </trkpt>
      <trkpt lat="51.093334" lon="13.654779">
        <ele>100.850021</ele>
        <time>2021-12-01T14:29:09.236Z</time>
      </trkpt>
      <trkpt lat="51.093521" lon="13.654276">
        <ele>100.692643</ele>
        <time>2021-12-01T14:29:46.148Z</time>
      </trkpt>
      <trkpt lat="51.093521" lon="13.654276">
        <ele>100.692643</ele>
        <time>2021-12-01T14:29:46.241Z</time>
      </trkpt>
      <trkpt lat="51.093521" lon="13.654276">
        <ele>100.692643</ele>
        <time>2021-12-01T14:29:46.378Z</time>
      </trkpt>
      <trkpt lat="51.093748" lon="13.653621">
        <ele>100.491222</ele>
        <time>2021-12-01T14:30:34.693Z</time>
      </trkpt>
      <trkpt lat="51.093813" lon="13.653459">
        <ele>100.458506</ele>
        <time>2021-12-01T14:30:47.181Z</time>
      </trkpt>
      <trkpt lat="51.093852" lon="13.653345">
        <ele>100.496639</ele>
        <time>2021-12-01T14:30:55.614Z</time>
      </trkpt>
      <trkpt lat="51.093911" lon="13.653221">
        <ele>100.542337</ele>
        <time>2021-12-01T14:31:05.722Z</time>
      </trkpt>
      <trkpt lat="51.094024" lon="13.652981">
        <ele>100.630449</ele>
        <time>2021-12-01T14:31:24.952Z</time>
      </trkpt>
      <trkpt lat="51.094308" lon="13.652227">
        <ele>100.888714</ele>
        <time>2021-12-01T14:32:21.522Z</time>
      </trkpt>
      <trkpt lat="51.095693" lon="13.649351">
        <ele>102.011211</ele>
        <time>2021-12-01T14:36:14.161Z</time>
      </trkpt>
      <trkpt lat="51.096457" lon="13.647806">
        <ele>102.416761</ele>
        <time>2021-12-01T14:38:19.105Z</time>
      </trkpt>
      <trkpt lat="51.097040" lon="13.646578">
        <ele>102.651707</ele>
        <time>2021-12-01T14:39:56.198Z</time>
      </trkpt>
      <trkpt lat="51.097204" lon="13.645942">
        <ele>102.663449</ele>
        <time>2021-12-01T14:40:39.542Z</time>
      </trkpt>
      <trkpt lat="51.097273" lon="13.645727">
        <ele>102.667573</ele>
        <time>2021-12-01T14:40:54.693Z</time>
      </trkpt>
      <trkpt lat="51.097531" lon="13.644761">
        <ele>102.685501</ele>
        <time>2021-12-01T14:42:01.034Z</time>
      </trkpt>
      <trkpt lat="51.097607" lon="13.644240">
        <ele>102.694636</ele>
        <time>2021-12-01T14:42:34.632Z</time>
      </trkpt>
      <trkpt lat="51.097640" lon="13.644021">
        <ele>102.698483</ele>
        <time>2021-12-01T14:42:48.864Z</time>
      </trkpt>
      <trkpt lat="51.097863" lon="13.642550">
        <ele>102.709987</ele>
        <time>2021-12-01T14:44:24.238Z</time>
      </trkpt>
      <trkpt lat="51.097957" lon="13.642026">
        <ele>102.713808</ele>
        <time>2021-12-01T14:44:58.542Z</time>
      </trkpt>
      <trkpt lat="51.098093" lon="13.641515">
        <ele>102.717699</ele>
        <time>2021-12-01T14:45:33.565Z</time>
      </trkpt>
      <trkpt lat="51.098232" lon="13.640788">
        <ele>102.747571</ele>
        <time>2021-12-01T14:46:21.463Z</time>
      </trkpt>
      <trkpt lat="51.098408" lon="13.639961">
        <ele>102.804686</ele>
        <time>2021-12-01T14:47:16.315Z</time>
      </trkpt>
      <trkpt lat="51.098538" lon="13.639410">
        <ele>102.843186</ele>
        <time>2021-12-01T14:47:53.474Z</time>
      </trkpt>
      <trkpt lat="51.098711" lon="13.638645">
        <ele>102.896369</ele>
        <time>2021-12-01T14:48:45.094Z</time>
      </trkpt>
      <trkpt lat="51.098977" lon="13.637534">
        <ele>103.007913</ele>
        <time>2021-12-01T14:50:00.432Z</time>
      </trkpt>
      <trkpt lat="51.099343" lon="13.636310">
        <ele>103.141470</ele>
        <time>2021-12-01T14:51:25.816Z</time>
      </trkpt>
      <trkpt lat="51.099492" lon="13.635876">
        <ele>103.190747</ele>
        <time>2021-12-01T14:51:56.993Z</time>
      </trkpt>
      <trkpt lat="51.099668" lon="13.635549">
        <ele>103.271667</ele>
        <time>2021-12-01T14:52:24.277Z</time>
      </trkpt>
      <trkpt lat="51.099868" lon="13.635196">
        <ele>103.360998</ele>
        <time>2021-12-01T14:52:54.483Z</time>
      </trkpt>
      <trkpt lat="51.099979" lon="13.634998">
        <ele>103.410868</ele>
        <time>2021-12-01T14:53:11.176Z</time>
      </trkpt>
      <trkpt lat="51.100156" lon="13.634683">
        <ele>103.490289</ele>
        <time>2021-12-01T14:53:37.968Z</time>
      </trkpt>
      <trkpt lat="51.100311" lon="13.634556">
        <ele>103.542445</ele>
        <time>2021-12-01T14:53:55.790Z</time>
      </trkpt>
      <trkpt lat="51.100785" lon="13.634333">
        <ele>103.690328</ele>
        <time>2021-12-01T14:54:45.799Z</time>
      </trkpt>
      <trkpt lat="51.101889" lon="13.634222">
        <ele>104.289501</ele>
        <time>2021-12-01T14:56:38.245Z</time>
      </trkpt>
      <trkpt lat="51.102207" lon="13.634021">
        <ele>104.485394</ele>
        <time>2021-12-01T14:57:12.904Z</time>
      </trkpt>
      <trkpt lat="51.102528" lon="13.633751">
        <ele>104.693248</ele>
        <time>2021-12-01T14:57:49.831Z</time>
      </trkpt>
      <trkpt lat="51.102823" lon="13.632805">
        <ele>105.389792</ele>
        <time>2021-12-01T14:58:58.181Z</time>
      </trkpt>
      <trkpt lat="51.102885" lon="13.632527">
        <ele>105.602395</ele>
        <time>2021-12-01T14:59:17.763Z</time>
      </trkpt>
      <trkpt lat="51.103411" lon="13.633149">
        <ele>106.354293</ele>
        <time>2021-12-01T15:00:26.648Z</time>
      </trkpt>
      <trkpt lat="51.103646" lon="13.633353">
        <ele>106.661462</ele>
        <time>2021-12-01T15:00:54.894Z</time>
      </trkpt>
      <trkpt lat="51.103739" lon="13.633429">
        <ele>106.781428</ele>
        <time>2021-12-01T15:01:05.912Z</time>
      </trkpt>
      <trkpt lat="51.103769" lon="13.633474">
        <ele>106.828536</ele>
        <time>2021-12-01T15:01:10.610Z</time>
      </trkpt>
      <trkpt lat="51.104057" lon="13.633640">
        <ele>107.170337</ele>
        <time>2021-12-01T15:01:42.661Z</time>
      </trkpt>
      <trkpt lat="51.104180" lon="13.633710">
        <ele>107.316102</ele>
        <time>2021-12-01T15:01:56.754Z</time>
      </trkpt>
      <trkpt lat="51.104219" lon="13.633767">
        <ele>107.375174</ele>
        <time>2021-12-01T15:02:02.226Z</time>
      </trkpt>
      <trkpt lat="51.104188" lon="13.633800">
        <ele>107.416785</ele>
        <time>2021-12-01T15:02:06.046Z</time>
      </trkpt>
      <trkpt lat="51.104185" lon="13.633905">
        <ele>107.490437</ele>
        <time>2021-12-01T15:02:12.820Z</time>
      </trkpt>
      <trkpt lat="51.104185" lon="13.633905">
        <ele>107.490437</ele>
        <time>2021-12-01T15:02:13.001Z</time>
      </trkpt>
      <trkpt lat="51.104297" lon="13.633925">
        <ele>107.616209</ele>
        <time>2021-12-01T15:02:25.054Z</time>
      </trkpt>
      <trkpt lat="51.104366" lon="13.633990">
        <ele>107.705673</ele>
        <time>2021-12-01T15:02:33.612Z</time>
      </trkpt>
      <trkpt lat="51.104297" lon="13.633925">
        <ele>107.795137</ele>
        <time>2021-12-01T15:02:41.807Z</time>
      </trkpt>
      <trkpt lat="51.104315" lon="13.633797">
        <ele>107.887051</ele>
        <time>2021-12-01T15:02:50.212Z</time>
      </trkpt>
      <trkpt lat="51.104319" lon="13.633769">
        <ele>107.907173</ele>
        <time>2021-12-01T15:02:52.214Z</time>
      </trkpt>
      <trkpt lat="51.104349" lon="13.633582">
        <ele>108.042417</ele>
        <time>2021-12-01T15:03:05.219Z</time>
      </trkpt>
      <trkpt lat="51.104404" lon="13.633231">
        <ele>108.295912</ele>
        <time>2021-12-01T15:03:28.692Z</time>
      </trkpt>
      <trkpt lat="51.104437" lon="13.632903">
        <ele>108.528680</ele>
        <time>2021-12-01T15:03:50.665Z</time>
      </trkpt>
      <trkpt lat="51.104458" lon="13.632693">
        <ele>108.677686</ele>
        <time>2021-12-01T15:04:04.427Z</time>
      </trkpt>
      <trkpt lat="51.104486" lon="13.632444">
        <ele>108.838100</ele>
        <time>2021-12-01T15:04:21.002Z</time>
      </trkpt>
      <trkpt lat="51.104499" lon="13.632330">
        <ele>108.866393</ele>
        <time>2021-12-01T15:04:28.368Z</time>
      </trkpt>
      <trkpt lat="51.104626" lon="13.631216">
        <ele>109.142868</ele>
        <time>2021-12-01T15:05:39.834Z</time>
      </trkpt>
      <trkpt lat="51.104690" lon="13.630575">
        <ele>109.301360</ele>
        <time>2021-12-01T15:06:20.703Z</time>
      </trkpt>
      <trkpt lat="51.104693" lon="13.630550">
        <ele>109.307575</ele>
        <time>2021-12-01T15:06:22.439Z</time>
      </trkpt>
      <trkpt lat="51.104723" lon="13.630244">
        <ele>109.383202</ele>
        <time>2021-12-01T15:06:41.884Z</time>
      </trkpt>
      <trkpt lat="51.104779" lon="13.629606">
        <ele>109.538933</ele>
        <time>2021-12-01T15:07:22.512Z</time>
      </trkpt>
      <trkpt lat="51.104806" lon="13.629303">
        <ele>109.603785</ele>
        <time>2021-12-01T15:07:41.900Z</time>
      </trkpt>
      <trkpt lat="51.104824" lon="13.629090">
        <ele>109.649329</ele>
        <time>2021-12-01T15:07:55.641Z</time>
      </trkpt>
      <trkpt lat="51.104845" lon="13.628880">
        <ele>109.694391</ele>
        <time>2021-12-01T15:08:09.184Z</time>
      </trkpt>
      <trkpt lat="51.104880" lon="13.628772">
        <ele>109.720145</ele>
        <time>2021-12-01T15:08:16.969Z</time>
      </trkpt>
      <trkpt lat="51.104962" lon="13.628781">
        <ele>109.747885</ele>
        <time>2021-12-01T15:08:25.436Z</time>
      </trkpt>
      <trkpt lat="51.105061" lon="13.628812">
        <ele>109.781937</ele>
        <time>2021-12-01T15:08:35.742Z</time>
      </trkpt>
      <trkpt lat="51.105069" lon="13.628361">
        <ele>109.877546</ele>
        <time>2021-12-01T15:09:04.595Z</time>
      </trkpt>
      <trkpt lat="51.105874" lon="13.628888">
        <ele>110.160613</ele>
        <time>2021-12-01T15:10:32.551Z</time>
      </trkpt>
      <trkpt lat="51.106001" lon="13.628971">
        <ele>110.193087</ele>
        <time>2021-12-01T15:10:46.391Z</time>
      </trkpt>
      <trkpt lat="51.106350" lon="13.629211">
        <ele>110.283012</ele>
        <time>2021-12-01T15:11:25.029Z</time>
      </trkpt>
      <trkpt lat="51.106648" lon="13.629420">
        <ele>110.360037</ele>
        <time>2021-12-01T15:11:58.114Z</time>
      </trkpt>
      <trkpt lat="51.106767" lon="13.629504">
        <ele>110.390828</ele>
        <time>2021-12-01T15:12:11.349Z</time>
      </trkpt>
      <trkpt lat="51.106742" lon="13.629592">
        <ele>110.405174</ele>
        <time>2021-12-01T15:12:17.442Z</time>
      </trkpt>
      <trkpt lat="51.107190" lon="13.629916">
        <ele>110.521565</ele>
        <time>2021-12-01T15:13:07.253Z</time>
      </trkpt>
      <trkpt lat="51.107435" lon="13.630087">
        <ele>110.561086</ele>
        <time>2021-12-01T15:13:34.022Z</time>
      </trkpt>
      <trkpt lat="51.108067" lon="13.630480">
        <ele>110.561086</ele>
        <time>2021-12-01T15:14:42.091Z</time>
      </trkpt>
      <trkpt lat="51.108086" lon="13.630396">
        <ele>110.561086</ele>
        <time>2021-12-01T15:14:47.807Z</time>
      </trkpt>
      <trkpt lat="51.108123" lon="13.630422">
        <ele>110.561086</ele>
        <time>2021-12-01T15:14:51.894Z</time>
      </trkpt>
      <trkpt lat="51.108131" lon="13.630427">
        <ele>110.561086</ele>
        <time>2021-12-01T15:14:52.734Z</time>
      </trkpt>
      <trkpt lat="51.108144" lon="13.630435">
        <ele>110.561086</ele>
        <time>2021-12-01T15:14:54.108Z</time>
      </trkpt>
      <trkpt lat="51.108178" lon="13.630211">
        <ele>110.561086</ele>
        <time>2021-12-01T15:15:08.703Z</time>
      </trkpt>
      <trkpt lat="51.108225" lon="13.629953">
        <ele>110.561086</ele>
        <time>2021-12-01T15:15:25.792Z</time>
      </trkpt>
      <trkpt lat="51.108305" lon="13.629639">
        <ele>110.561086</ele>
        <time>2021-12-01T15:15:47.204Z</time>
      </trkpt>
      <trkpt lat="51.108380" lon="13.629385">
        <ele>110.561086</ele>
        <time>2021-12-01T15:16:05.151Z</time>
      </trkpt>
      <trkpt lat="51.108418" lon="13.629259">
        <ele>110.561086</ele>
        <time>2021-12-01T15:16:13.960Z</time>
      </trkpt>
    </trkseg>
  </trk>
</gpx>