<?xml version='1.0' encoding='UTF-8'?>
<gpx version="1.1" creator="https://www.komoot.de" xmlns="http://www.topografix.com/GPX/1/1" xmlns:xsi="http://www.w3.org/2001/XMLSchema-instance" xsi:schemaLocation="http://www.topografix.com/GPX/1/1 http://www.topografix.com/GPX/1/1/gpx.xsd">
  <metadata>
    <name>Streifzug 23 | Vom Seifersdorfer Tal zum Schloss und Park Hermsdorf</name>
    <author>
      <link href="https://www.komoot.de">
        <text>komoot</text>
        <type>text/html</type>
      </link>
    </author>
  </metadata>
  <trk>
    <name>Streifzug 23 | Vom Seifersdorfer Tal zum Schloss und Park Hermsdorf</name>
    <trkseg>
      <trkpt lat="51.137246" lon="13.900865">
        <ele>221.868162</ele>
        <time>2023-03-01T15:10:40.000Z</time>
      </trkpt>
      <trkpt lat="51.137598" lon="13.901147">
        <ele>221.868162</ele>
        <time>2023-03-01T15:11:20.246Z</time>
      </trkpt>
      <trkpt lat="51.137699" lon="13.901207">
        <ele>221.868162</ele>
        <time>2023-03-01T15:11:31.064Z</time>
      </trkpt>
      <trkpt lat="51.137835" lon="13.901214">
        <ele>221.868162</ele>
        <time>2023-03-01T15:11:45.230Z</time>
      </trkpt>
      <trkpt lat="51.137908" lon="13.901163">
        <ele>221.868162</ele>
        <time>2023-03-01T15:11:53.208Z</time>
      </trkpt>
      <trkpt lat="51.138235" lon="13.900663">
        <ele>221.846998</ele>
        <time>2023-03-01T15:12:38.904Z</time>
      </trkpt>
      <trkpt lat="51.138265" lon="13.900493">
        <ele>221.838357</ele>
        <time>2023-03-01T15:12:50.187Z</time>
      </trkpt>
      <trkpt lat="51.138490" lon="13.900420">
        <ele>221.820450</ele>
        <time>2023-03-01T15:13:13.671Z</time>
      </trkpt>
      <trkpt lat="51.138592" lon="13.900365">
        <ele>221.812052</ele>
        <time>2023-03-01T15:13:24.773Z</time>
      </trkpt>
      <trkpt lat="51.138644" lon="13.900321">
        <ele>221.807461</ele>
        <time>2023-03-01T15:13:30.898Z</time>
      </trkpt>
      <trkpt lat="51.138810" lon="13.900096">
        <ele>221.790466</ele>
        <time>2023-03-01T15:13:53.485Z</time>
      </trkpt>
      <trkpt lat="51.138854" lon="13.899952">
        <ele>221.782629</ele>
        <time>2023-03-01T15:14:03.886Z</time>
      </trkpt>
      <trkpt lat="51.138983" lon="13.899004">
        <ele>221.735163</ele>
        <time>2023-03-01T15:15:05.843Z</time>
      </trkpt>
      <trkpt lat="51.139137" lon="13.898535">
        <ele>221.766372</ele>
        <time>2023-03-01T15:15:39.210Z</time>
      </trkpt>
      <trkpt lat="51.139231" lon="13.898314">
        <ele>221.793360</ele>
        <time>2023-03-01T15:15:56.466Z</time>
      </trkpt>
      <trkpt lat="51.139333" lon="13.898147">
        <ele>221.816918</ele>
        <time>2023-03-01T15:16:12.037Z</time>
      </trkpt>
      <trkpt lat="51.139716" lon="13.897720">
        <ele>221.892218</ele>
        <time>2023-03-01T15:16:59.013Z</time>
      </trkpt>
      <trkpt lat="51.139920" lon="13.897626">
        <ele>221.926429</ele>
        <time>2023-03-01T15:17:20.253Z</time>
      </trkpt>
      <trkpt lat="51.140092" lon="13.897630">
        <ele>221.954141</ele>
        <time>2023-03-01T15:17:37.559Z</time>
      </trkpt>
      <trkpt lat="51.140118" lon="13.897499">
        <ele>221.968029</ele>
        <time>2023-03-01T15:17:46.346Z</time>
      </trkpt>
      <trkpt lat="51.140459" lon="13.897269">
        <ele>222.078646</ele>
        <time>2023-03-01T15:18:23.723Z</time>
      </trkpt>
      <trkpt lat="51.140956" lon="13.897187">
        <ele>222.568308</ele>
        <time>2023-03-01T15:19:14.938Z</time>
      </trkpt>
      <trkpt lat="51.141316" lon="13.897063">
        <ele>222.929251</ele>
        <time>2023-03-01T15:19:53.037Z</time>
      </trkpt>
      <trkpt lat="51.141663" lon="13.897005">
        <ele>223.271176</ele>
        <time>2023-03-01T15:20:29.580Z</time>
      </trkpt>
      <trkpt lat="51.141902" lon="13.897011">
        <ele>223.505424</ele>
        <time>2023-03-01T15:20:54.707Z</time>
      </trkpt>
      <trkpt lat="51.142204" lon="13.897234">
        <ele>223.835275</ele>
        <time>2023-03-01T15:21:30.741Z</time>
      </trkpt>
      <trkpt lat="51.142237" lon="13.897223">
        <ele>223.870682</ele>
        <time>2023-03-01T15:21:34.388Z</time>
      </trkpt>
      <trkpt lat="51.142381" lon="13.897176">
        <ele>224.025051</ele>
        <time>2023-03-01T15:21:50.591Z</time>
      </trkpt>
      <trkpt lat="51.142580" lon="13.896915">
        <ele>224.295701</ele>
        <time>2023-03-01T15:22:17.750Z</time>
      </trkpt>
      <trkpt lat="51.142870" lon="13.896626">
        <ele>224.654890</ele>
        <time>2023-03-01T15:22:54.099Z</time>
      </trkpt>
      <trkpt lat="51.143130" lon="13.896276">
        <ele>225.012297</ele>
        <time>2023-03-01T15:23:29.989Z</time>
      </trkpt>
      <trkpt lat="51.143236" lon="13.895889">
        <ele>225.290525</ele>
        <time>2023-03-01T15:23:57.884Z</time>
      </trkpt>
      <trkpt lat="51.143278" lon="13.894890">
        <ele>225.606830</ele>
        <time>2023-03-01T15:25:01.499Z</time>
      </trkpt>
      <trkpt lat="51.143067" lon="13.894187">
        <ele>225.492684</ele>
        <time>2023-03-01T15:25:50.855Z</time>
      </trkpt>
      <trkpt lat="51.142804" lon="13.892380">
        <ele>225.257849</ele>
        <time>2023-03-01T15:27:49.851Z</time>
      </trkpt>
      <trkpt lat="51.142774" lon="13.891853">
        <ele>225.281027</ele>
        <time>2023-03-01T15:28:23.589Z</time>
      </trkpt>
      <trkpt lat="51.142871" lon="13.891229">
        <ele>225.309186</ele>
        <time>2023-03-01T15:29:04.350Z</time>
      </trkpt>
      <trkpt lat="51.142865" lon="13.890827">
        <ele>225.326799</ele>
        <time>2023-03-01T15:29:29.795Z</time>
      </trkpt>
      <trkpt lat="51.142906" lon="13.890671">
        <ele>225.334207</ele>
        <time>2023-03-01T15:29:40.534Z</time>
      </trkpt>
      <trkpt lat="51.143062" lon="13.889899">
        <ele>225.369733</ele>
        <time>2023-03-01T15:30:32.938Z</time>
      </trkpt>
      <trkpt lat="51.143217" lon="13.889635">
        <ele>225.495130</ele>
        <time>2023-03-01T15:30:56.425Z</time>
      </trkpt>
      <trkpt lat="51.143479" lon="13.889366">
        <ele>225.741071</ele>
        <time>2023-03-01T15:31:29.329Z</time>
      </trkpt>
      <trkpt lat="51.143712" lon="13.889178">
        <ele>225.947162</ele>
        <time>2023-03-01T15:31:57.596Z</time>
      </trkpt>
      <trkpt lat="51.144665" lon="13.888749">
        <ele>226.728648</ele>
        <time>2023-03-01T15:33:40.445Z</time>
      </trkpt>
      <trkpt lat="51.145193" lon="13.888749">
        <ele>226.864374</ele>
        <time>2023-03-01T15:34:33.467Z</time>
      </trkpt>
      <trkpt lat="51.145570" lon="13.888648">
        <ele>226.924561</ele>
        <time>2023-03-01T15:35:11.735Z</time>
      </trkpt>
      <trkpt lat="51.145639" lon="13.888468">
        <ele>226.945396</ele>
        <time>2023-03-01T15:35:25.070Z</time>
      </trkpt>
      <trkpt lat="51.145777" lon="13.888264">
        <ele>226.975027</ele>
        <time>2023-03-01T15:35:43.975Z</time>
      </trkpt>
      <trkpt lat="51.145803" lon="13.888227">
        <ele>226.980515</ele>
        <time>2023-03-01T15:35:47.507Z</time>
      </trkpt>
      <trkpt lat="51.145947" lon="13.888028">
        <ele>227.010520</ele>
        <time>2023-03-01T15:36:06.782Z</time>
      </trkpt>
      <trkpt lat="51.146201" lon="13.887703">
        <ele>227.061799</ele>
        <time>2023-03-01T15:36:39.554Z</time>
      </trkpt>
      <trkpt lat="51.146279" lon="13.887393">
        <ele>227.160080</ele>
        <time>2023-03-01T15:37:00.648Z</time>
      </trkpt>
      <trkpt lat="51.146327" lon="13.887201">
        <ele>227.257739</ele>
        <time>2023-03-01T15:37:13.921Z</time>
      </trkpt>
      <trkpt lat="51.146496" lon="13.886174">
        <ele>227.759411</ele>
        <time>2023-03-01T15:38:21.349Z</time>
      </trkpt>
      <trkpt lat="51.146590" lon="13.885746">
        <ele>227.973675</ele>
        <time>2023-03-01T15:38:50.707Z</time>
      </trkpt>
      <trkpt lat="51.146731" lon="13.885170">
        <ele>228.265819</ele>
        <time>2023-03-01T15:39:31.924Z</time>
      </trkpt>
      <trkpt lat="51.146763" lon="13.885042">
        <ele>228.330924</ele>
        <time>2023-03-01T15:39:41.270Z</time>
      </trkpt>
      <trkpt lat="51.146993" lon="13.884581">
        <ele>228.792941</ele>
        <time>2023-03-01T15:40:21.153Z</time>
      </trkpt>
      <trkpt lat="51.147014" lon="13.884559">
        <ele>228.831514</ele>
        <time>2023-03-01T15:40:24.068Z</time>
      </trkpt>
      <trkpt lat="51.147094" lon="13.884476">
        <ele>228.978031</ele>
        <time>2023-03-01T15:40:35.067Z</time>
      </trkpt>
      <trkpt lat="51.147225" lon="13.884413">
        <ele>229.188067</ele>
        <time>2023-03-01T15:40:50.440Z</time>
      </trkpt>
      <trkpt lat="51.147369" lon="13.884409">
        <ele>229.409139</ele>
        <time>2023-03-01T15:41:06.366Z</time>
      </trkpt>
      <trkpt lat="51.147411" lon="13.884408">
        <ele>229.473616</ele>
        <time>2023-03-01T15:41:11.033Z</time>
      </trkpt>
      <trkpt lat="51.147740" lon="13.884482">
        <ele>229.983630</ele>
        <time>2023-03-01T15:41:47.360Z</time>
      </trkpt>
      <trkpt lat="51.147918" lon="13.884633">
        <ele>230.293137</ele>
        <time>2023-03-01T15:42:08.663Z</time>
      </trkpt>
      <trkpt lat="51.148292" lon="13.884864">
        <ele>230.908809</ele>
        <time>2023-03-01T15:42:50.435Z</time>
      </trkpt>
      <trkpt lat="51.148532" lon="13.884884">
        <ele>231.157452</ele>
        <time>2023-03-01T15:43:15.854Z</time>
      </trkpt>
      <trkpt lat="51.148753" lon="13.884857">
        <ele>231.013852</ele>
        <time>2023-03-01T15:43:38.983Z</time>
      </trkpt>
      <trkpt lat="51.148851" lon="13.884803">
        <ele>230.946674</ele>
        <time>2023-03-01T15:43:49.605Z</time>
      </trkpt>
      <trkpt lat="51.149056" lon="13.884786">
        <ele>230.813680</ele>
        <time>2023-03-01T15:44:10.901Z</time>
      </trkpt>
      <trkpt lat="51.149042" lon="13.884615">
        <ele>230.743595</ele>
        <time>2023-03-01T15:44:21.765Z</time>
      </trkpt>
      <trkpt lat="51.149020" lon="13.884457">
        <ele>230.677819</ele>
        <time>2023-03-01T15:44:32.344Z</time>
      </trkpt>
      <trkpt lat="51.149101" lon="13.884259">
        <ele>230.581751</ele>
        <time>2023-03-01T15:44:47.189Z</time>
      </trkpt>
      <trkpt lat="51.149184" lon="13.884177">
        <ele>230.518488</ele>
        <time>2023-03-01T15:44:57.289Z</time>
      </trkpt>
      <trkpt lat="51.149318" lon="13.884110">
        <ele>230.427502</ele>
        <time>2023-03-01T15:45:11.405Z</time>
      </trkpt>
      <trkpt lat="51.149415" lon="13.884137">
        <ele>230.363708</ele>
        <time>2023-03-01T15:45:21.295Z</time>
      </trkpt>
      <trkpt lat="51.149507" lon="13.884116">
        <ele>230.303495</ele>
        <time>2023-03-01T15:45:30.835Z</time>
      </trkpt>
      <trkpt lat="51.149766" lon="13.883836">
        <ele>230.100750</ele>
        <time>2023-03-01T15:46:03.099Z</time>
      </trkpt>
      <trkpt lat="51.149872" lon="13.883675">
        <ele>229.928110</ele>
        <time>2023-03-01T15:46:19.164Z</time>
      </trkpt>
      <trkpt lat="51.149996" lon="13.883237">
        <ele>229.040852</ele>
        <time>2023-03-01T15:46:52.345Z</time>
      </trkpt>
      <trkpt lat="51.150022" lon="13.883072">
        <ele>228.726736</ele>
        <time>2023-03-01T15:47:03.941Z</time>
      </trkpt>
      <trkpt lat="51.150118" lon="13.882836">
        <ele>228.207393</ele>
        <time>2023-03-01T15:47:23.268Z</time>
      </trkpt>
      <trkpt lat="51.150143" lon="13.882774">
        <ele>228.071307</ele>
        <time>2023-03-01T15:47:28.381Z</time>
      </trkpt>
      <trkpt lat="51.150216" lon="13.882116">
        <ele>226.837547</ele>
        <time>2023-03-01T15:48:13.344Z</time>
      </trkpt>
      <trkpt lat="51.150154" lon="13.881651">
        <ele>225.959808</ele>
        <time>2023-03-01T15:48:45.913Z</time>
      </trkpt>
      <trkpt lat="51.150132" lon="13.881485">
        <ele>225.646546</ele>
        <time>2023-03-01T15:48:57.130Z</time>
      </trkpt>
      <trkpt lat="51.150182" lon="13.881473">
        <ele>225.497716</ele>
        <time>2023-03-01T15:49:02.577Z</time>
      </trkpt>
      <trkpt lat="51.150261" lon="13.881466">
        <ele>225.264826</ele>
        <time>2023-03-01T15:49:11.341Z</time>
      </trkpt>
      <trkpt lat="51.150360" lon="13.881477">
        <ele>224.972719</ele>
        <time>2023-03-01T15:49:22.487Z</time>
      </trkpt>
      <trkpt lat="51.150573" lon="13.881573">
        <ele>224.597572</ele>
        <time>2023-03-01T15:49:45.291Z</time>
      </trkpt>
      <trkpt lat="51.150623" lon="13.881588">
        <ele>224.548161</ele>
        <time>2023-03-01T15:49:50.695Z</time>
      </trkpt>
      <trkpt lat="51.150661" lon="13.881597">
        <ele>224.510852</ele>
        <time>2023-03-01T15:49:54.894Z</time>
      </trkpt>
      <trkpt lat="51.150737" lon="13.881184">
        <ele>224.248657</ele>
        <time>2023-03-01T15:50:22.768Z</time>
      </trkpt>
      <trkpt lat="51.150770" lon="13.880865">
        <ele>224.051703</ele>
        <time>2023-03-01T15:50:44.092Z</time>
      </trkpt>
      <trkpt lat="51.150808" lon="13.880739">
        <ele>223.966535</ele>
        <time>2023-03-01T15:50:53.093Z</time>
      </trkpt>
      <trkpt lat="51.150893" lon="13.880637">
        <ele>223.863214</ele>
        <time>2023-03-01T15:51:04.255Z</time>
      </trkpt>
      <trkpt lat="51.151039" lon="13.880522">
        <ele>223.705062</ele>
        <time>2023-03-01T15:51:21.377Z</time>
      </trkpt>
      <trkpt lat="51.151282" lon="13.880430">
        <ele>223.462507</ele>
        <time>2023-03-01T15:51:46.907Z</time>
      </trkpt>
      <trkpt lat="51.151318" lon="13.880361">
        <ele>223.407835</ele>
        <time>2023-03-01T15:51:53.083Z</time>
      </trkpt>
      <trkpt lat="51.151351" lon="13.880291">
        <ele>223.354492</ele>
        <time>2023-03-01T15:51:58.761Z</time>
      </trkpt>
      <trkpt lat="51.151425" lon="13.880149">
        <ele>223.242031</ele>
        <time>2023-03-01T15:52:11.017Z</time>
      </trkpt>
      <trkpt lat="51.151586" lon="13.880100">
        <ele>223.082851</ele>
        <time>2023-03-01T15:52:27.767Z</time>
      </trkpt>
      <trkpt lat="51.151789" lon="13.879802">
        <ele>223.401193</ele>
        <time>2023-03-01T15:52:56.646Z</time>
      </trkpt>
      <trkpt lat="51.152103" lon="13.879280">
        <ele>224.462193</ele>
        <time>2023-03-01T15:53:45.924Z</time>
      </trkpt>
      <trkpt lat="51.152263" lon="13.879097">
        <ele>224.922736</ele>
        <time>2023-03-01T15:54:09.498Z</time>
      </trkpt>
      <trkpt lat="51.152311" lon="13.879097">
        <ele>225.034997</ele>
        <time>2023-03-01T15:54:15.014Z</time>
      </trkpt>
      <trkpt lat="51.152416" lon="13.879122">
        <ele>225.283291</ele>
        <time>2023-03-01T15:54:26.939Z</time>
      </trkpt>
      <trkpt lat="51.152439" lon="13.879462">
        <ele>225.784962</ele>
        <time>2023-03-01T15:54:53.062Z</time>
      </trkpt>
      <trkpt lat="51.152416" lon="13.879122">
        <ele>226.286632</ele>
        <time>2023-03-01T15:55:17.778Z</time>
      </trkpt>
      <trkpt lat="51.152582" lon="13.879185">
        <ele>226.685717</ele>
        <time>2023-03-01T15:55:37.435Z</time>
      </trkpt>
      <trkpt lat="51.152624" lon="13.879202">
        <ele>226.787061</ele>
        <time>2023-03-01T15:55:42.303Z</time>
      </trkpt>
      <trkpt lat="51.153273" lon="13.879608">
        <ele>227.682977</ele>
        <time>2023-03-01T15:56:57.955Z</time>
      </trkpt>
      <trkpt lat="51.153609" lon="13.879889">
        <ele>228.037812</ele>
        <time>2023-03-01T15:57:37.657Z</time>
      </trkpt>
      <trkpt lat="51.153742" lon="13.879999">
        <ele>228.177933</ele>
        <time>2023-03-01T15:57:52.810Z</time>
      </trkpt>
      <trkpt lat="51.153970" lon="13.880041">
        <ele>228.392577</ele>
        <time>2023-03-01T15:58:17.739Z</time>
      </trkpt>
      <trkpt lat="51.154073" lon="13.880008">
        <ele>228.490828</ele>
        <time>2023-03-01T15:58:28.284Z</time>
      </trkpt>
      <trkpt lat="51.154153" lon="13.879969">
        <ele>228.569063</ele>
        <time>2023-03-01T15:58:36.903Z</time>
      </trkpt>
      <trkpt lat="51.154314" lon="13.879753">
        <ele>228.765846</ele>
        <time>2023-03-01T15:58:59.736Z</time>
      </trkpt>
      <trkpt lat="51.154374" lon="13.879570">
        <ele>228.845131</ele>
        <time>2023-03-01T15:59:13.716Z</time>
      </trkpt>
      <trkpt lat="51.154562" lon="13.878658">
        <ele>227.338100</ele>
        <time>2023-03-01T16:00:16.135Z</time>
      </trkpt>
      <trkpt lat="51.154724" lon="13.878004">
        <ele>226.234266</ele>
        <time>2023-03-01T16:01:03.739Z</time>
      </trkpt>
      <trkpt lat="51.154784" lon="13.877682">
        <ele>225.706947</ele>
        <time>2023-03-01T16:01:26.271Z</time>
      </trkpt>
      <trkpt lat="51.154818" lon="13.877276">
        <ele>225.063941</ele>
        <time>2023-03-01T16:01:55.041Z</time>
      </trkpt>
      <trkpt lat="51.154906" lon="13.876824">
        <ele>224.337246</ele>
        <time>2023-03-01T16:02:27.101Z</time>
      </trkpt>
      <trkpt lat="51.155101" lon="13.876159">
        <ele>223.539159</ele>
        <time>2023-03-01T16:03:17.625Z</time>
      </trkpt>
      <trkpt lat="51.155336" lon="13.875729">
        <ele>222.919105</ele>
        <time>2023-03-01T16:03:56.969Z</time>
      </trkpt>
      <trkpt lat="51.155626" lon="13.875375">
        <ele>222.286022</ele>
        <time>2023-03-01T16:04:35.354Z</time>
      </trkpt>
      <trkpt lat="51.156021" lon="13.874974">
        <ele>221.474337</ele>
        <time>2023-03-01T16:05:22.981Z</time>
      </trkpt>
      <trkpt lat="51.156089" lon="13.875044">
        <ele>221.334037</ele>
        <time>2023-03-01T16:05:31.312Z</time>
      </trkpt>
      <trkpt lat="51.156314" lon="13.874875">
        <ele>221.972023</ele>
        <time>2023-03-01T16:05:57.344Z</time>
      </trkpt>
      <trkpt lat="51.156436" lon="13.875234">
        <ele>222.871457</ele>
        <time>2023-03-01T16:06:24.805Z</time>
      </trkpt>
      <trkpt lat="51.156586" lon="13.875736">
        <ele>224.096349</ele>
        <time>2023-03-01T16:07:03.718Z</time>
      </trkpt>
      <trkpt lat="51.156773" lon="13.876147">
        <ele>225.214837</ele>
        <time>2023-03-01T16:07:40.686Z</time>
      </trkpt>
      <trkpt lat="51.156855" lon="13.876254">
        <ele>225.586988</ele>
        <time>2023-03-01T16:07:54.281Z</time>
      </trkpt>
      <trkpt lat="51.156986" lon="13.876358">
        <ele>226.100961</ele>
        <time>2023-03-01T16:08:11.396Z</time>
      </trkpt>
      <trkpt lat="51.157118" lon="13.876424">
        <ele>226.586827</ele>
        <time>2023-03-01T16:08:28.375Z</time>
      </trkpt>
      <trkpt lat="51.157260" lon="13.876589">
        <ele>227.203942</ele>
        <time>2023-03-01T16:08:50.165Z</time>
      </trkpt>
      <trkpt lat="51.157312" lon="13.876751">
        <ele>227.613670</ele>
        <time>2023-03-01T16:09:04.240Z</time>
      </trkpt>
      <trkpt lat="51.157339" lon="13.877017">
        <ele>228.374234</ele>
        <time>2023-03-01T16:09:26.718Z</time>
      </trkpt>
      <trkpt lat="51.157381" lon="13.877316">
        <ele>229.239079</ele>
        <time>2023-03-01T16:09:50.575Z</time>
      </trkpt>
      <trkpt lat="51.157466" lon="13.877567">
        <ele>230.044211</ele>
        <time>2023-03-01T16:10:13.674Z</time>
      </trkpt>
      <trkpt lat="51.157864" lon="13.878288">
        <ele>232.755212</ele>
        <time>2023-03-01T16:11:25.595Z</time>
      </trkpt>
      <trkpt lat="51.157994" lon="13.878801">
        <ele>234.316882</ele>
        <time>2023-03-01T16:12:04.302Z</time>
      </trkpt>
      <trkpt lat="51.158106" lon="13.879248">
        <ele>235.671007</ele>
        <time>2023-03-01T16:12:37.493Z</time>
      </trkpt>
      <trkpt lat="51.158161" lon="13.879497">
        <ele>235.980340</ele>
        <time>2023-03-01T16:12:54.639Z</time>
      </trkpt>
      <trkpt lat="51.158185" lon="13.880147">
        <ele>236.743299</ele>
        <time>2023-03-01T16:13:36.642Z</time>
      </trkpt>
      <trkpt lat="51.158158" lon="13.880946">
        <ele>237.680889</ele>
        <time>2023-03-01T16:14:28.982Z</time>
      </trkpt>
      <trkpt lat="51.158173" lon="13.881023">
        <ele>237.775367</ele>
        <time>2023-03-01T16:14:34.369Z</time>
      </trkpt>
      <trkpt lat="51.158793" lon="13.881098">
        <ele>238.937049</ele>
        <time>2023-03-01T16:15:39.326Z</time>
      </trkpt>
      <trkpt lat="51.158791" lon="13.881133">
        <ele>238.978230</ele>
        <time>2023-03-01T16:15:41.641Z</time>
      </trkpt>
      <trkpt lat="51.158745" lon="13.881128">
        <ele>239.054617</ele>
        <time>2023-03-01T16:15:46.602Z</time>
      </trkpt>
      <trkpt lat="51.158791" lon="13.881133">
        <ele>239.117497</ele>
        <time>2023-03-01T16:15:51.466Z</time>
      </trkpt>
      <trkpt lat="51.158791" lon="13.881366">
        <ele>239.316787</ele>
        <time>2023-03-01T16:16:06.606Z</time>
      </trkpt>
      <trkpt lat="51.158797" lon="13.881569">
        <ele>239.490610</ele>
        <time>2023-03-01T16:16:20.020Z</time>
      </trkpt>
      <trkpt lat="51.158838" lon="13.882675">
        <ele>240.438247</ele>
        <time>2023-03-01T16:17:33.167Z</time>
      </trkpt>
      <trkpt lat="51.158830" lon="13.882853">
        <ele>240.590885</ele>
        <time>2023-03-01T16:17:45.523Z</time>
      </trkpt>
      <trkpt lat="51.158881" lon="13.882869">
        <ele>240.661772</ele>
        <time>2023-03-01T16:17:51.079Z</time>
      </trkpt>
      <trkpt lat="51.158997" lon="13.882876">
        <ele>240.820085</ele>
        <time>2023-03-01T16:18:03.283Z</time>
      </trkpt>
      <trkpt lat="51.158856" lon="13.883513">
        <ele>241.397862</ele>
        <time>2023-03-01T16:18:48.916Z</time>
      </trkpt>
      <trkpt lat="51.158920" lon="13.883644">
        <ele>241.475214</ele>
        <time>2023-03-01T16:19:00.299Z</time>
      </trkpt>
      <trkpt lat="51.158923" lon="13.883991">
        <ele>241.444795</ele>
        <time>2023-03-01T16:19:22.906Z</time>
      </trkpt>
      <trkpt lat="51.158947" lon="13.884078">
        <ele>241.436464</ele>
        <time>2023-03-01T16:19:29.144Z</time>
      </trkpt>
      <trkpt lat="51.159079" lon="13.884210">
        <ele>241.414688</ele>
        <time>2023-03-01T16:19:45.487Z</time>
      </trkpt>
      <trkpt lat="51.159162" lon="13.884294">
        <ele>241.400948</ele>
        <time>2023-03-01T16:19:55.388Z</time>
      </trkpt>
      <trkpt lat="51.159186" lon="13.884300">
        <ele>241.397553</ele>
        <time>2023-03-01T16:19:57.767Z</time>
      </trkpt>
      <trkpt lat="51.159401" lon="13.884358">
        <ele>241.367077</ele>
        <time>2023-03-01T16:20:20.238Z</time>
      </trkpt>
      <trkpt lat="51.159494" lon="13.884160">
        <ele>241.345394</ele>
        <time>2023-03-01T16:20:36.068Z</time>
      </trkpt>
      <trkpt lat="51.159532" lon="13.883945">
        <ele>241.325815</ele>
        <time>2023-03-01T16:20:50.132Z</time>
      </trkpt>
      <trkpt lat="51.159548" lon="13.883677">
        <ele>241.302218</ele>
        <time>2023-03-01T16:21:07.434Z</time>
      </trkpt>
      <trkpt lat="51.159482" lon="13.883382">
        <ele>241.274764</ele>
        <time>2023-03-01T16:21:27.441Z</time>
      </trkpt>
      <trkpt lat="51.159488" lon="13.883241">
        <ele>241.262377</ele>
        <time>2023-03-01T16:21:36.675Z</time>
      </trkpt>
      <trkpt lat="51.159457" lon="13.883179">
        <ele>241.255427</ele>
        <time>2023-03-01T16:21:41.878Z</time>
      </trkpt>
      <trkpt lat="51.159369" lon="13.883124">
        <ele>241.242217</ele>
        <time>2023-03-01T16:21:51.671Z</time>
      </trkpt>
      <trkpt lat="51.158997" lon="13.882876">
        <ele>240.728105</ele>
        <time>2023-03-01T16:22:33.534Z</time>
      </trkpt>
      <trkpt lat="51.158881" lon="13.882869">
        <ele>240.543019</ele>
        <time>2023-03-01T16:22:45.596Z</time>
      </trkpt>
      <trkpt lat="51.158830" lon="13.882853">
        <ele>240.460143</ele>
        <time>2023-03-01T16:22:51.062Z</time>
      </trkpt>
      <trkpt lat="51.158838" lon="13.882675">
        <ele>240.281692</ele>
        <time>2023-03-01T16:23:02.906Z</time>
      </trkpt>
      <trkpt lat="51.158880" lon="13.882666">
        <ele>240.214124</ele>
        <time>2023-03-01T16:23:07.397Z</time>
      </trkpt>
      <trkpt lat="51.158920" lon="13.882671">
        <ele>240.150151</ele>
        <time>2023-03-01T16:23:11.570Z</time>
      </trkpt>
      <trkpt lat="51.158936" lon="13.882595">
        <ele>240.069986</ele>
        <time>2023-03-01T16:23:16.870Z</time>
      </trkpt>
      <trkpt lat="51.158950" lon="13.882526">
        <ele>239.997467</ele>
        <time>2023-03-01T16:23:21.723Z</time>
      </trkpt>
      <trkpt lat="51.159058" lon="13.881753">
        <ele>239.205543</ele>
        <time>2023-03-01T16:24:14.209Z</time>
      </trkpt>
      <trkpt lat="51.159121" lon="13.881446">
        <ele>238.882538</ele>
        <time>2023-03-01T16:24:35.326Z</time>
      </trkpt>
      <trkpt lat="51.159199" lon="13.881188">
        <ele>238.596136</ele>
        <time>2023-03-01T16:24:54.143Z</time>
      </trkpt>
      <trkpt lat="51.159363" lon="13.880653">
        <ele>238.229557</ele>
        <time>2023-03-01T16:25:32.687Z</time>
      </trkpt>
      <trkpt lat="51.159473" lon="13.880168">
        <ele>238.040499</ele>
        <time>2023-03-01T16:26:05.705Z</time>
      </trkpt>
      <trkpt lat="51.159579" lon="13.880220">
        <ele>237.975676</ele>
        <time>2023-03-01T16:26:17.110Z</time>
      </trkpt>
      <trkpt lat="51.159752" lon="13.880262">
        <ele>237.873391</ele>
        <time>2023-03-01T16:26:34.762Z</time>
      </trkpt>
      <trkpt lat="51.159579" lon="13.880220">
        <ele>237.771107</ele>
        <time>2023-03-01T16:26:52.515Z</time>
      </trkpt>
      <trkpt lat="51.159473" lon="13.880168">
        <ele>237.706284</ele>
        <time>2023-03-01T16:27:03.994Z</time>
      </trkpt>
      <trkpt lat="51.159251" lon="13.880053">
        <ele>237.569848</ele>
        <time>2023-03-01T16:27:27.589Z</time>
      </trkpt>
      <trkpt lat="51.159078" lon="13.880389">
        <ele>237.410487</ele>
        <time>2023-03-01T16:27:55.611Z</time>
      </trkpt>
      <trkpt lat="51.158948" lon="13.880602">
        <ele>237.299885</ele>
        <time>2023-03-01T16:28:14.441Z</time>
      </trkpt>
      <trkpt lat="51.158862" lon="13.880793">
        <ele>237.198189</ele>
        <time>2023-03-01T16:28:29.668Z</time>
      </trkpt>
      <trkpt lat="51.158815" lon="13.880962">
        <ele>237.118229</ele>
        <time>2023-03-01T16:28:41.244Z</time>
      </trkpt>
      <trkpt lat="51.158793" lon="13.881098">
        <ele>237.057482</ele>
        <time>2023-03-01T16:28:50.372Z</time>
      </trkpt>
      <trkpt lat="51.158173" lon="13.881023">
        <ele>236.628677</ele>
        <time>2023-03-01T16:29:53.236Z</time>
      </trkpt>
      <trkpt lat="51.158158" lon="13.880946">
        <ele>236.593803</ele>
        <time>2023-03-01T16:29:58.361Z</time>
      </trkpt>
      <trkpt lat="51.158185" lon="13.880147">
        <ele>236.247717</ele>
        <time>2023-03-01T16:30:49.049Z</time>
      </trkpt>
      <trkpt lat="51.158161" lon="13.879497">
        <ele>235.462202</ele>
        <time>2023-03-01T16:31:30.531Z</time>
      </trkpt>
      <trkpt lat="51.158106" lon="13.879248">
        <ele>234.795904</ele>
        <time>2023-03-01T16:31:47.425Z</time>
      </trkpt>
      <trkpt lat="51.157994" lon="13.878801">
        <ele>233.580998</ele>
        <time>2023-03-01T16:32:19.393Z</time>
      </trkpt>
      <trkpt lat="51.157864" lon="13.878288">
        <ele>232.184512</ele>
        <time>2023-03-01T16:32:56.426Z</time>
      </trkpt>
      <trkpt lat="51.157466" lon="13.877567">
        <ele>229.760266</ele>
        <time>2023-03-01T16:34:03.568Z</time>
      </trkpt>
      <trkpt lat="51.157381" lon="13.877316">
        <ele>229.040297</ele>
        <time>2023-03-01T16:34:24.489Z</time>
      </trkpt>
      <trkpt lat="51.157339" lon="13.877017">
        <ele>227.991384</ele>
        <time>2023-03-01T16:34:46.457Z</time>
      </trkpt>
      <trkpt lat="51.157312" lon="13.876751">
        <ele>226.979620</ele>
        <time>2023-03-01T16:35:06.607Z</time>
      </trkpt>
      <trkpt lat="51.157260" lon="13.876589">
        <ele>226.296311</ele>
        <time>2023-03-01T16:35:19.559Z</time>
      </trkpt>
      <trkpt lat="51.157118" lon="13.876424">
        <ele>225.244398</ele>
        <time>2023-03-01T16:35:39.947Z</time>
      </trkpt>
      <trkpt lat="51.156986" lon="13.876358">
        <ele>224.416206</ele>
        <time>2023-03-01T16:35:55.946Z</time>
      </trkpt>
      <trkpt lat="51.156855" lon="13.876254">
        <ele>223.540105</ele>
        <time>2023-03-01T16:36:12.326Z</time>
      </trkpt>
      <trkpt lat="51.156773" lon="13.876147">
        <ele>222.905749</ele>
        <time>2023-03-01T16:36:25.112Z</time>
      </trkpt>
      <trkpt lat="51.156586" lon="13.875736">
        <ele>220.999212</ele>
        <time>2023-03-01T16:37:01.417Z</time>
      </trkpt>
      <trkpt lat="51.156436" lon="13.875234">
        <ele>218.911301</ele>
        <time>2023-03-01T16:37:41.413Z</time>
      </trkpt>
      <trkpt lat="51.156614" lon="13.874834">
        <ele>217.770926</ele>
        <time>2023-03-01T16:38:15.508Z</time>
      </trkpt>
      <trkpt lat="51.157014" lon="13.874136">
        <ele>216.724398</ele>
        <time>2023-03-01T16:39:20.183Z</time>
      </trkpt>
      <trkpt lat="51.157183" lon="13.873782">
        <ele>216.231973</ele>
        <time>2023-03-01T16:39:48.707Z</time>
      </trkpt>
      <trkpt lat="51.157197" lon="13.873546">
        <ele>215.969589</ele>
        <time>2023-03-01T16:40:03.860Z</time>
      </trkpt>
      <trkpt lat="51.156959" lon="13.872547">
        <ele>214.975909</ele>
        <time>2023-03-01T16:41:16.245Z</time>
      </trkpt>
      <trkpt lat="51.156796" lon="13.872019">
        <ele>215.520321</ele>
        <time>2023-03-01T16:41:56.986Z</time>
      </trkpt>
      <trkpt lat="51.156665" lon="13.870496">
        <ele>216.942428</ele>
        <time>2023-03-01T16:43:42.767Z</time>
      </trkpt>
      <trkpt lat="51.156273" lon="13.869736">
        <ele>217.527639</ele>
        <time>2023-03-01T16:44:47.953Z</time>
      </trkpt>
      <trkpt lat="51.156003" lon="13.869423">
        <ele>217.503636</ele>
        <time>2023-03-01T16:45:22.446Z</time>
      </trkpt>
      <trkpt lat="51.155886" lon="13.869200">
        <ele>217.490524</ele>
        <time>2023-03-01T16:45:40.818Z</time>
      </trkpt>
      <trkpt lat="51.155738" lon="13.868780">
        <ele>217.468798</ele>
        <time>2023-03-01T16:46:11.194Z</time>
      </trkpt>
      <trkpt lat="51.155617" lon="13.868099">
        <ele>217.436877</ele>
        <time>2023-03-01T16:46:56.525Z</time>
      </trkpt>
      <trkpt lat="51.155460" lon="13.866510">
        <ele>216.273980</ele>
        <time>2023-03-01T16:48:40.291Z</time>
      </trkpt>
      <trkpt lat="51.155630" lon="13.865784">
        <ele>215.462743</ele>
        <time>2023-03-01T16:49:31.303Z</time>
      </trkpt>
      <trkpt lat="51.155746" lon="13.865291">
        <ele>214.911537</ele>
        <time>2023-03-01T16:50:05.885Z</time>
      </trkpt>
      <trkpt lat="51.156031" lon="13.864674">
        <ele>214.163879</ele>
        <time>2023-03-01T16:50:56.617Z</time>
      </trkpt>
      <trkpt lat="51.156250" lon="13.864432">
        <ele>213.799385</ele>
        <time>2023-03-01T16:51:25.474Z</time>
      </trkpt>
      <trkpt lat="51.156539" lon="13.864037">
        <ele>213.278677</ele>
        <time>2023-03-01T16:52:05.955Z</time>
      </trkpt>
      <trkpt lat="51.157084" lon="13.863436">
        <ele>212.372212</ele>
        <time>2023-03-01T16:53:12.629Z</time>
      </trkpt>
      <trkpt lat="51.157214" lon="13.863204">
        <ele>212.105299</ele>
        <time>2023-03-01T16:53:33.008Z</time>
      </trkpt>
      <trkpt lat="51.157129" lon="13.862796">
        <ele>211.965186</ele>
        <time>2023-03-01T16:54:00.490Z</time>
      </trkpt>
      <trkpt lat="51.157124" lon="13.862680">
        <ele>211.971778</ele>
        <time>2023-03-01T16:54:08.010Z</time>
      </trkpt>
      <trkpt lat="51.157103" lon="13.862541">
        <ele>211.979885</ele>
        <time>2023-03-01T16:54:17.575Z</time>
      </trkpt>
      <trkpt lat="51.156948" lon="13.862503">
        <ele>211.994061</ele>
        <time>2023-03-01T16:54:34.536Z</time>
      </trkpt>
      <trkpt lat="51.156773" lon="13.862362">
        <ele>212.011787</ele>
        <time>2023-03-01T16:54:54.358Z</time>
      </trkpt>
      <trkpt lat="51.156719" lon="13.862258">
        <ele>212.019442</ele>
        <time>2023-03-01T16:55:04.167Z</time>
      </trkpt>
      <trkpt lat="51.156626" lon="13.861970">
        <ele>212.037808</ele>
        <time>2023-03-01T16:55:25.270Z</time>
      </trkpt>
      <trkpt lat="51.156598" lon="13.861568">
        <ele>212.060742</ele>
        <time>2023-03-01T16:55:50.988Z</time>
      </trkpt>
      <trkpt lat="51.156704" lon="13.861272">
        <ele>212.080067</ele>
        <time>2023-03-01T16:56:12.691Z</time>
      </trkpt>
      <trkpt lat="51.156988" lon="13.860880">
        <ele>212.114335</ele>
        <time>2023-03-01T16:56:51.820Z</time>
      </trkpt>
      <trkpt lat="51.157208" lon="13.860691">
        <ele>212.153569</ele>
        <time>2023-03-01T16:57:17.986Z</time>
      </trkpt>
      <trkpt lat="51.157430" lon="13.860597">
        <ele>212.189631</ele>
        <time>2023-03-01T16:57:42.501Z</time>
      </trkpt>
      <trkpt lat="51.158008" lon="13.860170">
        <ele>212.289645</ele>
        <time>2023-03-01T16:58:46.566Z</time>
      </trkpt>
      <trkpt lat="51.158061" lon="13.860037">
        <ele>212.305161</ele>
        <time>2023-03-01T16:58:56.518Z</time>
      </trkpt>
      <trkpt lat="51.158067" lon="13.859923">
        <ele>212.316426</ele>
        <time>2023-03-01T16:59:03.910Z</time>
      </trkpt>
      <trkpt lat="51.158037" lon="13.859554">
        <ele>212.353064</ele>
        <time>2023-03-01T16:59:27.392Z</time>
      </trkpt>
      <trkpt lat="51.157954" lon="13.859309">
        <ele>212.380482</ele>
        <time>2023-03-01T16:59:45.322Z</time>
      </trkpt>
      <trkpt lat="51.157789" lon="13.859057">
        <ele>212.199414</ele>
        <time>2023-03-01T17:00:08.342Z</time>
      </trkpt>
      <trkpt lat="51.157584" lon="13.858899">
        <ele>211.854283</ele>
        <time>2023-03-01T17:00:31.477Z</time>
      </trkpt>
      <trkpt lat="51.157332" lon="13.858785">
        <ele>211.457233</ele>
        <time>2023-03-01T17:00:59.054Z</time>
      </trkpt>
      <trkpt lat="51.157278" lon="13.858602">
        <ele>211.264968</ele>
        <time>2023-03-01T17:01:12.152Z</time>
      </trkpt>
      <trkpt lat="51.157261" lon="13.858396">
        <ele>211.067442</ele>
        <time>2023-03-01T17:01:25.240Z</time>
      </trkpt>
      <trkpt lat="51.157294" lon="13.858326">
        <ele>210.984193</ele>
        <time>2023-03-01T17:01:30.862Z</time>
      </trkpt>
      <trkpt lat="51.157729" lon="13.857852">
        <ele>210.185565</ele>
        <time>2023-03-01T17:02:25.836Z</time>
      </trkpt>
      <trkpt lat="51.157694" lon="13.857642">
        <ele>209.978999</ele>
        <time>2023-03-01T17:02:40.260Z</time>
      </trkpt>
      <trkpt lat="51.157807" lon="13.857271">
        <ele>209.431986</ele>
        <time>2023-03-01T17:03:15.120Z</time>
      </trkpt>
      <trkpt lat="51.158119" lon="13.857023">
        <ele>207.914273</ele>
        <time>2023-03-01T17:04:02.406Z</time>
      </trkpt>
      <trkpt lat="51.158349" lon="13.857001">
        <ele>206.911172</ele>
        <time>2023-03-01T17:04:34.399Z</time>
      </trkpt>
      <trkpt lat="51.158480" lon="13.856988">
        <ele>206.339763</ele>
        <time>2023-03-01T17:04:52.514Z</time>
      </trkpt>
      <trkpt lat="51.158749" lon="13.856889">
        <ele>205.137887</ele>
        <time>2023-03-01T17:05:31.179Z</time>
      </trkpt>
      <trkpt lat="51.159937" lon="13.856906">
        <ele>200.465660</ele>
        <time>2023-03-01T17:08:18.295Z</time>
      </trkpt>
      <trkpt lat="51.160629" lon="13.856355">
        <ele>197.996813</ele>
        <time>2023-03-01T17:09:40.865Z</time>
      </trkpt>
      <trkpt lat="51.160698" lon="13.856317">
        <ele>197.763809</ele>
        <time>2023-03-01T17:09:48.367Z</time>
      </trkpt>
      <trkpt lat="51.161126" lon="13.856043">
        <ele>196.291701</ele>
        <time>2023-03-01T17:10:35.958Z</time>
      </trkpt>
      <trkpt lat="51.161231" lon="13.856262">
        <ele>196.070996</ele>
        <time>2023-03-01T17:10:53.778Z</time>
      </trkpt>
      <trkpt lat="51.161532" lon="13.856065">
        <ele>195.991907</ele>
        <time>2023-03-01T17:11:26.689Z</time>
      </trkpt>
      <trkpt lat="51.162657" lon="13.854932">
        <ele>195.668473</ele>
        <time>2023-03-01T17:13:42.432Z</time>
      </trkpt>
      <trkpt lat="51.163000" lon="13.854761">
        <ele>195.545600</ele>
        <time>2023-03-01T17:14:20.702Z</time>
      </trkpt>
      <trkpt lat="51.163230" lon="13.854538">
        <ele>195.451107</ele>
        <time>2023-03-01T17:14:48.990Z</time>
      </trkpt>
      <trkpt lat="51.163456" lon="13.854224">
        <ele>195.345882</ele>
        <time>2023-03-01T17:15:19.895Z</time>
      </trkpt>
      <trkpt lat="51.163584" lon="13.853910">
        <ele>195.263438</ele>
        <time>2023-03-01T17:15:43.631Z</time>
      </trkpt>
      <trkpt lat="51.163675" lon="13.853556">
        <ele>195.179216</ele>
        <time>2023-03-01T17:16:07.715Z</time>
      </trkpt>
      <trkpt lat="51.163821" lon="13.852465">
        <ele>194.280875</ele>
        <time>2023-03-01T17:17:19.865Z</time>
      </trkpt>
      <trkpt lat="51.163869" lon="13.851953">
        <ele>193.392376</ele>
        <time>2023-03-01T17:17:54.214Z</time>
      </trkpt>
      <trkpt lat="51.163986" lon="13.849819">
        <ele>189.559186</ele>
        <time>2023-03-01T17:20:18.420Z</time>
      </trkpt>
      <trkpt lat="51.163983" lon="13.849218">
        <ele>188.114466</ele>
        <time>2023-03-01T17:20:59.243Z</time>
      </trkpt>
      <trkpt lat="51.164197" lon="13.848220">
        <ele>185.579123</ele>
        <time>2023-03-01T17:22:11.166Z</time>
      </trkpt>
      <trkpt lat="51.164257" lon="13.847670">
        <ele>184.237193</ele>
        <time>2023-03-01T17:22:49.359Z</time>
      </trkpt>
      <trkpt lat="51.164283" lon="13.847430">
        <ele>183.651743</ele>
        <time>2023-03-01T17:23:06.126Z</time>
      </trkpt>
      <trkpt lat="51.164292" lon="13.847150">
        <ele>183.037233</ele>
        <time>2023-03-01T17:23:25.162Z</time>
      </trkpt>
      <trkpt lat="51.164260" lon="13.846866">
        <ele>182.519295</ele>
        <time>2023-03-01T17:23:44.944Z</time>
      </trkpt>
      <trkpt lat="51.164224" lon="13.846467">
        <ele>181.795723</ele>
        <time>2023-03-01T17:24:12.189Z</time>
      </trkpt>
      <trkpt lat="51.164110" lon="13.845414">
        <ele>179.877644</ele>
        <time>2023-03-01T17:25:24.311Z</time>
      </trkpt>
      <trkpt lat="51.164094" lon="13.845092">
        <ele>179.297847</ele>
        <time>2023-03-01T17:25:46.069Z</time>
      </trkpt>
      <trkpt lat="51.164032" lon="13.845091">
        <ele>179.120369</ele>
        <time>2023-03-01T17:25:52.663Z</time>
      </trkpt>
      <trkpt lat="51.163868" lon="13.844993">
        <ele>178.619059</ele>
        <time>2023-03-01T17:26:11.131Z</time>
      </trkpt>
      <trkpt lat="51.163778" lon="13.844929">
        <ele>178.336989</ele>
        <time>2023-03-01T17:26:21.584Z</time>
      </trkpt>
      <trkpt lat="51.163370" lon="13.844631">
        <ele>178.270367</ele>
        <time>2023-03-01T17:27:07.957Z</time>
      </trkpt>
      <trkpt lat="51.163123" lon="13.844532">
        <ele>178.419070</ele>
        <time>2023-03-01T17:27:33.767Z</time>
      </trkpt>
      <trkpt lat="51.162814" lon="13.844471">
        <ele>178.600865</ele>
        <time>2023-03-01T17:28:06.057Z</time>
      </trkpt>
      <trkpt lat="51.162682" lon="13.844478">
        <ele>178.677979</ele>
        <time>2023-03-01T17:28:20.188Z</time>
      </trkpt>
      <trkpt lat="51.162548" lon="13.844505">
        <ele>178.756841</ele>
        <time>2023-03-01T17:28:34.915Z</time>
      </trkpt>
      <trkpt lat="51.162369" lon="13.844517">
        <ele>178.861447</ele>
        <time>2023-03-01T17:28:54.731Z</time>
      </trkpt>
      <trkpt lat="51.162401" lon="13.844323">
        <ele>178.934898</ele>
        <time>2023-03-01T17:29:08.808Z</time>
      </trkpt>
      <trkpt lat="51.162412" lon="13.844209">
        <ele>178.977131</ele>
        <time>2023-03-01T17:29:16.840Z</time>
      </trkpt>
      <trkpt lat="51.162458" lon="13.843940">
        <ele>179.079224</ele>
        <time>2023-03-01T17:29:36.120Z</time>
      </trkpt>
      <trkpt lat="51.162542" lon="13.843607">
        <ele>179.455360</ele>
        <time>2023-03-01T17:30:01.084Z</time>
      </trkpt>
      <trkpt lat="51.162560" lon="13.843448">
        <ele>179.664638</ele>
        <time>2023-03-01T17:30:12.200Z</time>
      </trkpt>
      <trkpt lat="51.162469" lon="13.843060">
        <ele>180.201205</ele>
        <time>2023-03-01T17:30:40.761Z</time>
      </trkpt>
      <trkpt lat="51.162397" lon="13.842630">
        <ele>180.777689</ele>
        <time>2023-03-01T17:31:11.513Z</time>
      </trkpt>
      <trkpt lat="51.162354" lon="13.841989">
        <ele>181.612705</ele>
        <time>2023-03-01T17:31:55.739Z</time>
      </trkpt>
      <trkpt lat="51.162342" lon="13.841747">
        <ele>181.927142</ele>
        <time>2023-03-01T17:32:12.189Z</time>
      </trkpt>
      <trkpt lat="51.162339" lon="13.841695">
        <ele>181.994782</ele>
        <time>2023-03-01T17:32:15.756Z</time>
      </trkpt>
      <trkpt lat="51.162321" lon="13.841212">
        <ele>182.621509</ele>
        <time>2023-03-01T17:32:48.287Z</time>
      </trkpt>
      <trkpt lat="51.162298" lon="13.840849">
        <ele>182.968056</ele>
        <time>2023-03-01T17:33:12.820Z</time>
      </trkpt>
      <trkpt lat="51.162260" lon="13.840679">
        <ele>183.090577</ele>
        <time>2023-03-01T17:33:24.608Z</time>
      </trkpt>
      <trkpt lat="51.161825" lon="13.838777">
        <ele>184.464988</ele>
        <time>2023-03-01T17:35:34.741Z</time>
      </trkpt>
      <trkpt lat="51.161631" lon="13.837118">
        <ele>184.887245</ele>
        <time>2023-03-01T17:37:24.369Z</time>
      </trkpt>
      <trkpt lat="51.161597" lon="13.836841">
        <ele>184.912717</ele>
        <time>2023-03-01T17:37:42.186Z</time>
      </trkpt>
      <trkpt lat="51.161334" lon="13.835438">
        <ele>184.964631</ele>
        <time>2023-03-01T17:39:14.156Z</time>
      </trkpt>
      <trkpt lat="51.161390" lon="13.835399">
        <ele>184.900694</ele>
        <time>2023-03-01T17:39:20.676Z</time>
      </trkpt>
      <trkpt lat="51.161485" lon="13.835200">
        <ele>184.736592</ele>
        <time>2023-03-01T17:39:36.604Z</time>
      </trkpt>
      <trkpt lat="51.161499" lon="13.835042">
        <ele>184.631890</ele>
        <time>2023-03-01T17:39:46.752Z</time>
      </trkpt>
      <trkpt lat="51.161482" lon="13.834609">
        <ele>184.347218</ele>
        <time>2023-03-01T17:40:14.709Z</time>
      </trkpt>
      <trkpt lat="51.161631" lon="13.833896">
        <ele>183.854090</ele>
        <time>2023-03-01T17:41:03.371Z</time>
      </trkpt>
      <trkpt lat="51.161725" lon="13.833355">
        <ele>183.485739</ele>
        <time>2023-03-01T17:41:40.058Z</time>
      </trkpt>
      <trkpt lat="51.161749" lon="13.832982">
        <ele>183.239710</ele>
        <time>2023-03-01T17:42:04.744Z</time>
      </trkpt>
      <trkpt lat="51.161560" lon="13.832446">
        <ele>182.901535</ele>
        <time>2023-03-01T17:42:44.542Z</time>
      </trkpt>
      <trkpt lat="51.161361" lon="13.831437">
        <ele>182.350465</ele>
        <time>2023-03-01T17:43:52.544Z</time>
      </trkpt>
      <trkpt lat="51.161397" lon="13.830886">
        <ele>182.061841</ele>
        <time>2023-03-01T17:44:28.695Z</time>
      </trkpt>
      <trkpt lat="51.161474" lon="13.830755">
        <ele>181.968298</ele>
        <time>2023-03-01T17:44:40.052Z</time>
      </trkpt>
      <trkpt lat="51.161565" lon="13.830766">
        <ele>181.892482</ele>
        <time>2023-03-01T17:44:49.373Z</time>
      </trkpt>
      <trkpt lat="51.161659" lon="13.830910">
        <ele>181.784191</ele>
        <time>2023-03-01T17:45:03.343Z</time>
      </trkpt>
      <trkpt lat="51.161777" lon="13.831004">
        <ele>181.674608</ele>
        <time>2023-03-01T17:45:17.309Z</time>
      </trkpt>
      <trkpt lat="51.161899" lon="13.831048">
        <ele>181.758229</ele>
        <time>2023-03-01T17:45:30.023Z</time>
      </trkpt>
      <trkpt lat="51.162154" lon="13.831273">
        <ele>182.030213</ele>
        <time>2023-03-01T17:46:00.791Z</time>
      </trkpt>
      <trkpt lat="51.162291" lon="13.831342">
        <ele>182.164295</ele>
        <time>2023-03-01T17:46:15.446Z</time>
      </trkpt>
      <trkpt lat="51.162369" lon="13.831492">
        <ele>182.278338</ele>
        <time>2023-03-01T17:46:29.066Z</time>
      </trkpt>
      <trkpt lat="51.162511" lon="13.831510">
        <ele>182.411278</ele>
        <time>2023-03-01T17:46:44.434Z</time>
      </trkpt>
      <trkpt lat="51.162599" lon="13.831613">
        <ele>182.513153</ele>
        <time>2023-03-01T17:46:55.809Z</time>
      </trkpt>
      <trkpt lat="51.162669" lon="13.831404">
        <ele>182.651823</ele>
        <time>2023-03-01T17:47:12.691Z</time>
      </trkpt>
      <trkpt lat="51.162665" lon="13.831028">
        <ele>182.871911</ele>
        <time>2023-03-01T17:47:36.554Z</time>
      </trkpt>
      <trkpt lat="51.162629" lon="13.830795">
        <ele>183.012353</ele>
        <time>2023-03-01T17:47:53.685Z</time>
      </trkpt>
      <trkpt lat="51.162532" lon="13.830232">
        <ele>183.350553</ele>
        <time>2023-03-01T17:48:32.724Z</time>
      </trkpt>
      <trkpt lat="51.162448" lon="13.829963">
        <ele>183.488934</ele>
        <time>2023-03-01T17:48:51.540Z</time>
      </trkpt>
      <trkpt lat="51.162248" lon="13.829715">
        <ele>183.674973</ele>
        <time>2023-03-01T17:49:19.587Z</time>
      </trkpt>
      <trkpt lat="51.162096" lon="13.829621">
        <ele>183.794688</ele>
        <time>2023-03-01T17:49:36.184Z</time>
      </trkpt>
      <trkpt lat="51.161910" lon="13.829621">
        <ele>183.931270</ele>
        <time>2023-03-01T17:49:56.654Z</time>
      </trkpt>
      <trkpt lat="51.161831" lon="13.829621">
        <ele>183.989280</ele>
        <time>2023-03-01T17:50:04.986Z</time>
      </trkpt>
      <trkpt lat="51.161777" lon="13.829488">
        <ele>184.062242</ele>
        <time>2023-03-01T17:50:15.615Z</time>
      </trkpt>
      <trkpt lat="51.161748" lon="13.829199">
        <ele>184.197020</ele>
        <time>2023-03-01T17:50:35.253Z</time>
      </trkpt>
      <trkpt lat="51.161665" lon="13.829074">
        <ele>184.280854</ele>
        <time>2023-03-01T17:50:47.133Z</time>
      </trkpt>
      <trkpt lat="51.161498" lon="13.828972">
        <ele>184.412172</ele>
        <time>2023-03-01T17:51:05.507Z</time>
      </trkpt>
      <trkpt lat="51.161199" lon="13.828917">
        <ele>184.633186</ele>
        <time>2023-03-01T17:51:36.082Z</time>
      </trkpt>
      <trkpt lat="51.161081" lon="13.828800">
        <ele>184.504313</ele>
        <time>2023-03-01T17:51:50.240Z</time>
      </trkpt>
      <trkpt lat="51.161012" lon="13.828581">
        <ele>184.278088</ele>
        <time>2023-03-01T17:52:05.877Z</time>
      </trkpt>
      <trkpt lat="51.160924" lon="13.828394">
        <ele>184.062284</ele>
        <time>2023-03-01T17:52:20.898Z</time>
      </trkpt>
      <trkpt lat="51.160895" lon="13.827901">
        <ele>183.605221</ele>
        <time>2023-03-01T17:52:53.055Z</time>
      </trkpt>
      <trkpt lat="51.161066" lon="13.827745">
        <ele>183.315252</ele>
        <time>2023-03-01T17:53:13.708Z</time>
      </trkpt>
      <trkpt lat="51.161749" lon="13.827718">
        <ele>182.309663</ele>
        <time>2023-03-01T17:54:25.429Z</time>
      </trkpt>
      <trkpt lat="51.162025" lon="13.827611">
        <ele>181.874659</ele>
        <time>2023-03-01T17:54:55.519Z</time>
      </trkpt>
      <trkpt lat="51.162404" lon="13.827353">
        <ele>181.182095</ele>
        <time>2023-03-01T17:55:38.985Z</time>
      </trkpt>
      <trkpt lat="51.162820" lon="13.826831">
        <ele>180.292458</ele>
        <time>2023-03-01T17:56:34.221Z</time>
      </trkpt>
      <trkpt lat="51.163128" lon="13.826444">
        <ele>179.633448</ele>
        <time>2023-03-01T17:57:14.974Z</time>
      </trkpt>
      <trkpt lat="51.163166" lon="13.826349">
        <ele>179.514692</ele>
        <time>2023-03-01T17:57:22.434Z</time>
      </trkpt>
      <trkpt lat="51.163207" lon="13.826389">
        <ele>179.433914</ele>
        <time>2023-03-01T17:57:27.337Z</time>
      </trkpt>
      <trkpt lat="51.163271" lon="13.826268">
        <ele>179.267087</ele>
        <time>2023-03-01T17:57:37.394Z</time>
      </trkpt>
      <trkpt lat="51.163279" lon="13.826041">
        <ele>179.027471</ele>
        <time>2023-03-01T17:57:52.009Z</time>
      </trkpt>
      <trkpt lat="51.163241" lon="13.825815">
        <ele>178.936210</ele>
        <time>2023-03-01T17:58:07.066Z</time>
      </trkpt>
      <trkpt lat="51.163099" lon="13.825517">
        <ele>178.837300</ele>
        <time>2023-03-01T17:58:30.675Z</time>
      </trkpt>
      <trkpt lat="51.162950" lon="13.825068">
        <ele>178.703051</ele>
        <time>2023-03-01T17:59:02.521Z</time>
      </trkpt>
      <trkpt lat="51.162913" lon="13.824824">
        <ele>178.636709</ele>
        <time>2023-03-01T17:59:18.535Z</time>
      </trkpt>
      <trkpt lat="51.162924" lon="13.824423">
        <ele>178.530633</ele>
        <time>2023-03-01T17:59:43.747Z</time>
      </trkpt>
      <trkpt lat="51.162909" lon="13.824335">
        <ele>178.506533</ele>
        <time>2023-03-01T17:59:49.588Z</time>
      </trkpt>
      <trkpt lat="51.162892" lon="13.824237">
        <ele>178.479661</ele>
        <time>2023-03-01T17:59:56.087Z</time>
      </trkpt>
      <trkpt lat="51.163072" lon="13.823750">
        <ele>178.330268</ele>
        <time>2023-03-01T18:00:32.021Z</time>
      </trkpt>
      <trkpt lat="51.163314" lon="13.823073">
        <ele>178.193921</ele>
        <time>2023-03-01T18:01:21.247Z</time>
      </trkpt>
      <trkpt lat="51.163394" lon="13.822946">
        <ele>178.177616</ele>
        <time>2023-03-01T18:01:32.597Z</time>
      </trkpt>
      <trkpt lat="51.163448" lon="13.822715">
        <ele>178.155285</ele>
        <time>2023-03-01T18:01:48.617Z</time>
      </trkpt>
      <trkpt lat="51.163743" lon="13.821944">
        <ele>178.073476</ele>
        <time>2023-03-01T18:02:45.797Z</time>
      </trkpt>
      <trkpt lat="51.163989" lon="13.821758">
        <ele>178.034151</ele>
        <time>2023-03-01T18:03:13.424Z</time>
      </trkpt>
      <trkpt lat="51.164163" lon="13.821280">
        <ele>177.984089</ele>
        <time>2023-03-01T18:03:48.789Z</time>
      </trkpt>
      <trkpt lat="51.164169" lon="13.821154">
        <ele>177.972643</ele>
        <time>2023-03-01T18:03:57.105Z</time>
      </trkpt>
      <trkpt lat="51.164133" lon="13.821124">
        <ele>177.988613</ele>
        <time>2023-03-01T18:04:01.177Z</time>
      </trkpt>
      <trkpt lat="51.164083" lon="13.821080">
        <ele>178.029887</ele>
        <time>2023-03-01T18:04:06.873Z</time>
      </trkpt>
      <trkpt lat="51.163986" lon="13.820994">
        <ele>178.110099</ele>
        <time>2023-03-01T18:04:18.085Z</time>
      </trkpt>
      <trkpt lat="51.164022" lon="13.820893">
        <ele>178.162752</ele>
        <time>2023-03-01T18:04:25.447Z</time>
      </trkpt>
      <trkpt lat="51.164146" lon="13.820547">
        <ele>178.343369</ele>
        <time>2023-03-01T18:04:50.795Z</time>
      </trkpt>
      <trkpt lat="51.164158" lon="13.820512">
        <ele>178.361448</ele>
        <time>2023-03-01T18:04:53.397Z</time>
      </trkpt>
      <trkpt lat="51.164212" lon="13.820350">
        <ele>178.444598</ele>
        <time>2023-03-01T18:05:04.932Z</time>
      </trkpt>
      <trkpt lat="51.164240" lon="13.820263">
        <ele>178.488917</ele>
        <time>2023-03-01T18:05:11.166Z</time>
      </trkpt>
      <trkpt lat="51.164230" lon="13.820129">
        <ele>178.550077</ele>
        <time>2023-03-01T18:05:20.270Z</time>
      </trkpt>
      <trkpt lat="51.164243" lon="13.820027">
        <ele>178.597251</ele>
        <time>2023-03-01T18:05:27.178Z</time>
      </trkpt>
      <trkpt lat="51.164216" lon="13.819916">
        <ele>178.651210</ele>
        <time>2023-03-01T18:05:35.010Z</time>
      </trkpt>
      <trkpt lat="51.164127" lon="13.819502">
        <ele>178.849563</ele>
        <time>2023-03-01T18:06:04.019Z</time>
      </trkpt>
      <trkpt lat="51.164134" lon="13.819359">
        <ele>178.914571</ele>
        <time>2023-03-01T18:06:13.473Z</time>
      </trkpt>
      <trkpt lat="51.164080" lon="13.819287">
        <ele>178.965443</ele>
        <time>2023-03-01T18:06:20.816Z</time>
      </trkpt>
      <trkpt lat="51.163998" lon="13.819207">
        <ele>179.034919</ele>
        <time>2023-03-01T18:06:30.971Z</time>
      </trkpt>
      <trkpt lat="51.163833" lon="13.819046">
        <ele>179.174723</ele>
        <time>2023-03-01T18:06:51.387Z</time>
      </trkpt>
      <trkpt lat="51.163156" lon="13.818435">
        <ele>180.074986</ele>
        <time>2023-03-01T18:08:12.380Z</time>
      </trkpt>
      <trkpt lat="51.163208" lon="13.818360">
        <ele>180.162374</ele>
        <time>2023-03-01T18:08:19.799Z</time>
      </trkpt>
      <trkpt lat="51.163438" lon="13.818061">
        <ele>180.532224</ele>
        <time>2023-03-01T18:08:51.197Z</time>
      </trkpt>
      <trkpt lat="51.163208" lon="13.818360">
        <ele>180.902073</ele>
        <time>2023-03-01T18:09:22.812Z</time>
      </trkpt>
      <trkpt lat="51.163156" lon="13.818435">
        <ele>180.989461</ele>
        <time>2023-03-01T18:09:30.238Z</time>
      </trkpt>
      <trkpt lat="51.163066" lon="13.818521">
        <ele>181.120231</ele>
        <time>2023-03-01T18:09:41.351Z</time>
      </trkpt>
      <trkpt lat="51.162980" lon="13.818565">
        <ele>181.232799</ele>
        <time>2023-03-01T18:09:50.971Z</time>
      </trkpt>
      <trkpt lat="51.162893" lon="13.818609">
        <ele>181.346555</ele>
        <time>2023-03-01T18:10:00.690Z</time>
      </trkpt>
      <trkpt lat="51.162364" lon="13.818641">
        <ele>182.096815</ele>
        <time>2023-03-01T18:10:55.259Z</time>
      </trkpt>
      <trkpt lat="51.161888" lon="13.818652">
        <ele>182.798742</ele>
        <time>2023-03-01T18:11:43.453Z</time>
      </trkpt>
      <trkpt lat="51.161506" lon="13.818593">
        <ele>183.364629</ele>
        <time>2023-03-01T18:12:22.996Z</time>
      </trkpt>
      <trkpt lat="51.161287" lon="13.818524">
        <ele>183.693784</ele>
        <time>2023-03-01T18:12:46.556Z</time>
      </trkpt>
      <trkpt lat="51.161226" lon="13.818505">
        <ele>183.785427</ele>
        <time>2023-03-01T18:12:53.197Z</time>
      </trkpt>
      <trkpt lat="51.160677" lon="13.818243">
        <ele>184.977555</ele>
        <time>2023-03-01T18:13:55.175Z</time>
      </trkpt>
      <trkpt lat="51.160446" lon="13.818064">
        <ele>185.638232</ele>
        <time>2023-03-01T18:14:23.418Z</time>
      </trkpt>
      <trkpt lat="51.160326" lon="13.817929">
        <ele>186.016017</ele>
        <time>2023-03-01T18:14:39.679Z</time>
      </trkpt>
      <trkpt lat="51.160210" lon="13.817668">
        <ele>186.532095</ele>
        <time>2023-03-01T18:15:01.944Z</time>
      </trkpt>
      <trkpt lat="51.160145" lon="13.817429">
        <ele>186.952361</ele>
        <time>2023-03-01T18:15:20.153Z</time>
      </trkpt>
      <trkpt lat="51.159398" lon="13.813898">
        <ele>192.789213</ele>
        <time>2023-03-01T18:19:40.001Z</time>
      </trkpt>
      <trkpt lat="51.159343" lon="13.813761">
        <ele>193.040634</ele>
        <time>2023-03-01T18:19:50.798Z</time>
      </trkpt>
      <trkpt lat="51.157701" lon="13.812416">
        <ele>194.251380</ele>
        <time>2023-03-01T18:22:59.032Z</time>
      </trkpt>
      <trkpt lat="51.156123" lon="13.811367">
        <ele>192.151706</ele>
        <time>2023-03-01T18:25:54.976Z</time>
      </trkpt>
      <trkpt lat="51.155933" lon="13.811126">
        <ele>191.696882</ele>
        <time>2023-03-01T18:26:20.637Z</time>
      </trkpt>
      <trkpt lat="51.155608" lon="13.810533">
        <ele>190.493439</ele>
        <time>2023-03-01T18:27:12.577Z</time>
      </trkpt>
      <trkpt lat="51.155226" lon="13.810242">
        <ele>189.461913</ele>
        <time>2023-03-01T18:27:57.287Z</time>
      </trkpt>
      <trkpt lat="51.155034" lon="13.810080">
        <ele>188.932634</ele>
        <time>2023-03-01T18:28:20.940Z</time>
      </trkpt>
      <trkpt lat="51.154805" lon="13.809950">
        <ele>188.340361</ele>
        <time>2023-03-01T18:28:47.147Z</time>
      </trkpt>
      <trkpt lat="51.153852" lon="13.809710">
        <ele>186.343183</ele>
        <time>2023-03-01T18:30:28.567Z</time>
      </trkpt>
      <trkpt lat="51.153805" lon="13.809615">
        <ele>186.198288</ele>
        <time>2023-03-01T18:30:37.024Z</time>
      </trkpt>
      <trkpt lat="51.153706" lon="13.809655">
        <ele>186.003298</ele>
        <time>2023-03-01T18:30:47.597Z</time>
      </trkpt>
      <trkpt lat="51.153568" lon="13.809657">
        <ele>185.739813</ele>
        <time>2023-03-01T18:31:01.684Z</time>
      </trkpt>
      <trkpt lat="51.153172" lon="13.809534">
        <ele>184.969541</ele>
        <time>2023-03-01T18:31:43.025Z</time>
      </trkpt>
      <trkpt lat="51.152798" lon="13.809320">
        <ele>184.210890</ele>
        <time>2023-03-01T18:32:24.121Z</time>
      </trkpt>
      <trkpt lat="51.152679" lon="13.809202">
        <ele>184.131836</ele>
        <time>2023-03-01T18:32:38.576Z</time>
      </trkpt>
      <trkpt lat="51.152536" lon="13.809125">
        <ele>184.064306</ele>
        <time>2023-03-01T18:32:53.753Z</time>
      </trkpt>
      <trkpt lat="51.152522" lon="13.808941">
        <ele>184.012290</ele>
        <time>2023-03-01T18:33:06.118Z</time>
      </trkpt>
      <trkpt lat="51.152260" lon="13.808208">
        <ele>183.775529</ele>
        <time>2023-03-01T18:33:59.453Z</time>
      </trkpt>
      <trkpt lat="51.152245" lon="13.808167">
        <ele>183.762209</ele>
        <time>2023-03-01T18:34:02.445Z</time>
      </trkpt>
      <trkpt lat="51.152112" lon="13.807986">
        <ele>183.683972</ele>
        <time>2023-03-01T18:34:20.076Z</time>
      </trkpt>
      <trkpt lat="51.151787" lon="13.807818">
        <ele>183.531112</ele>
        <time>2023-03-01T18:34:54.252Z</time>
      </trkpt>
      <trkpt lat="51.151601" lon="13.807564">
        <ele>183.421538</ele>
        <time>2023-03-01T18:35:18.984Z</time>
      </trkpt>
      <trkpt lat="51.151590" lon="13.807558">
        <ele>183.416337</ele>
        <time>2023-03-01T18:35:20.152Z</time>
      </trkpt>
      <trkpt lat="51.151514" lon="13.807521">
        <ele>183.391596</ele>
        <time>2023-03-01T18:35:28.149Z</time>
      </trkpt>
      <trkpt lat="51.151302" lon="13.807552">
        <ele>183.552482</ele>
        <time>2023-03-01T18:35:49.886Z</time>
      </trkpt>
      <trkpt lat="51.151208" lon="13.807561">
        <ele>183.623648</ele>
        <time>2023-03-01T18:35:59.476Z</time>
      </trkpt>
      <trkpt lat="51.151199" lon="13.808349">
        <ele>183.997253</ele>
        <time>2023-03-01T18:36:50.662Z</time>
      </trkpt>
      <trkpt lat="51.151216" lon="13.808817">
        <ele>184.219476</ele>
        <time>2023-03-01T18:37:21.481Z</time>
      </trkpt>
      <trkpt lat="51.151088" lon="13.808886">
        <ele>184.321588</ele>
        <time>2023-03-01T18:37:35.645Z</time>
      </trkpt>
      <trkpt lat="51.151016" lon="13.808879">
        <ele>184.376102</ele>
        <time>2023-03-01T18:37:43.098Z</time>
      </trkpt>
      <trkpt lat="51.150588" lon="13.808835">
        <ele>184.700223</ele>
        <time>2023-03-01T18:38:27.841Z</time>
      </trkpt>
      <trkpt lat="51.149823" lon="13.808985">
        <ele>185.380251</ele>
        <time>2023-03-01T18:39:48.024Z</time>
      </trkpt>
      <trkpt lat="51.148954" lon="13.808960">
        <ele>186.156032</ele>
        <time>2023-03-01T18:41:17.966Z</time>
      </trkpt>
      <trkpt lat="51.148740" lon="13.808953">
        <ele>186.347085</ele>
        <time>2023-03-01T18:41:39.856Z</time>
      </trkpt>
      <trkpt lat="51.148508" lon="13.808955">
        <ele>186.518182</ele>
        <time>2023-03-01T18:42:03.451Z</time>
      </trkpt>
      <trkpt lat="51.148139" lon="13.808956">
        <ele>186.789632</ele>
        <time>2023-03-01T18:42:40.797Z</time>
      </trkpt>
      <trkpt lat="51.147351" lon="13.809384">
        <ele>187.402036</ele>
        <time>2023-03-01T18:44:05.696Z</time>
      </trkpt>
      <trkpt lat="51.146501" lon="13.809698">
        <ele>188.213977</ele>
        <time>2023-03-01T18:45:35.980Z</time>
      </trkpt>
      <trkpt lat="51.146160" lon="13.809782">
        <ele>188.584098</ele>
        <time>2023-03-01T18:46:11.514Z</time>
      </trkpt>
      <trkpt lat="51.145587" lon="13.809862">
        <ele>189.201089</ele>
        <time>2023-03-01T18:47:11.272Z</time>
      </trkpt>
      <trkpt lat="51.144998" lon="13.809883">
        <ele>189.830792</ele>
        <time>2023-03-01T18:48:13.961Z</time>
      </trkpt>
      <trkpt lat="51.144627" lon="13.809811">
        <ele>190.227778</ele>
        <time>2023-03-01T18:48:53.308Z</time>
      </trkpt>
      <trkpt lat="51.144033" lon="13.809615">
        <ele>190.872100</ele>
        <time>2023-03-01T18:49:55.984Z</time>
      </trkpt>
      <trkpt lat="51.143928" lon="13.809653">
        <ele>190.986470</ele>
        <time>2023-03-01T18:50:07.457Z</time>
      </trkpt>
      <trkpt lat="51.143352" lon="13.809392">
        <ele>191.557735</ele>
        <time>2023-03-01T18:51:09.187Z</time>
      </trkpt>
      <trkpt lat="51.143213" lon="13.809183">
        <ele>191.641153</ele>
        <time>2023-03-01T18:51:29.423Z</time>
      </trkpt>
      <trkpt lat="51.143085" lon="13.808830">
        <ele>191.752819</ele>
        <time>2023-03-01T18:51:55.898Z</time>
      </trkpt>
      <trkpt lat="51.143112" lon="13.808744">
        <ele>191.779157</ele>
        <time>2023-03-01T18:52:02.227Z</time>
      </trkpt>
      <trkpt lat="51.143169" lon="13.807263">
        <ele>192.185536</ele>
        <time>2023-03-01T18:53:35.620Z</time>
      </trkpt>
      <trkpt lat="51.143189" lon="13.806963">
        <ele>192.268163</ele>
        <time>2023-03-01T18:53:54.680Z</time>
      </trkpt>
      <trkpt lat="51.143259" lon="13.806589">
        <ele>192.342350</ele>
        <time>2023-03-01T18:54:19.308Z</time>
      </trkpt>
      <trkpt lat="51.143322" lon="13.806478">
        <ele>192.366010</ele>
        <time>2023-03-01T18:54:28.723Z</time>
      </trkpt>
      <trkpt lat="51.143390" lon="13.806492">
        <ele>192.383285</ele>
        <time>2023-03-01T18:54:35.677Z</time>
      </trkpt>
      <trkpt lat="51.143408" lon="13.806508">
        <ele>192.388477</ele>
        <time>2023-03-01T18:54:37.785Z</time>
      </trkpt>
      <trkpt lat="51.143499" lon="13.806522">
        <ele>192.411511</ele>
        <time>2023-03-01T18:54:47.081Z</time>
      </trkpt>
      <trkpt lat="51.143572" lon="13.806447">
        <ele>192.433393</ele>
        <time>2023-03-01T18:54:55.986Z</time>
      </trkpt>
      <trkpt lat="51.143602" lon="13.806325">
        <ele>192.454105</ele>
        <time>2023-03-01T18:55:04.322Z</time>
      </trkpt>
      <trkpt lat="51.143560" lon="13.806068">
        <ele>192.496084</ele>
        <time>2023-03-01T18:55:21.367Z</time>
      </trkpt>
      <trkpt lat="51.143346" lon="13.805265">
        <ele>192.633988</ele>
        <time>2023-03-01T18:56:16.965Z</time>
      </trkpt>
      <trkpt lat="51.143322" lon="13.804943">
        <ele>192.685243</ele>
        <time>2023-03-01T18:56:37.487Z</time>
      </trkpt>
      <trkpt lat="51.143320" lon="13.804471">
        <ele>192.750879</ele>
        <time>2023-03-01T18:57:07.125Z</time>
      </trkpt>
      <trkpt lat="51.143370" lon="13.803753">
        <ele>192.750879</ele>
        <time>2023-03-01T18:57:52.812Z</time>
      </trkpt>
      <trkpt lat="51.143377" lon="13.803638">
        <ele>192.750879</ele>
        <time>2023-03-01T18:58:00.277Z</time>
      </trkpt>
      <trkpt lat="51.143574" lon="13.803738">
        <ele>192.750879</ele>
        <time>2023-03-01T18:58:21.174Z</time>
      </trkpt>
      <trkpt lat="51.143697" lon="13.803753">
        <ele>192.750879</ele>
        <time>2023-03-01T18:58:33.761Z</time>
      </trkpt>
      <trkpt lat="51.143777" lon="13.803944">
        <ele>192.750879</ele>
        <time>2023-03-01T18:58:48.343Z</time>
      </trkpt>
      <trkpt lat="51.144244" lon="13.804036">
        <ele>192.750879</ele>
        <time>2023-03-01T18:59:36.099Z</time>
      </trkpt>
      <trkpt lat="51.144280" lon="13.804042">
        <ele>192.750879</ele>
        <time>2023-03-01T18:59:39.706Z</time>
      </trkpt>
    </trkseg>
  </trk>
</gpx>